<?xml version="1.0" encoding="UTF-8"?>
<kml xmlns="http://www.opengis.net/kml/2.2" xmlns:gx="http://www.google.com/kml/ext/2.2" xmlns:kml="http://www.opengis.net/kml/2.2" xmlns:atom="http://www.w3.org/2005/Atom">
<Document>
	<name>Karjat East Range.kml</name>
	<Style id="area20">
		<IconStyle>
			<Icon>
			</Icon>
		</IconStyle>
		<LineStyle>
			<color>ffff0000</color>
			<width>1.5</width>
		</LineStyle>
		<PolyStyle>
			<color>59ff00ff</color>
		</PolyStyle>
	</Style>
	<Style id="area211">
		<IconStyle>
			<Icon>
			</Icon>
		</IconStyle>
		<LineStyle>
			<color>ff00aa00</color>
			<width>1.5</width>
		</LineStyle>
		<PolyStyle>
			<color>597fff55</color>
		</PolyStyle>
	</Style>
	<Style id="area2120">
		<IconStyle>
			<Icon>
			</Icon>
		</IconStyle>
		<LineStyle>
			<color>ff00aa00</color>
			<width>1.5</width>
		</LineStyle>
		<PolyStyle>
			<color>597fff55</color>
		</PolyStyle>
	</Style>
	<StyleMap id="area215">
		<Pair>
			<key>normal</key>
			<styleUrl>#area23</styleUrl>
		</Pair>
		<Pair>
			<key>highlight</key>
			<styleUrl>#area20</styleUrl>
		</Pair>
	</StyleMap>
	<Style id="area23">
		<IconStyle>
			<Icon>
			</Icon>
		</IconStyle>
		<LineStyle>
			<color>ffff0000</color>
			<width>1.5</width>
		</LineStyle>
		<PolyStyle>
			<color>59ff00ff</color>
		</PolyStyle>
	</Style>
	<StyleMap id="area250">
		<Pair>
			<key>normal</key>
			<styleUrl>#area2120</styleUrl>
		</Pair>
		<Pair>
			<key>highlight</key>
			<styleUrl>#area211</styleUrl>
		</Pair>
	</StyleMap>
	<Folder>
		<name>Karjat East Range</name>
		<open>1</open>
		<Folder>
			<name>Non-Forest</name>
			<Folder>
				<name>Approach Road to Project Components</name>
				<open>1</open>
				<Placemark>
					<name>Approach Road to Project Components</name>
					<description>Component Name  :Approach Road to Project Components

Village	  :Bhivpuri Camp 
Taluka	  :Karjat
District 	  :Raigad

Proposed Private Area: 0.15 Ha</description>
					<styleUrl>#area215</styleUrl>
					<Polygon>
						<extrude>1</extrude>
						<outerBoundaryIs>
							<LinearRing>
								<coordinates>
									73.458262666,18.937684284,0 73.45800684699999,18.93777724,0 73.457947606,18.937783313,0 73.45792421100001,18.937790168,0 73.457867854,18.937836823,0 73.45779556399999,18.937926879,0 73.45770900700001,18.937998213,0 73.45765726099999,18.938061694,0 73.45758038699999,18.938163363,0 73.457513366,18.938226132,0 73.45741449400001,18.938229994,0 73.45752973899999,18.938122061,0 73.457604011,18.938023832,0 73.457660523,18.937954505,0 73.457746892,18.937883325,0 73.457819137,18.937793326,0 73.457891205,18.937733665,0 73.457934145,18.937721084,0 73.457991174,18.937715237,0 73.45820415,18.937637849,0 73.458390533,18.936685686,0 73.45845586999999,18.936697267,0 73.458262666,18.937684284,0 
								</coordinates>
							</LinearRing>
						</outerBoundaryIs>
					</Polygon>
				</Placemark>
				<Placemark>
					<name>Approach Road to Project Components</name>
					<description>Component Name  :Approach Road to Project Components

Village	  :Bhivpuri Camp 
Taluka	  :Karjat
District 	  :Raigad

Proposed Private Area: 0.18 Ha</description>
					<styleUrl>#area215</styleUrl>
					<Polygon>
						<extrude>1</extrude>
						<outerBoundaryIs>
							<LinearRing>
								<coordinates>
									73.456374963,18.937978503,0 73.456215595,18.938042551,0 73.456070262,18.938138867,0 73.455987329,18.938165701,0 73.455829311,18.938208584,0 73.45571912699999,18.938296202,0 73.455610128,18.938300458,0 73.45579751699999,18.938151447,0 73.455967504,18.938105316,0 73.456039981,18.938081865,0 73.45618332399999,18.937986868,0 73.45634942700001,18.937920113,0 73.45654702100001,18.937843025,0 73.45660588699999,18.937813926,0 73.456758372,18.93764541,0 73.456856837,18.937437689,0 73.45691668800001,18.937154291,0 73.456947348,18.936697677,0 73.45701382,18.936699548,0 73.456982729,18.937162575,0 73.456920514,18.937457168,0 73.456815005,18.937679748,0 73.456647893,18.937864429,0 73.456575003,18.93790046,0 73.456374963,18.937978503,0 
								</coordinates>
							</LinearRing>
						</outerBoundaryIs>
					</Polygon>
				</Placemark>
				<Placemark>
					<name>Approach Road to Project Components</name>
					<description>Component Name  :Approach Road to Project Components

Village	  :Bhivpuri Camp 
Taluka	  :Karjat
District 	  :Raigad

Proposed Private Area: 0.11 Ha</description>
					<styleUrl>#area215</styleUrl>
					<Polygon>
						<extrude>1</extrude>
						<outerBoundaryIs>
							<LinearRing>
								<coordinates>
									73.45199709800001,18.938168159,0 73.45200886000001,18.938441043,0 73.451942453,18.938443634,0 73.45192990699999,18.938152534,0 73.452276895,18.937576343,0 73.45253136700001,18.937231888,0 73.45258685500001,18.937266748,0 73.452333033,18.937610324,0 73.45199709800001,18.938168159,0 
								</coordinates>
							</LinearRing>
						</outerBoundaryIs>
					</Polygon>
				</Placemark>
				<Placemark>
					<name>Approach Road to Project Components</name>
					<description>Component Name  :Approach Road to Project Components

Village	  :Bhivpuri Camp 
Taluka	  :Karjat
District 	  :Raigad

Proposed Private Area: 0.10 Ha</description>
					<styleUrl>#area215</styleUrl>
					<Polygon>
						<extrude>1</extrude>
						<outerBoundaryIs>
							<LinearRing>
								<coordinates>
									73.44916744699999,18.93827696,0 73.449107032,18.938303514,0 73.448704359,18.9375738,0 73.44876267799999,18.937543448,0 73.44916744699999,18.93827696,0 
								</coordinates>
							</LinearRing>
						</outerBoundaryIs>
					</Polygon>
				</Placemark>
			</Folder>
			<Placemark>
				<name>Lower reservoir</name>
				<description>Component Name  :Lower reservoir
Proposed Area 	  :29.24 Ha Private Land
Village	  :Bhivpuri Camp 
Taluka	  :Karjat
District 	  :Raigad</description>
				<styleUrl>#area215</styleUrl>
				<Polygon>
					<extrude>1</extrude>
					<outerBoundaryIs>
						<LinearRing>
							<coordinates>
								73.450824213,18.943146316,0 73.448641513,18.945471094,0 73.44331157000001,18.944870505,0 73.442501444,18.942893118,0 73.445411296,18.940528016,0 73.445576604,18.940607981,0 73.44546254799999,18.94074571,0 73.44583542700001,18.941025304,0 73.446008148,18.940816733,0 73.446612351,18.941109002,0 73.448267347,18.941909555,0 73.44916576599999,18.942344128,0 73.450824213,18.943146316,0 
							</coordinates>
						</LinearRing>
					</outerBoundaryIs>
				</Polygon>
			</Placemark>
			<Placemark>
				<name>Labour Camp</name>
				<description>Component Name  :Labour Camp
Proposed Area      : 2.0 Ha Priavte Land

Village	  :Bhivpuri Camp 
Taluka	  :Karjat
District 	  :Raigad</description>
				<styleUrl>#area215</styleUrl>
				<Polygon>
					<extrude>1</extrude>
					<outerBoundaryIs>
						<LinearRing>
							<coordinates>
								73.451822576,18.938307996,0 73.450618085,18.938409691,0 73.450175793,18.93788403,0 73.449858457,18.937837853,0 73.449861274,18.937447691,0 73.45204250800001,18.937359958,0 73.451822576,18.938307996,0 
							</coordinates>
						</LinearRing>
					</outerBoundaryIs>
				</Polygon>
			</Placemark>
			<Placemark>
				<name>Magazine</name>
				<description>Component Name  :Magazine
Proposed Area 	  :0.40 Ha Private Land
Village	  :Bhivpuri Camp 
Taluka	  :Karjat
District 	  :Raigad</description>
				<styleUrl>#area215</styleUrl>
				<Polygon>
					<extrude>1</extrude>
					<outerBoundaryIs>
						<LinearRing>
							<coordinates>
								73.450201636,18.945156385,0 73.449707827,18.945152257,0 73.44971424800001,18.9444569,0 73.450208055,18.944461028,0 73.450201636,18.945156385,0 
							</coordinates>
						</LinearRing>
					</outerBoundaryIs>
				</Polygon>
			</Placemark>
			<Placemark>
				<name>Site Office</name>
				<description>Component Name  :Site office
Proposed Area       : 0.10 Ha Private Land
Village	  :Bhivpuri Camp 
Taluka	  :Karjat
District 	  :Raigad</description>
				<styleUrl>#area215</styleUrl>
				<Polygon>
					<extrude>1</extrude>
					<outerBoundaryIs>
						<LinearRing>
							<coordinates>
								73.4484532,18.93803712,0 73.44811793300001,18.938034313,0 73.448120315,18.937776542,0 73.44845558199999,18.937779349,0 73.4484532,18.93803712,0 
							</coordinates>
						</LinearRing>
					</outerBoundaryIs>
				</Polygon>
			</Placemark>
			<Placemark>
				<name>Batching plant, Crusher, Cement Storage in lower reservoir</name>
				<description>Component Name  :Batching plant, Crusher, Cement Storage in lower reservoir
Proposed Area      : 0.40 Ha Priavte Land

Village	  :Bhivpuri Camp 
Taluka	  :Karjat
District 	  :Raigad</description>
				<styleUrl>#area215</styleUrl>
				<Polygon>
					<extrude>1</extrude>
					<outerBoundaryIs>
						<LinearRing>
							<coordinates>
								73.44631142599999,18.940450502,0 73.446008148,18.940816733,0 73.44583542700001,18.941025304,0 73.44546254799999,18.94074571,0 73.445576604,18.940607981,0 73.445938548,18.940170909,0 73.44631142599999,18.940450502,0 
							</coordinates>
						</LinearRing>
					</outerBoundaryIs>
				</Polygon>
			</Placemark>
			<Placemark>
				<name>Power house, Transformer Yard, Switchyard</name>
				<description>Component Name  :Power house, Transformer Yard, Switchyard
Proposed Area      : 8.16 Ha Priavte Land

Village	  :Bhivpuri Camp 
Taluka	  :Karjat
District 	  :Raigad</description>
				<styleUrl>#area215</styleUrl>
				<Polygon>
					<extrude>1</extrude>
					<outerBoundaryIs>
						<LinearRing>
							<coordinates>
								73.449172662,18.942347464,0 73.448267347,18.941909555,0 73.448768939,18.941318356,0 73.447522947,18.940214869,0 73.446612351,18.941109002,0 73.446008148,18.940816733,0 73.44631142599999,18.940450502,0 73.445938548,18.940170909,0 73.445576604,18.940607981,0 73.445411296,18.940528016,0 73.44615523,18.939606214,0 73.44801230900001,18.938787472,0 73.4495103,18.940290661,0 73.450360061,18.941030665,0 73.449172662,18.942347464,0 
							</coordinates>
						</LinearRing>
					</outerBoundaryIs>
				</Polygon>
			</Placemark>
			<Placemark>
				<name>Underground TRT</name>
				<description>Component Name  :Underground TRT
Proposed Area      : 2.02 Ha Priavte Land

Village	  :Bhivpuri Camp 
Taluka	  :Karjat
District 	  :Raigad</description>
				<styleUrl>#area215</styleUrl>
				<Polygon>
					<extrude>1</extrude>
					<outerBoundaryIs>
						<LinearRing>
							<coordinates>
								73.448766457,18.941316158,0 73.448267347,18.941909555,0 73.446612351,18.941109002,0 73.447522947,18.940214869,0 73.448766457,18.941316158,0 
							</coordinates>
						</LinearRing>
					</outerBoundaryIs>
				</Polygon>
			</Placemark>
			<Folder>
				<name>Dump yard</name>
				<Placemark>
					<name>Dump yard</name>
					<description>Component Name  :Dump Yard
Proposed private area : 3.58 Ha

Village	  :Bhivpuri Camp 
Taluka	  :Karjat
District 	  :Raigad</description>
					<styleUrl>#area215</styleUrl>
					<Polygon>
						<extrude>1</extrude>
						<outerBoundaryIs>
							<LinearRing>
								<coordinates>
									73.45029328,18.946339809,0 73.44738365400001,18.946776257,0 73.447025669,18.945592811,0 73.448648659,18.945651651,0 73.45026993099999,18.945413918,0 73.45029328,18.946339809,0 
								</coordinates>
							</LinearRing>
						</outerBoundaryIs>
					</Polygon>
				</Placemark>
				<Folder>
					<name>Dump Yard</name>
					<Placemark>
						<name>Dump yard</name>
						<description>Component Name  :Dump Yard
Proposed Private area : 3.17 Ha

Village	  :Bhivpuri Camp 
Taluka	  :Karjat
District 	  :Raigad</description>
						<styleUrl>#area215</styleUrl>
						<Polygon>
							<extrude>1</extrude>
							<outerBoundaryIs>
								<LinearRing>
									<coordinates>
										73.445237236,18.939647649,0 73.44437643400001,18.94032258,0 73.44392918,18.939916767,0 73.444895213,18.939156886,0 73.445106512,18.938896639,0 73.44576238400001,18.93830582,0 73.446941657,18.937073371,0 73.44755951400001,18.937512228,0 73.445237236,18.939647649,0 
									</coordinates>
								</LinearRing>
							</outerBoundaryIs>
						</Polygon>
					</Placemark>
					<Placemark>
						<name>Dump yard</name>
						<description>Component Name  :Dump Yard
Proposed Private area : 6.37 Ha

Village	  :Bhivpuri Camp 
Taluka	  :Karjat
District 	  :Raigad</description>
						<styleUrl>#area215</styleUrl>
						<Polygon>
							<extrude>1</extrude>
							<outerBoundaryIs>
								<LinearRing>
									<coordinates>
										73.452224489,18.94233983,0 73.451667564,18.942497813,0 73.45165011500001,18.942845519,0 73.452034516,18.943377283,0 73.450921075,18.943648073,0 73.45059472299999,18.943514338,0 73.450977796,18.943160651,0 73.449452905,18.942230843,0 73.450541735,18.94102472,0 73.450024215,18.940514429,0 73.451891602,18.940340289,0 73.452224489,18.94233983,0 
									</coordinates>
								</LinearRing>
							</outerBoundaryIs>
						</Polygon>
					</Placemark>
					<Placemark>
						<name>Dump yard</name>
						<description>Component Name  :Dump Yard
Proposed private Area : 2.88 Ha

Village	  :Bhivpuri Camp 
Taluka	  :Karjat
District 	  :Raigad</description>
						<styleUrl>#area215</styleUrl>
						<Polygon>
							<extrude>1</extrude>
							<outerBoundaryIs>
								<LinearRing>
									<coordinates>
										73.44697753200001,18.936274064,0 73.44668256200001,18.935828874,0 73.447614757,18.934616937,0 73.448557732,18.93532053,0 73.450225561,18.93567285,0 73.44697753200001,18.936274064,0 
									</coordinates>
								</LinearRing>
							</outerBoundaryIs>
						</Polygon>
					</Placemark>
				</Folder>
			</Folder>
			<Folder>
				<name>Surface Penstock</name>
				<Placemark>
					<name>Surface Penstock</name>
					<description>Component Name  :Surface Penstock
Proposed private Area: 6.85 Ha
Village	  :Bhivpuri Camp 
Taluka	  :Karjat
District 	  :Raigad</description>
					<styleUrl>#area215</styleUrl>
					<Polygon>
						<extrude>1</extrude>
						<outerBoundaryIs>
							<LinearRing>
								<coordinates>
									73.451973137,18.939418423,0 73.452018966,18.939576863,0 73.452062213,18.939869383,0 73.45043575,18.939957219,0 73.45028896700001,18.940039723,0 73.45028896700001,18.940039723,0 73.45028642,18.940041143,0 73.450283863,18.940042546,0 73.450281295,18.940043932,0 73.450278717,18.9400453,0 73.450276129,18.940046651,0 73.45027353099999,18.940047984,0 73.45027092300001,18.9400493,0 73.450268306,18.940050599,0 73.450265679,18.94005188,0 73.450263042,18.940053143,0 73.45026039699999,18.940054388,0 73.45025774200001,18.940055616,0 73.450255078,18.940056825,0 73.450252405,18.940058017,0 73.450249723,18.940059191,0 73.450247033,18.940060346,0 73.450244334,18.940061484,0 73.45024162599999,18.940062603,0 73.450238911,18.940063704,0 73.450236187,18.940064787,0 73.45023345600001,18.940065852,0 73.45023071599999,18.940066898,0 73.450227969,18.940067926,0 73.450225214,18.940068935,0 73.45022245200001,18.940069925,0 73.450219683,18.940070897,0 73.45021690599999,18.940071851,0 73.45021412299999,18.940072786,0 73.45021133199999,18.940073702,0 73.450208535,18.940074599,0 73.450205731,18.940075477,0 73.450202921,18.940076337,0 73.45020010499999,18.940077177,0 73.450197282,18.940077999,0 73.45019445299999,18.940078801,0 73.45019161899999,18.940079585,0 73.450188778,18.940080349,0 73.450185932,18.940081095,0 73.45018308100001,18.940081821,0 73.45018022399999,18.940082528,0 73.45017736200001,18.940083216,0 73.450174495,18.940083884,0 73.450171623,18.940084534,0 73.45016874700001,18.940085164,0 73.45016586600001,18.940085774,0 73.45016298,18.940086365,0 73.45016009,18.940086937,0 73.45015719600001,18.940087489,0 73.450154298,18.940088022,0 73.45015139500001,18.940088536,0 73.45014849,18.940089029,0 73.45014558,18.940089504,0 73.45014266699999,18.940089958,0 73.45013975099999,18.940090394,0 73.450136832,18.940090809,0 73.45013391000001,18.940091205,0 73.450130984,18.940091581,0 73.450128056,18.940091938,0 73.450125126,18.940092274,0 73.450122193,18.940092592,0 73.450119258,18.940092889,0 73.45011632000001,18.940093167,0 73.45011338099999,18.940093425,0 73.45011044,18.940093663,0 73.450107497,18.940093881,0 73.450104553,18.94009408,0 73.45010160699999,18.940094258,0 73.45009865999999,18.940094417,0 73.45009571200001,18.940094556,0 73.450092763,18.940094676,0 73.45008981300001,18.940094775,0 73.45008686200001,18.940094855,0 73.45008391099999,18.940094915,0 73.450080959,18.940094954,0 73.45007800800001,18.940094975,0 73.450075056,18.940094975,0 73.450072104,18.940094955,0 73.450069153,18.940094916,0 73.450066201,18.940094856,0 73.450063251,18.940094777,0 73.45006030099999,18.940094678,0 73.450057352,18.94009456,0 73.450054403,18.940094421,0 73.450051456,18.940094263,0 73.45004851100001,18.940094084,0 73.450045566,18.940093886,0 73.450042623,18.940093668,0 73.450039682,18.940093431,0 73.450036743,18.940093173,0 73.450033805,18.940092896,0 73.45003087000001,18.940092599,0 73.450027937,18.940092283,0 73.450025006,18.940091946,0 73.450022078,18.94009159,0 73.450019153,18.940091215,0 73.45001623100001,18.940090819,0 73.45001331100001,18.940090404,0 73.45001039500001,18.94008997,0 73.450007482,18.940089516,0 73.450004573,18.940089042,0 73.450001667,18.940088548,0 73.449998765,18.940088036,0 73.44999586599999,18.940087503,0 73.449992972,18.940086951,0 73.449990082,18.94008638,0 73.449987196,18.940085789,0 73.44998431499999,18.940085179,0 73.44998143799999,18.94008455,0 73.449978566,18.940083901,0 73.44997569900001,18.940083233,0 73.449972837,18.940082546,0 73.44996998000001,18.940081839,0 73.449967128,18.940081114,0 73.449964282,18.940080369,0 73.449961442,18.940079605,0 73.449958607,18.940078822,0 73.449955778,18.940078019,0 73.449952955,18.940077198,0 73.44995013899999,18.940076358,0 73.44994732799999,18.940075499,0 73.449944524,18.940074621,0 73.449941727,18.940073725,0 73.449938936,18.940072809,0 73.449936153,18.940071875,0 73.449933376,18.940070922,0 73.449930606,18.940069951,0 73.449927844,18.94006896,0 73.449925089,18.940067952,0 73.44992234199999,18.940066924,0 73.44991960199999,18.940065879,0 73.44991687,18.940064815,0 73.449914147,18.940063732,0 73.449911431,18.940062632,0 73.44990872299999,18.940061513,0 73.449906024,18.940060376,0 73.449903334,18.940059221,0 73.449900652,18.940058047,0 73.449897979,18.940056856,0 73.449895314,18.940055647,0 73.449892659,18.94005442,0 73.449890013,18.940053175,0 73.44988737600001,18.940051912,0 73.44988474900001,18.940050632,0 73.449882131,18.940049334,0 73.44987952300001,18.940048018,0 73.449876925,18.940046685,0 73.449874337,18.940045335,0 73.449871759,18.940043967,0 73.449869191,18.940042582,0 73.449866633,18.940041179,0 73.44986408600001,18.94003976,0 73.44986154999999,18.940038323,0 73.44985902400001,18.940036869,0 73.449856509,18.940035399,0 73.44985400500001,18.940033911,0 73.449851512,18.940032407,0 73.449849031,18.940030886,0 73.449846561,18.940029348,0 73.449844102,18.940027794,0 73.449841655,18.940026223,0 73.449839219,18.940024636,0 73.449836796,18.940023033,0 73.449834384,18.940021413,0 73.449831985,18.940019777,0 73.44982959799999,18.940018125,0 73.449827223,18.940016457,0 73.44982486000001,18.940014773,0 73.44982251,18.940013074,0 73.44982017300001,18.940011358,0 73.449817848,18.940009627,0 73.44981553700001,18.94000788,0 73.449813238,18.940006118,0 73.449810953,18.94000434,0 73.44980868099999,18.940002547,0 73.44980642199999,18.940000739,0 73.449804177,18.939998916,0 73.449801945,18.939997077,0 73.449799727,18.939995224,0 73.449797523,18.939993356,0 73.449795333,18.939991472,0 73.449795333,18.939991472,0 73.4495103,18.940290661,0 73.44801230900001,18.938787472,0 73.449107032,18.938303514,0 73.44916744699999,18.93827696,0 73.449749901,18.938020952,0 73.449749901,18.938020952,0 73.449753966,18.938019204,0 73.449758046,18.938017488,0 73.44976214099999,18.938015807,0 73.449766252,18.93801416,0 73.449770378,18.938012547,0 73.449774518,18.938010968,0 73.44977867199999,18.938009423,0 73.449782841,18.938007913,0 73.449787023,18.938006437,0 73.449791218,18.938004996,0 73.449795427,18.93800359,0 73.449799648,18.938002219,0 73.449803882,18.938000883,0 73.449808127,18.937999582,0 73.449812385,18.937998316,0 73.449816653,18.937997085,0 73.449820933,18.93799589,0 73.44982522399999,18.93799473,0 73.449829525,18.937993606,0 73.449833836,18.937992517,0 73.449838157,18.937991464,0 73.449842487,18.937990447,0 73.449846827,18.937989466,0 73.44985117500001,18.937988521,0 73.449855532,18.937987611,0 73.449859897,18.937986738,0 73.44986427000001,18.937985901,0 73.44986865,18.937985101,0 73.44987303800001,18.937984336,0 73.44987743199999,18.937983608,0 73.44988183300001,18.937982917,0 73.44988624,18.937982261,0 73.44989065199999,18.937981643,0 73.449895071,18.937981061,0 73.44989949399999,18.937980515,0 73.449903922,18.937980006,0 73.44990835500001,18.937979534,0 73.44991279200001,18.937979099,0 73.449917232,18.9379787,0 73.449921676,18.937978338,0 73.449926124,18.937978013,0 73.44993057400001,18.937977724,0 73.44993502600001,18.937977473,0 73.449939481,18.937977258,0 73.449943937,18.93797708,0 73.44994839500001,18.93797694,0 73.449952854,18.937976836,0 73.449957314,18.937976769,0 73.449961774,18.937976739,0 73.44996623500001,18.937976745,0 73.449970695,18.937976789,0 73.449975155,18.93797687,0 73.449979613,18.937976987,0 73.449984071,18.937977142,0 73.449988526,18.937977333,0 73.44999298,18.937977561,0 73.449997432,18.937977827,0 73.45000188100001,18.937978129,0 73.450006327,18.937978467,0 73.45001077000001,18.937978843,0 73.450015209,18.937979255,0 73.450019645,18.937979704,0 73.45002407600001,18.93798019,0 73.450028502,18.937980713,0 73.450032924,18.937981272,0 73.45003733999999,18.937981867,0 73.450041751,18.9379825,0 73.450046155,18.937983168,0 73.450050554,18.937983873,0 73.45005494500001,18.937984615,0 73.45005933,18.937985393,0 73.450063708,18.937986207,0 73.450068078,18.937987057,0 73.45007244,18.937987943,0 73.450076794,18.937988866,0 73.45008113900001,18.937989825,0 73.45008547499999,18.937990819,0 73.45008980199999,18.937991849,0 73.450094119,18.937992915,0 73.450098427,18.937994017,0 73.450102724,18.937995155,0 73.450107011,18.937996328,0 73.45011128599999,18.937997536,0 73.450115551,18.93799878,0 73.450119804,18.938000059,0 73.450124045,18.938001373,0 73.45012827399999,18.938002722,0 73.45013249100001,18.938004106,0 73.45013669399999,18.938005525,0 73.450140885,18.938006979,0 73.450145062,18.938008467,0 73.45014922599999,18.93800999,0 73.450153375,18.938011548,0 73.45015751,18.938013139,0 73.45016163,18.938014765,0 73.450165735,18.938016425,0 73.450169825,18.938018119,0 73.45017389900001,18.938019846,0 73.45017795699999,18.938021608,0 73.45018199899999,18.938023402,0 73.45018602499999,18.93802523,0 73.450190033,18.938027092,0 73.450194025,18.938028986,0 73.450197999,18.938030914,0 73.450201955,18.938032874,0 73.450205893,18.938034867,0 73.450209812,18.938036893,0 73.450213713,18.938038951,0 73.450217596,18.938041041,0 73.450221458,18.938043163,0 73.45022530200001,18.938045317,0 73.45022912500001,18.938047503,0 73.45023292800001,18.93804972,0 73.450236711,18.938051969,0 73.45024047299999,18.938054249,0 73.450244215,18.93805656,0 73.45024793499999,18.938058902,0 73.45025163299999,18.938061274,0 73.45025531,18.938063677,0 73.450258964,18.938066111,0 73.450262596,18.938068575,0 73.45026620500001,18.938071068,0 73.450269792,18.938073592,0 73.45027335499999,18.938076145,0 73.450276895,18.938078727,0 73.45028041099999,18.938081339,0 73.450283903,18.938083979,0 73.450287371,18.938086649,0 73.450290814,18.938089347,0 73.450294232,18.938092073,0 73.45029762599999,18.938094828,0 73.450300994,18.938097611,0 73.450304336,18.938100421,0 73.450307653,18.938103259,0 73.45031094399999,18.938106124,0 73.45031420799999,18.938109017,0 73.450317446,18.938111936,0 73.450320656,18.938114882,0 73.45032384,18.938117855,0 73.450326997,18.938120853,0 73.450330126,18.938123878,0 73.450333227,18.938126929,0 73.4503363,18.938130005,0 73.450339345,18.938133106,0 73.450342362,18.938136233,0 73.45034535000001,18.938139384,0 73.45034830900001,18.93814256,0 73.450351238,18.938145761,0 73.450354139,18.938148985,0 73.450357009,18.938152234,0 73.45035985,18.938155506,0 73.450362661,18.938158801,0 73.45036544200001,18.93816212,0 73.450368192,18.938165461,0 73.450370912,18.938168825,0 73.450373601,18.938172212,0 73.450376259,18.938175621,0 73.45037888500001,18.938179051,0 73.45038148,18.938182503,0 73.450384043,18.938185977,0 73.450386575,18.938189471,0 73.450389074,18.938192987,0 73.450391541,18.938196523,0 73.450393976,18.938200079,0 73.45039637799999,18.938203655,0 73.450398748,18.938207251,0 73.45040108400001,18.938210867,0 73.45040338699999,18.938214501,0 73.450405657,18.938218155,0 73.45040789399999,18.938221827,0 73.450410097,18.938225518,0 73.450412266,18.938229227,0 73.450414401,18.938232953,0 73.450416502,18.938236697,0 73.450418568,18.938240459,0 73.4504206,18.938244237,0 73.450422598,18.938248032,0 73.45042456,18.938251843,0 73.45042648800001,18.938255671,0 73.45042838099999,18.938259514,0 73.45042838099999,18.938259514,0 73.45054459000001,18.938498184,0 73.451942453,18.938443634,0 73.45200886000001,18.938441043,0 73.452266585,18.938430984,0 73.451973137,18.939418423,0 
								</coordinates>
							</LinearRing>
						</outerBoundaryIs>
					</Polygon>
				</Placemark>
				<Placemark>
					<name>Surface Penstock </name>
					<description>Component Name  :Surface Penstock
Proposed private Area: 3.63 Ha
Village	  :Bhivpuri Camp 
Taluka	  :Karjat
District 	  :Raigad</description>
					<styleUrl>#area215</styleUrl>
					<Polygon>
						<extrude>1</extrude>
						<outerBoundaryIs>
							<LinearRing>
								<coordinates>
									73.45770935500001,18.939159716,0 73.457573557,18.93957164,0 73.457367379,18.939582781,0 73.45596456299999,18.939116758,0 73.455180665,18.938883832,0 73.453613201,18.938378422,0 73.455610128,18.938300458,0 73.45571912699999,18.938296202,0 73.45741449400001,18.938229994,0 73.457513366,18.938226132,0 73.458016879,18.938206465,0 73.457914415,18.938497925,0 73.45786160199999,18.938648152,0 73.45770935500001,18.939159716,0 
								</coordinates>
							</LinearRing>
						</outerBoundaryIs>
					</Polygon>
				</Placemark>
			</Folder>
		</Folder>
		<Folder>
			<name>Forest</name>
			<Placemark>
				<name>Surface Penstock</name>
				<description>Component Name  :Surface Penstoack

illage	  :Bhivpuri Camp 
Taluka	  :Karjat
District 	  :Raigad
		
Forest Details:
Circle	:Pune
Division	:Pune
Range	: Shirota
Compartment No	: 121

Proposed Forest area: 5.61 Ha</description>
				<styleUrl>#area250</styleUrl>
				<Polygon>
					<extrude>1</extrude>
					<outerBoundaryIs>
						<LinearRing>
							<coordinates>
								73.457364012,18.939581662,0 73.457367375,18.939582781,0 73.452062213,18.939869383,0 73.452018966,18.939576863,0 73.451973137,18.939418423,0 73.452266585,18.938430984,0 73.453613201,18.938378422,0 73.455180665,18.938883832,0 73.45596456299999,18.939116758,0 73.457364012,18.939581662,0 
							</coordinates>
						</LinearRing>
					</outerBoundaryIs>
				</Polygon>
			</Placemark>
		</Folder>
	</Folder>
</Document>
</kml>
