<?xml version="1.0" encoding="UTF-8"?>
<kml xmlns="http://www.opengis.net/kml/2.2" xmlns:gx="http://www.google.com/kml/ext/2.2" xmlns:kml="http://www.opengis.net/kml/2.2" xmlns:atom="http://www.w3.org/2005/Atom">
<Document>
	<name>New CA Land 20.15 Ha-25.04.2024 kml.kml</name>
	<open>1</open>
	<Style id="ESSDE">
		<IconStyle>
			<Icon>
			</Icon>
		</IconStyle>
		<LineStyle>
		</LineStyle>
		<PolyStyle>
			<fill>0</fill>
		</PolyStyle>
	</Style>
	<StyleMap id="ESSMAPDE">
		<Pair>
			<key>normal</key>
			<styleUrl>#ESSDE</styleUrl>
		</Pair>
	</StyleMap>
	<StyleMap id="ESSMAPPOLY_PARCEL">
		<Pair>
			<key>normal</key>
			<styleUrl>#ESSPOLY_PARCEL</styleUrl>
		</Pair>
	</StyleMap>
	<StyleMap id="ESSMAPS NO">
		<Pair>
			<key>normal</key>
			<styleUrl>#ESSS NO</styleUrl>
		</Pair>
	</StyleMap>
	<StyleMap id="ESSMAPSYM_LOGO">
		<Pair>
			<key>normal</key>
			<styleUrl>#ESSSYM_LOGO</styleUrl>
		</Pair>
	</StyleMap>
	<StyleMap id="ESSMAPV_BOUND_LINE">
		<Pair>
			<key>normal</key>
			<styleUrl>#ESSV_BOUND_LINE</styleUrl>
		</Pair>
	</StyleMap>
	<Style id="ESSPOLY_PARCEL">
		<IconStyle>
			<Icon>
			</Icon>
		</IconStyle>
		<LineStyle>
			<color>fff403fa</color>
		</LineStyle>
		<PolyStyle>
			<color>fff403fa</color>
			<fill>0</fill>
		</PolyStyle>
	</Style>
	<Style id="ESSS NO">
		<IconStyle>
			<Icon>
			</Icon>
		</IconStyle>
		<LineStyle>
			<color>ff0004fd</color>
		</LineStyle>
		<PolyStyle>
			<color>ff0004fd</color>
			<fill>0</fill>
		</PolyStyle>
	</Style>
	<Style id="ESSSYM_LOGO">
		<IconStyle>
			<Icon>
			</Icon>
		</IconStyle>
		<LineStyle>
			<color>ff0004fd</color>
		</LineStyle>
		<PolyStyle>
			<color>ff0004fd</color>
			<fill>0</fill>
		</PolyStyle>
	</Style>
	<Style id="ESSV_BOUND_LINE">
		<IconStyle>
			<Icon>
			</Icon>
		</IconStyle>
		<LineStyle>
			<color>fff403fa</color>
		</LineStyle>
		<PolyStyle>
			<color>fff403fa</color>
			<fill>0</fill>
		</PolyStyle>
	</Style>
	<StyleMap id="m_ylw-pushpin">
		<Pair>
			<key>normal</key>
			<styleUrl>#s_ylw-pushpin</styleUrl>
		</Pair>
		<Pair>
			<key>highlight</key>
			<styleUrl>#s_ylw-pushpin_hl</styleUrl>
		</Pair>
	</StyleMap>
	<Style id="s_ylw-pushpin">
		<IconStyle>
			<scale>1.1</scale>
			<Icon>
				<href>http://maps.google.com/mapfiles/kml/pushpin/ylw-pushpin.png</href>
			</Icon>
			<hotSpot x="20" y="2" xunits="pixels" yunits="pixels"/>
		</IconStyle>
		<LineStyle>
			<color>ffff5500</color>
			<width>3</width>
		</LineStyle>
		<PolyStyle>
			<color>8000aaff</color>
		</PolyStyle>
	</Style>
	<Style id="s_ylw-pushpin_hl">
		<IconStyle>
			<scale>1.3</scale>
			<Icon>
				<href>http://maps.google.com/mapfiles/kml/pushpin/ylw-pushpin.png</href>
			</Icon>
			<hotSpot x="20" y="2" xunits="pixels" yunits="pixels"/>
		</IconStyle>
		<LineStyle>
			<color>ffff5500</color>
			<width>3</width>
		</LineStyle>
		<PolyStyle>
			<color>8000aaff</color>
		</PolyStyle>
	</Style>
	<Folder>
		<name>DE</name>
		<open>1</open>
		<Placemark>
			<name>Proposed CA Land</name>
			<styleUrl>#m_ylw-pushpin</styleUrl>
			<Polygon>
				<outerBoundaryIs>
					<LinearRing>
						<coordinates>
							73.4821749946443,18.511471446151,0 73.4827003590599,18.5123994044388,0 73.48268896831109,18.5129255029858,0 73.482618756259,18.5131337009158,0 73.4825983041448,18.5132903652676,0 73.4826246024609,18.5133882892626,0 73.4827147972626,18.5134513854717,0 73.4828638899516,18.5135018699665,0 73.4828747217954,18.5135314188564,0 73.4828707085621,18.5139924662632,0 73.48142369098279,18.5146625652369,0 73.4795058387968,18.5135792101207,0 73.4785140926526,18.5128185685413,0 73.4791110089638,18.5122026124793,0 73.4779728362806,18.5105477508214,0 73.4793988920793,18.5086505899281,0 73.47984361309609,18.5091310028295,0 73.4799726169244,18.509320590306,0 73.4809165784369,18.5103484097527,0 73.4819939650239,18.5092305396621,0 73.4821749946443,18.511471446151,0 
						</coordinates>
					</LinearRing>
				</outerBoundaryIs>
			</Polygon>
		</Placemark>
		<Placemark>
			<name>20</name>
			<styleUrl>#ESSMAPDE</styleUrl>
			<Point>
				<coordinates>73.48206500930119,18.5092100781449,0</coordinates>
			</Point>
		</Placemark>
		<Placemark>
			<name>19</name>
			<styleUrl>#ESSMAPDE</styleUrl>
			<Point>
				<coordinates>73.48076643188141,18.5100245752445,0</coordinates>
			</Point>
		</Placemark>
		<Placemark>
			<name>18</name>
			<styleUrl>#ESSMAPDE</styleUrl>
			<Point>
				<coordinates>73.48003605352071,18.5092556099595,0</coordinates>
			</Point>
		</Placemark>
		<Placemark>
			<name>17</name>
			<styleUrl>#ESSMAPDE</styleUrl>
			<Point>
				<coordinates>73.47977781143651,18.5088592764406,0</coordinates>
			</Point>
		</Placemark>
		<Placemark>
			<name>16</name>
			<styleUrl>#ESSMAPDE</styleUrl>
			<Point>
				<coordinates>73.47933263434859,18.508430290039,0</coordinates>
			</Point>
		</Placemark>
		<Placemark>
			<name>15</name>
			<styleUrl>#ESSMAPDE</styleUrl>
			<Point>
				<coordinates>73.4778077963078,18.5101721146536,0</coordinates>
			</Point>
		</Placemark>
		<Placemark>
			<name>14</name>
			<styleUrl>#ESSMAPDE</styleUrl>
			<Point>
				<coordinates>73.4786301541052,18.5120616804727,0</coordinates>
			</Point>
		</Placemark>
		<Placemark>
			<name>13</name>
			<styleUrl>#ESSMAPDE</styleUrl>
			<Point>
				<coordinates>73.4780228304033,18.5127431105276,0</coordinates>
			</Point>
		</Placemark>
		<Placemark>
			<name>12</name>
			<styleUrl>#ESSMAPDE</styleUrl>
			<Point>
				<coordinates>73.47921646929019,18.5136743235346,0</coordinates>
			</Point>
		</Placemark>
		<Placemark>
			<name>11</name>
			<styleUrl>#ESSMAPDE</styleUrl>
			<Point>
				<coordinates>73.4814750804709,18.5146610319154,0</coordinates>
			</Point>
		</Placemark>
		<Placemark>
			<name>10</name>
			<styleUrl>#ESSMAPDE</styleUrl>
			<Point>
				<coordinates>73.4828995762763,18.5139647376813,0</coordinates>
			</Point>
		</Placemark>
		<Placemark>
			<name>9</name>
			<styleUrl>#ESSMAPDE</styleUrl>
			<Point>
				<coordinates>73.4828008183356,18.5135758309523,0</coordinates>
			</Point>
		</Placemark>
		<Placemark>
			<name>8</name>
			<styleUrl>#ESSMAPDE</styleUrl>
			<Point>
				<coordinates>73.4829002113552,18.5134330028196,0</coordinates>
			</Point>
		</Placemark>
		<Placemark>
			<name>7</name>
			<styleUrl>#ESSMAPDE</styleUrl>
			<Point>
				<coordinates>73.4825657129981,18.5134009009281,0</coordinates>
			</Point>
		</Placemark>
		<Placemark>
			<name>6</name>
			<styleUrl>#ESSMAPDE</styleUrl>
			<Point>
				<coordinates>73.4828108265622,18.5132656824073,0</coordinates>
			</Point>
		</Placemark>
		<Placemark>
			<name>5</name>
			<styleUrl>#ESSMAPDE</styleUrl>
			<Point>
				<coordinates>73.48263462465501,18.5132214987902,0</coordinates>
			</Point>
		</Placemark>
		<Placemark>
			<name>4</name>
			<styleUrl>#ESSMAPDE</styleUrl>
			<Point>
				<coordinates>73.48241833699861,18.513005378179,0</coordinates>
			</Point>
		</Placemark>
		<Placemark>
			<name>3</name>
			<styleUrl>#ESSMAPDE</styleUrl>
			<Point>
				<coordinates>73.4827252899574,18.5128566365026,0</coordinates>
			</Point>
		</Placemark>
		<Placemark>
			<name>2</name>
			<styleUrl>#ESSMAPDE</styleUrl>
			<Point>
				<coordinates>73.48273668089369,18.5123305391914,0</coordinates>
			</Point>
		</Placemark>
	</Folder>
	<Folder>
		<name>POLY_PARCEL</name>
		<Placemark>
			<name>1</name>
			<styleUrl>#ESSMAPPOLY_PARCEL</styleUrl>
			<Point>
				<coordinates>73.48221131897419,18.5114025770268,0</coordinates>
			</Point>
		</Placemark>
		<Placemark>
			<styleUrl>#ESSMAPPOLY_PARCEL</styleUrl>
			<LineString>
				<coordinates>
					73.4913218886351,18.5138785231951,0 73.48951100106621,18.5159275521489,0 
				</coordinates>
			</LineString>
		</Placemark>
		<Placemark>
			<styleUrl>#ESSMAPPOLY_PARCEL</styleUrl>
			<LineString>
				<coordinates>
					73.47763275011521,18.498396290913,0 73.4777271094233,18.4997499344517,0 73.4778816278284,18.501848126129,0 
				</coordinates>
			</LineString>
		</Placemark>
		<Placemark>
			<styleUrl>#ESSMAPPOLY_PARCEL</styleUrl>
			<LineString>
				<coordinates>
					73.4982776602133,18.5067506068306,0 73.4989531009707,18.5074260094548,0 73.4994652847551,18.5079432191547,0 73.4996555180344,18.5081253340395,0 73.5000690821833,18.5085389754981,0 73.5000699020506,18.508560659297,0 73.5004728322795,18.5089742238855,0 73.5008194592175,18.5093252681383,0 73.50086625681141,18.5093702696913,0 
				</coordinates>
			</LineString>
		</Placemark>
		<Placemark>
			<styleUrl>#ESSMAPPOLY_PARCEL</styleUrl>
			<LineString>
				<coordinates>
					73.4923031985341,18.5068840540285,0 73.4924966115142,18.5064607093125,0 73.4926649904812,18.5059943267902,0 73.4929669691855,18.5052337325963,0 73.4935587486533,18.5037123796847,0 
				</coordinates>
			</LineString>
		</Placemark>
		<Placemark>
			<styleUrl>#ESSMAPPOLY_PARCEL</styleUrl>
			<LineString>
				<coordinates>
					73.4877650940107,18.5013783963865,0 73.4885837571661,18.502337970795,0 73.4892880418479,18.503167209362,0 73.4903846298895,18.50444144451,0 73.4908899844434,18.5050096511071,0 73.49135868042841,18.5055722996213,0 73.49175203282491,18.5061011430934,0 73.492079042551,18.5065776815806,0 73.4923031985341,18.5068840540285,0 73.49217696215371,18.5071566311546,0 
				</coordinates>
			</LineString>
		</Placemark>
		<Placemark>
			<styleUrl>#ESSMAPPOLY_PARCEL</styleUrl>
			<LineString>
				<coordinates>
					73.4959911453558,18.5056052826168,0 73.49566349677571,18.5053761609698,0 73.49518447586409,18.5049913162762,0 73.49479806375329,18.5046793615225,0 73.4943620462667,18.5043154437482,0 73.49407039223,18.5040700366099,0 73.4939577349863,18.5040474043777,0 73.4936568783896,18.5037901108253,0 73.4935587486533,18.5037123796847,0 73.4934215130468,18.5035352217521,0 73.49313096228801,18.503111436659,0 73.4928181966205,18.5026360161321,0 73.49268122159791,18.502444280462,0 73.4923311968502,18.5019096531783,0 73.49188233952999,18.5012469297385,0 73.49148781492519,18.5006607993082,0 
				</coordinates>
			</LineString>
		</Placemark>
		<Placemark>
			<styleUrl>#ESSMAPPOLY_PARCEL</styleUrl>
			<LineString>
				<coordinates>
					73.49704071066169,18.5097253793798,0 73.4974835288791,18.508629147963,0 73.497686620233,18.5081886207372,0 73.4979501912883,18.5075324317232,0 73.49827299082961,18.5067400482533,0 
				</coordinates>
			</LineString>
		</Placemark>
		<Placemark>
			<styleUrl>#ESSMAPPOLY_PARCEL</styleUrl>
			<LineString>
				<coordinates>
					73.48829932735769,18.4984818028784,0 73.4879877825846,18.4992596803314,0 73.4879207353451,18.4994942429206,0 73.4879242807873,18.5003114628584,0 73.4879334400409,18.5012418451499,0 
				</coordinates>
			</LineString>
		</Placemark>
		<Placemark>
			<styleUrl>#ESSMAPPOLY_PARCEL</styleUrl>
			<LineString>
				<coordinates>
					73.4879334400409,18.5012418451499,0 73.4885823689084,18.5006391079474,0 73.48908647730239,18.5001537506978,0 73.48964495421291,18.4996351880466,0 73.49073709050769,18.4985910870692,0 73.4908326695018,18.4985020238616,0 
				</coordinates>
			</LineString>
		</Placemark>
		<Placemark>
			<styleUrl>#ESSMAPPOLY_PARCEL</styleUrl>
			<LineString>
				<coordinates>
					73.49271615447699,18.4985170357452,0 73.492570427693,18.4989663927843,0 73.4923821842753,18.4995676124868,0 73.4926557387969,18.5003790447094,0 73.49272724858839,18.5005888170213,0 
				</coordinates>
			</LineString>
		</Placemark>
		<Placemark>
			<styleUrl>#ESSMAPPOLY_PARCEL</styleUrl>
			<LineString>
				<coordinates>
					73.4768202505734,18.5037384821515,0 73.47692321980691,18.5037349509844,0 73.4789294261637,18.5033305718674,0 73.48048258179669,18.5030226285046,0 73.4811852077478,18.5028816813334,0 73.4828256135948,18.5025340677064,0 73.4843778203625,18.5026676839126,0 73.4850678900867,18.502740659388,0 73.4857294922505,18.5024477918021,0 73.4858817900587,18.5023368119139,0 73.4865495765177,18.5019791525505,0 73.4873285922428,18.5015783103655,0 73.4877099647824,18.5013911233158,0 73.4877650940107,18.5013783963865,0 73.4879334400409,18.5012418451499,0 73.4885707391382,18.5011376839141,0 73.4899525971193,18.500900777373,0 73.4902721752197,18.5008571171093,0 73.49112405013641,18.5007153493364,0 73.49143625203401,18.5006638728861,0 73.49173601266089,18.5006460044564,0 73.4924625015351,18.5005975527258,0 73.4927538085599,18.5005879406168,0 73.4937623712776,18.5002902492828,0 73.4941585011002,18.5001907519831,0 73.4950024472391,18.4999433604572,0 73.49522036041461,18.4998794813801,0 73.49607860658,18.4995827452418,0 73.49719320424749,18.4991845728031,0 73.4977136459203,18.4989958917751,0 
				</coordinates>
			</LineString>
		</Placemark>
		<Placemark>
			<styleUrl>#ESSMAPPOLY_PARCEL</styleUrl>
			<LineString>
				<coordinates>
					73.4821749946443,18.511471446151,0 73.4823996207346,18.511860049456,0 73.4827866983089,18.5125033385991,0 73.4831944865698,18.5131944509028,0 73.4834075641492,18.5135463545512,0 73.48348959999331,18.5136987404292,0 
				</coordinates>
			</LineString>
		</Placemark>
		<Placemark>
			<styleUrl>#ESSMAPPOLY_PARCEL</styleUrl>
			<LineString>
				<coordinates>
					73.4925920047645,18.5110058676626,0 73.4925431195152,18.5112998869134,0 73.49248974992931,18.5117717292804,0 73.4927168355667,18.512133058853,0 73.49279067345179,18.5122505463779,0 73.49260445856019,18.512305155708,0 73.4921973104716,18.5124209422205,0 73.4915023956128,18.5126277336131,0 73.4902728971224,18.5129754701218,0 73.4898175498306,18.5131113868465,0 73.4913218886351,18.5138785231951,0 73.49236151648969,18.5144234378923,0 73.49253014170159,18.5145346581894,0 
				</coordinates>
			</LineString>
		</Placemark>
		<Placemark>
			<styleUrl>#ESSMAPPOLY_PARCEL</styleUrl>
			<LineString>
				<coordinates>
					73.4947162917946,18.5153147696624,0 73.4941537722333,18.5144212123498,0 73.4937267903768,18.5137508506976,0 73.4933888451279,18.5131964334396,0 73.4927904598996,18.5122505505464,0 73.4929833508107,18.5122467852974,0 73.49351680676099,18.5122740193555,0 73.4939909522485,18.5122885214561,0 
				</coordinates>
			</LineString>
		</Placemark>
		<Placemark>
			<styleUrl>#ESSMAPPOLY_PARCEL</styleUrl>
			<LineString>
				<coordinates>
					73.49629988130459,18.5131004122905,0 73.49636579489599,18.5132842483068,0 73.49649864245841,18.5139128825144,0 73.4966056481192,18.5143928544866,0 73.49675963588069,18.5150793823302,0 73.4968089896668,18.5153102024526,0 
				</coordinates>
			</LineString>
		</Placemark>
		<Placemark>
			<styleUrl>#ESSMAPPOLY_PARCEL</styleUrl>
			<LineString>
				<coordinates>
					73.4963807018471,18.5123511264193,0 73.49629988130459,18.5131004122905,0 
				</coordinates>
			</LineString>
		</Placemark>
		<Placemark>
			<styleUrl>#ESSMAPPOLY_PARCEL</styleUrl>
			<LineString>
				<coordinates>
					73.4947211694795,18.5127778108907,0 73.49492541472139,18.5129146665113,0 73.49500804579471,18.5128213261208,0 73.49619717108099,18.5130794910564,0 73.49659501610159,18.5131605285055,0 73.49680494868031,18.5132050611582,0 73.49688781411329,18.5132022111402,0 73.49724712100981,18.513281729963,0 73.4973836043405,18.5133311235647,0 73.49767592276331,18.5126944622019,0 
				</coordinates>
			</LineString>
		</Placemark>
		<Placemark>
			<styleUrl>#ESSMAPPOLY_PARCEL</styleUrl>
			<LineString>
				<coordinates>
					73.4982776602133,18.5067506068306,0 73.49803850572719,18.506209820506,0 73.49789128867501,18.5058543797205,0 73.4975950189025,18.5052117871024,0 
				</coordinates>
			</LineString>
		</Placemark>
		<Placemark>
			<styleUrl>#ESSMAPPOLY_PARCEL</styleUrl>
			<LineString>
				<coordinates>
					73.4982776602133,18.5067506068306,0 73.49925779772499,18.5062493867115,0 
				</coordinates>
			</LineString>
		</Placemark>
		<Placemark>
			<styleUrl>#ESSMAPPOLY_PARCEL</styleUrl>
			<LineString>
				<coordinates>
					73.4989667213942,18.5121932138225,0 73.4989321827027,18.5120989345252,0 73.49882814281671,18.5112504766788,0 73.49878664920961,18.5109311112714,0 73.4987053986649,18.5104049449337,0 73.4986750692195,18.5101613627903,0 73.49861540158901,18.5097348260265,0 73.4985369781004,18.5092376001392,0 73.4984924481583,18.50898463043,0 73.4984285497558,18.5081735119651,0 73.4983674753292,18.5076164739897,0 73.4982776602133,18.5067506068306,0 
				</coordinates>
			</LineString>
		</Placemark>
		<Placemark>
			<styleUrl>#ESSMAPPOLY_PARCEL</styleUrl>
			<LineString>
				<coordinates>
					73.5000081685684,18.5124100440342,0 73.5000586758356,18.5120657769868,0 73.4999221891908,18.5120704735856,0 73.4989667213942,18.5121932138225,0 73.4989992897606,18.5126167807198,0 
				</coordinates>
			</LineString>
		</Placemark>
		<Placemark>
			<styleUrl>#ESSMAPPOLY_PARCEL</styleUrl>
			<LineString>
				<coordinates>
					73.49872469146059,18.5126713886573,0 73.4996531426351,18.5124867506226,0 73.5000081685684,18.5124100440342,0 73.5001894470238,18.5124435684159,0 
				</coordinates>
			</LineString>
		</Placemark>
		<Placemark>
			<styleUrl>#ESSMAPPOLY_PARCEL</styleUrl>
			<LineString>
				<coordinates>
					73.49836225781119,18.5159168637018,0 73.49841032895711,18.5155707028181,0 73.4985000185158,18.5148211225617,0 73.498620690113,18.5137565884252,0 73.4986796624702,18.5132842838781,0 73.49873225718871,18.5128605094867,0 73.49872469146059,18.5126713886573,0 
				</coordinates>
			</LineString>
		</Placemark>
		<Placemark>
			<styleUrl>#ESSMAPPOLY_PARCEL</styleUrl>
			<LineString>
				<coordinates>
					73.49926463516179,18.5154943565569,0 73.4996624399021,18.5147582507859,0 73.50019467013971,18.514813801663,0 73.50009889312889,18.5156479942308,0 
				</coordinates>
			</LineString>
		</Placemark>
		<Placemark>
			<styleUrl>#ESSMAPPOLY_PARCEL</styleUrl>
			<LineString>
				<coordinates>
					73.49706357624019,18.5154734642003,0 73.4971125356092,18.5153946083118,0 73.49796290830361,18.5157397402038,0 73.49836225781119,18.5159168637018,0 73.49926463516179,18.5154943565569,0 73.50009889312889,18.5156479942308,0 73.5008104592098,18.5157761138654,0 
				</coordinates>
			</LineString>
		</Placemark>
		<Placemark>
			<styleUrl>#ESSMAPPOLY_PARCEL</styleUrl>
			<LineString>
				<coordinates>
					73.4997505839364,18.5179498794285,0 73.49993955350121,18.5179581908314,0 73.5007904908508,18.5180679450742,0 
				</coordinates>
			</LineString>
		</Placemark>
		<Placemark>
			<styleUrl>#ESSMAPPOLY_PARCEL</styleUrl>
			<LineString>
				<coordinates>
					73.5008341644364,18.5130549552146,0 73.5003728578113,18.5130439435932,0 73.5001894470238,18.5124435684159,0 73.5003720298777,18.5124699531232,0 73.5008386982135,18.5125344622474,0 
				</coordinates>
			</LineString>
		</Placemark>
		<Placemark>
			<styleUrl>#ESSMAPPOLY_PARCEL</styleUrl>
			<LineString>
				<coordinates>
					73.4795058387968,18.5135792101207,0 73.4799673077155,18.5132142523603,0 73.4807864323576,18.5125693200445,0 73.4811851966527,18.5122434258727,0 73.4819331489972,18.5116550644006,0 73.4821749946443,18.511471446151,0 73.4822328696454,18.5114627443081,0 73.4829091033121,18.5114979386666,0 73.4831014692067,18.5114983187301,0 73.4832108219763,18.5113964115596,0 73.4838062908605,18.5108994255325,0 73.48454413460679,18.5102981365831,0 73.4854776340996,18.5095036896139,0 73.4856092346393,18.50939169106,0 73.4865695230563,18.5094981490845,0 73.4870821764209,18.5095538220978,0 73.488624381976,18.5097230310711,0 73.489253842815,18.5097919718406,0 73.4899157768134,18.5098654709137,0 73.49163976029349,18.5100735893539,0 73.49188555529931,18.5101734207944,0 73.4926520879898,18.5104230834482,0 73.4925920047645,18.5110058676626,0 73.4931744353632,18.5114657303998,0 73.493938188651,18.511205982944,0 73.4943685110982,18.5115822136429,0 73.4939909522485,18.5122885214561,0 73.4947211694795,18.5127778108907,0 73.4949800875934,18.5120619871969,0 73.4954319320659,18.5120593399173,0 73.4963807018471,18.5123511264193,0 73.49753676940421,18.5126505464263,0 73.49767592276331,18.5126944622019,0 73.4981814008199,18.5126882555878,0 73.49872469146059,18.5126713886573,0 
				</coordinates>
			</LineString>
		</Placemark>
		<Placemark>
			<styleUrl>#ESSMAPPOLY_PARCEL</styleUrl>
			<LineString>
				<coordinates>
					73.5001264478868,18.5027429840638,0 73.4998451328192,18.5026256906106,0 73.49922870585689,18.5023972377856,0 73.49868901733031,18.5022053698729,0 73.4983573015371,18.5020891004528,0 73.4980562104612,18.5019707473665,0 73.4975326441751,18.5017657459427,0 73.49687756155861,18.501516897444,0 73.4964845801245,18.501360544519,0 73.49586505607191,18.5011114982719,0 73.4959412583312,18.5013123786401,0 73.4961958883584,18.5019049007118,0 73.4963810262071,18.5023618595654,0 73.4967422214238,18.5032166159093,0 73.49686638093949,18.5035259412049,0 73.4970491788515,18.5039275582973,0 73.4972827615652,18.5044853337818,0 73.4975950189025,18.5052117871024,0 
				</coordinates>
			</LineString>
		</Placemark>
		<Placemark>
			<styleUrl>#ESSMAPPOLY_PARCEL</styleUrl>
			<LineString>
				<coordinates>
					73.50088877942081,18.5024863519143,0 73.50046766743441,18.5024029983806,0 73.5003117418799,18.5025952812645,0 73.5001264478868,18.5027429840638,0 73.5001570509222,18.5027902301961,0 73.50020368024531,18.5028359664517,0 73.50033396817609,18.5028724385857,0 73.5006177045085,18.502984682604,0 
				</coordinates>
			</LineString>
		</Placemark>
		<Placemark>
			<styleUrl>#ESSMAPPOLY_PARCEL</styleUrl>
			<LineString>
				<coordinates>
					73.5009150524037,18.5037661426573,0 73.5008520123864,18.5036030439605,0 73.5006706808414,18.5031244926887,0 73.5006177045085,18.502984682604,0 73.5008153281275,18.5027456667604,0 73.50088877942081,18.5024863519143,0 
				</coordinates>
			</LineString>
		</Placemark>
		<Placemark>
			<styleUrl>#ESSMAPPOLY_PARCEL</styleUrl>
			<LineString>
				<coordinates>
					73.49925779772499,18.5062493867115,0 73.49987145949881,18.5063451924662,0 73.500891193466,18.5065065694057,0 
				</coordinates>
			</LineString>
		</Placemark>
		<Placemark>
			<styleUrl>#ESSMAPPOLY_PARCEL</styleUrl>
			<LineString>
				<coordinates>
					73.49511888773949,18.5084102436378,0 73.4951788967817,18.5082021721877,0 73.4955711096806,18.5069508028085,0 73.4959911453558,18.5056052826168,0 73.49659429166169,18.5054615406541,0 73.4973963827248,18.5052548486405,0 73.4977332299991,18.5051818247364,0 73.4980540633517,18.5051313271966,0 73.4982137008905,18.5051273541215,0 73.49832860583091,18.5052103075254,0 73.49871641251271,18.5054914686449,0 73.4987937689942,18.5055467924052,0 73.4991462926462,18.5058734051719,0 73.49925779772499,18.5062493867115,0 
				</coordinates>
			</LineString>
		</Placemark>
		<Placemark>
			<styleUrl>#ESSMAPPOLY_PARCEL</styleUrl>
			<LineString>
				<coordinates>
					73.48142369098279,18.5146625652369,0 73.4810065367964,18.5144386423478,0 73.4804272806079,18.5140964519862,0 73.4795058387968,18.5135792101207,0 73.4792473993987,18.513363904113,0 73.4785140926526,18.5128185685413,0 73.4791110089638,18.5122026124793,0 73.4799908586125,18.5112924965218,0 73.4809165784369,18.5103484097527,0 73.48153615276421,18.5096976329817,0 73.4819939650239,18.5092305396621,0 73.48219140822781,18.5087395914572,0 73.4826391432549,18.5076841701129,0 73.4829284403439,18.506998098191,0 73.48329746242629,18.5061267936108,0 73.4838407932221,18.5048815627012,0 73.4838868071342,18.504753043573,0 73.4846594679022,18.5045286129541,0 73.48564609443901,18.5042562605728,0 73.48729596436451,18.5037951448996,0 
				</coordinates>
			</LineString>
		</Placemark>
		<Placemark>
			<styleUrl>#ESSMAPPOLY_PARCEL</styleUrl>
			<LineString>
				<coordinates>
					73.48348959999331,18.5136987404292,0 73.4838675448628,18.5143591093578,0 73.4841443713876,18.5148439637401,0 73.4845768572371,18.5155940730497,0 73.4850338922664,18.5163866280611,0 73.4852543666896,18.5167626207843,0 73.4853862230236,18.5169997761174,0 
				</coordinates>
			</LineString>
		</Placemark>
		<Placemark>
			<styleUrl>#ESSMAPPOLY_PARCEL</styleUrl>
			<LineString>
				<coordinates>
					73.4831289815847,18.51825413952,0 73.4829802770724,18.5179072391059,0 73.4826735020042,18.5172692198595,0 73.48229663550509,18.5164709727182,0 73.4818393100648,18.5154986369501,0 73.4815269339238,18.5148530060052,0 73.48142369098279,18.5146625652369,0 73.48197950606171,18.5144048476977,0 73.48257919505549,18.5141240853367,0 73.4832230762198,18.5138333704913,0 73.48348959999331,18.5136987404292,0 73.4837922391868,18.5135160561825,0 73.48436066098181,18.5131937107618,0 73.48501138499741,18.5128261947376,0 
				</coordinates>
			</LineString>
		</Placemark>
		<Placemark>
			<styleUrl>#ESSMAPPOLY_PARCEL</styleUrl>
			<LineString>
				<coordinates>
					73.4840077663805,18.521223548941,0 73.4836831597197,18.5201416211987,0 73.4834970440356,18.5195083737005,0 73.4831870434251,18.518441244658,0 73.4831289815847,18.51825413952,0 
				</coordinates>
			</LineString>
		</Placemark>
		<Placemark>
			<styleUrl>#ESSMAPPOLY_PARCEL</styleUrl>
			<LineString>
				<coordinates>
					73.4865427666319,18.5155456568013,0 73.4868945166382,18.5158853472082,0 73.4872680658214,18.5162299373456,0 73.4879880971438,18.5168691591222,0 73.4885655216676,18.5173991526195,0 73.4894357743093,18.5182073812404,0 
				</coordinates>
			</LineString>
		</Placemark>
		<Placemark>
			<styleUrl>#ESSMAPPOLY_PARCEL</styleUrl>
			<LineString>
				<coordinates>
					73.4799786144,18.5199462699138,0 73.4803357016448,18.5197695075007,0 73.4811764599703,18.5193105923491,0 73.4817552200242,18.5189982238506,0 73.4822595125291,18.5187210874176,0 73.4831289815847,18.51825413952,0 73.48391959000131,18.5178292485525,0 73.48473237817549,18.5173926837551,0 73.4853862230236,18.5169997761174,0 73.48550598762441,18.5168921840079,0 73.48584736194189,18.5164493820315,0 73.48627440055169,18.5159008454033,0 73.48653607019961,18.5155540391727,0 73.4871818496123,18.5147456687876,0 
				</coordinates>
			</LineString>
		</Placemark>
		<Placemark>
			<styleUrl>#ESSMAPPOLY_PARCEL</styleUrl>
			<LineString>
				<coordinates>
					73.4853862230236,18.5169997761174,0 73.4857456251176,18.5175594570184,0 73.4863899588717,18.5185551599433,0 73.4871130537468,18.5196359787415,0 
				</coordinates>
			</LineString>
		</Placemark>
		<Placemark>
			<styleUrl>#ESSMAPPOLY_PARCEL</styleUrl>
			<LineString>
				<coordinates>
					73.4871130537468,18.5196359787415,0 73.48725602936361,18.5197633698841,0 73.4876674088631,18.5201726251974,0 73.4880845309609,18.5205962184201,0 73.4884347142301,18.5209541739981,0 73.4888046611248,18.5213190786771,0 73.4890282559721,18.5215435890854,0 73.48912350594669,18.52165954753,0 
				</coordinates>
			</LineString>
		</Placemark>
		<Placemark>
			<styleUrl>#ESSMAPPOLY_PARCEL</styleUrl>
			<LineString>
				<coordinates>
					73.4848391867273,18.5224100974908,0 73.4845206914254,18.5219560224423,0 73.484112916724,18.5213707544598,0 73.4840077663805,18.521223548941,0 73.4845275391903,18.5209642851824,0 73.4852323124239,18.5205975924283,0 73.4862321573209,18.5200876013698,0 73.4869037625903,18.519744307384,0 73.4871301212835,18.5196271446053,0 
				</coordinates>
			</LineString>
		</Placemark>
		<Placemark>
			<styleUrl>#ESSMAPPOLY_PARCEL</styleUrl>
			<LineString>
				<coordinates>
					73.4854116914848,18.5222476613316,0 73.4861115123536,18.5233279322047,0 
				</coordinates>
			</LineString>
		</Placemark>
		<Placemark>
			<styleUrl>#ESSMAPPOLY_PARCEL</styleUrl>
			<LineString>
				<coordinates>
					73.4871301212835,18.5196271446053,0 73.48833434091929,18.5188876056569,0 73.4886127371328,18.5187144174517,0 73.48874498413549,18.518631054389,0 73.4894357743093,18.5182073812404,0 
				</coordinates>
			</LineString>
		</Placemark>
		<Placemark>
			<styleUrl>#ESSMAPPOLY_PARCEL</styleUrl>
			<LineString>
				<coordinates>
					73.4855014434612,18.5233230449398,0 73.485101898137,18.5227538117625,0 73.4848391867273,18.5224100974908,0 73.4849629339428,18.5223578908241,0 73.4855863496429,18.5222047592574,0 73.48630582617101,18.5221012578714,0 73.48735133079209,18.5219344548619,0 73.48855126708111,18.5217402231229,0 73.48912350594669,18.52165954753,0 
				</coordinates>
			</LineString>
		</Placemark>
		<Placemark>
			<styleUrl>#ESSMAPPOLY_PARCEL</styleUrl>
			<LineString>
				<coordinates>
					73.48747944670269,18.5233388835766,0 73.4887132990352,18.5228856252038,0 73.489435373796,18.5226182218581,0 73.4898589770452,18.522462104856,0 
				</coordinates>
			</LineString>
		</Placemark>
		<Placemark>
			<styleUrl>#ESSMAPPOLY_PARCEL</styleUrl>
			<LineString>
				<coordinates>
					73.4762977649459,18.4983855462548,0 73.47632813359,18.4986089728145,0 73.4764075571934,18.4992510737359,0 73.4764186618055,18.4994453210856,0 73.4765277478425,18.5002501669877,0 73.4766009417087,18.5008356167136,0 73.4766760432111,18.5014722066217,0 73.4760797914269,18.5031951826485,0 73.4761229211373,18.5031937037446,0 73.4768202505734,18.5037384821515,0 
				</coordinates>
			</LineString>
		</Placemark>
		<Placemark>
			<styleUrl>#ESSMAPPOLY_PARCEL</styleUrl>
			<LineString>
				<coordinates>
					73.4953164427702,18.4998462614333,0 73.49586505607191,18.5011114982719,0 
				</coordinates>
			</LineString>
		</Placemark>
		<Placemark>
			<styleUrl>#ESSMAPPOLY_PARCEL</styleUrl>
			<LineString>
				<coordinates>
					73.48158721033531,18.5001401391515,0 73.48155222613261,18.4998664768481,0 73.48149940421651,18.4991866454397,0 73.4814379963307,18.4984312562264,0 73.4814376566522,18.4984268631191,0 
				</coordinates>
			</LineString>
		</Placemark>
		<Placemark>
			<styleUrl>#ESSMAPPOLY_PARCEL</styleUrl>
			<LineString>
				<coordinates>
					73.4765810594444,18.5017466819301,0 73.4768661174818,18.5017651956477,0 73.4777275004186,18.5018367197107,0 73.4778816278284,18.501848126129,0 73.47810272409809,18.5017207661397,0 73.4786019758124,18.5013818164121,0 73.47946341810901,18.5008090257959,0 73.4798876037087,18.5005363211335,0 73.48067111213329,18.5003487528284,0 73.4813970045663,18.5001793015462,0 73.48158721033531,18.5001401391515,0 73.4820739401151,18.5002111778268,0 73.4824127642601,18.5002812706725,0 
				</coordinates>
			</LineString>
		</Placemark>
		<Placemark>
			<styleUrl>#ESSMAPPOLY_PARCEL</styleUrl>
			<LineString>
				<coordinates>
					73.47975016624819,18.4984133136707,0 73.4798077748234,18.4992967265811,0 73.47985531336511,18.5001202527572,0 73.4798816175844,18.500540169566,0 
				</coordinates>
			</LineString>
		</Placemark>
		<Placemark>
			<styleUrl>#ESSMAPPOLY_PARCEL</styleUrl>
			<LineString>
				<coordinates>
					73.49511888773949,18.5084102436378,0 73.4950725772252,18.5086136143848,0 73.49485667666529,18.5088868407547,0 73.4945336200543,18.5097141275182,0 73.4943122183052,18.5102701007908,0 73.4940004380358,18.5110304402781,0 73.493938188651,18.511205982944,0 
				</coordinates>
			</LineString>
		</Placemark>
		<Placemark>
			<styleUrl>#ESSMAPPOLY_PARCEL</styleUrl>
			<LineString>
				<coordinates>
					73.4921732200346,18.5071550537665,0 73.4921250837356,18.5073612076903,0 73.491978315344,18.5082962195862,0 73.49187352439711,18.5088209312411,0 73.4918319502948,18.5089417786743,0 73.4916529758283,18.5100789569508,0 73.49128364530119,18.5104285760125,0 73.4907178317366,18.5109814284576,0 73.490322602985,18.5113700143992,0 73.4890787824811,18.5126407910924,0 
				</coordinates>
			</LineString>
		</Placemark>
		<Placemark>
			<styleUrl>#ESSMAPPOLY_PARCEL</styleUrl>
			<LineString>
				<coordinates>
					73.4890787824811,18.5126407910924,0 73.48841223596931,18.5138292716371,0 73.4878764518209,18.5146429671944,0 73.4875466578257,18.5148505483086,0 
				</coordinates>
			</LineString>
		</Placemark>
		<Placemark>
			<styleUrl>#ESSMAPPOLY_PARCEL</styleUrl>
			<LineString>
				<coordinates>
					73.48566341822119,18.5130631618587,0 73.48760515663309,18.5110527275218,0 73.48830117246681,18.5101667902972,0 73.488624381976,18.5097230310711,0 
				</coordinates>
			</LineString>
		</Placemark>
		<Placemark>
			<styleUrl>#ESSMAPPOLY_PARCEL</styleUrl>
			<LineString>
				<coordinates>
					73.4773985126112,18.506581148316,0 73.47795227839281,18.5071335451337,0 73.47852698931371,18.5077477569422,0 73.4790793146546,18.5083304056018,0 73.4793730025284,18.5086226224555,0 73.47984361309609,18.5091310028295,0 73.4799726169244,18.509320590306,0 73.48045803867539,18.5098510627315,0 73.4809165784369,18.5103484097527,0 
				</coordinates>
			</LineString>
		</Placemark>
		<Placemark>
			<styleUrl>#ESSMAPPOLY_PARCEL</styleUrl>
			<LineString>
				<coordinates>
					73.48401458018419,18.5088389990168,0 73.484257495303,18.5084399566101,0 73.4846816068722,18.5078047068083,0 73.4849624003907,18.5073726571909,0 73.48548680686631,18.5065556115078,0 73.4860313225832,18.5057092773812,0 73.4862443381035,18.5053865225873,0 73.4871886927677,18.5039695647541,0 73.4873017168416,18.5037999756546,0 
				</coordinates>
			</LineString>
		</Placemark>
		<Placemark>
			<styleUrl>#ESSMAPPOLY_PARCEL</styleUrl>
			<LineString>
				<coordinates>
					73.4838868071342,18.504753043573,0 73.48373271340741,18.5047892287797,0 73.48339222774651,18.5048882869696,0 73.4826857368963,18.505089600204,0 73.4811395369104,18.5055051418868,0 73.4797178988902,18.5059109280673,0 73.4795218320053,18.505984852661,0 73.4781459973071,18.5063676446219,0 73.4773985126112,18.506581148316,0 73.4770648130545,18.508034211096,0 73.4768669136654,18.5088449883666,0 73.4769025837485,18.508993552573,0 73.4779728362806,18.5105477508214,0 73.4784035657046,18.5111690572193,0 73.4789385994179,18.5119296868548,0 73.4791110089638,18.5122026124793,0 
				</coordinates>
			</LineString>
		</Placemark>
		<Placemark>
			<styleUrl>#ESSMAPPOLY_PARCEL</styleUrl>
			<LineString>
				<coordinates>
					73.4760797914269,18.5031951826485,0 73.4766760432111,18.5014722066217,0 73.4766009417087,18.5008356167136,0 73.4765277478425,18.5002501669877,0 73.4764186618055,18.4994453210856,0 73.4764075571934,18.4992510737359,0 73.47632813359,18.4986089728145,0 73.4762977649459,18.4983855462548,0 
				</coordinates>
			</LineString>
		</Placemark>
		<Placemark>
			<styleUrl>#ESSMAPPOLY_PARCEL</styleUrl>
			<LineString>
				<coordinates>
					73.4860308880782,18.4987044876554,0 73.48616381507181,18.4984647310068,0 
				</coordinates>
			</LineString>
		</Placemark>
		<Placemark>
			<styleUrl>#ESSMAPPOLY_PARCEL</styleUrl>
			<LineString>
				<coordinates>
					73.4827509502268,18.4984373975989,0 73.48270082540481,18.498748235824,0 73.4825802034826,18.4993864831559,0 73.4824127642601,18.5002812706725,0 73.4824892788895,18.5002793521097,0 73.4831619311155,18.4999831934797,0 73.4841057114342,18.4995674723102,0 73.48519038123879,18.4990800547854,0 73.4858498899826,18.4987820280206,0 73.4860308880782,18.4987044876554,0 73.48668986978559,18.4989784517066,0 73.48726157152031,18.4992076125385,0 73.4879266770705,18.4994734560182,0 
				</coordinates>
			</LineString>
		</Placemark>
		<Placemark>
			<styleUrl>#ESSMAPPOLY_PARCEL</styleUrl>
			<LineString>
				<coordinates>
					73.4726956434646,18.4989873324873,0 73.4743243697469,18.4991952795197,0 73.4757439349716,18.4993826873964,0 73.476227591238,18.4994435833964,0 73.4764217393806,18.4994680277665,0 
				</coordinates>
			</LineString>
		</Placemark>
		<Placemark>
			<styleUrl>#ESSMAPPOLY_PARCEL</styleUrl>
			<LineString>
				<coordinates>
					73.4870821764209,18.5095538220978,0 73.4875382109763,18.5087474648575,0 73.48797461510431,18.5079411399264,0 73.4884292496683,18.5070813674035,0 73.4888959946429,18.5061810300881,0 73.4892428630386,18.5055521733612,0 73.48932601137039,18.5054014283475,0 
				</coordinates>
			</LineString>
		</Placemark>
		<Placemark>
			<styleUrl>#ESSMAPPOLY_PARCEL</styleUrl>
			<LineString>
				<coordinates>
					73.5008237235094,18.5142535431977,0 73.5003935831467,18.5136600428328,0 73.50009946392041,18.5134834811309,0 73.49918569919841,18.5129394955786,0 73.49872469146059,18.5126713886573,0 73.4985302889809,18.5124084088056,0 73.49804063701011,18.5116932866897,0 73.4976257305045,18.5110842527613,0 73.4974099304066,18.5106261617741,0 73.49713076605561,18.5099837783557,0 73.49704071066169,18.5097253793798,0 73.4969374202681,18.5096505678121,0 73.4967503799714,18.509510697604,0 73.4966572860488,18.5094988906577,0 73.4958507511149,18.5089610101493,0 73.4955601074966,18.5087006487548,0 73.49511888773949,18.5084102436378,0 73.49501942965949,18.5083535845542,0 73.49492913670881,18.5082660183535,0 73.4942121622596,18.507956019072,0 73.4941276592443,18.5079589244883,0 73.49335212255529,18.507635161876,0 73.4924027765757,18.5072518168756,0 73.4921732200346,18.5071550537665,0 73.49200982519871,18.5070722199688,0 73.49079982107649,18.5063421996262,0 73.4895213475655,18.5055217938634,0 73.48918419903519,18.5053140438325,0 73.4883517710914,18.5046635577923,0 73.4879745191635,18.5043508160128,0 73.48755941994369,18.5040163864326,0 73.48729596436451,18.5037951448996,0 73.4869984973466,18.5035329204724,0 73.48641799297771,18.5030314540163,0 73.4858905457186,18.5025970376709,0 73.4857294922505,18.5024477918021,0 
				</coordinates>
			</LineString>
		</Placemark>
		<Placemark>
			<styleUrl>#ESSMAPPOLY_PARCEL</styleUrl>
			<LineString>
				<coordinates>
					73.48760515663309,18.5110527275218,0 73.4890787824811,18.5126407910924,0 73.4898175498306,18.5131113868465,0 
				</coordinates>
			</LineString>
		</Placemark>
		<Placemark>
			<styleUrl>#ESSMAPPOLY_PARCEL</styleUrl>
			<LineString>
				<coordinates>
					73.4819939650239,18.5092305396621,0 73.4820259016019,18.5098232117051,0 73.48208918678969,18.5105050307811,0 73.4821357896064,18.5110902094049,0 73.4821749946443,18.511471446151,0 
				</coordinates>
			</LineString>
		</Placemark>
		<Placemark>
			<styleUrl>#ESSMAPPOLY_PARCEL</styleUrl>
			<LineString>
				<coordinates>
					73.4819939650239,18.5092305396621,0 73.4823895388744,18.509142171334,0 73.483611842988,18.5088935645925,0 73.48401458018419,18.5088389990168,0 73.4842830251014,18.5089421333906,0 73.484799241164,18.5091369703377,0 73.4854109947879,18.5093424339384,0 73.4856092346393,18.50939169106,0 
				</coordinates>
			</LineString>
		</Placemark>
	</Folder>
	<Folder>
		<name>S NO</name>
		<Placemark>
			<styleUrl>#ESSMAPS NO</styleUrl>
			<LineString>
				<coordinates>
					73.4979195737828,18.4989345944082,0 73.4979242956023,18.5001457703918,0 73.4967584195178,18.5006875667283,0 73.49586505607191,18.5011114982719,0 73.49513760760139,18.5019459788417,0 73.4945415073245,18.5026094441718,0 73.4940577612512,18.5032147699544,0 73.4939633729348,18.5032432224612,0 73.4935587486533,18.5037123796847,0 
				</coordinates>
			</LineString>
		</Placemark>
		<Placemark>
			<name>265P</name>
			<styleUrl>#ESSMAPS NO</styleUrl>
			<Point>
				<coordinates>73.47791662713649,18.5086502325284,0</coordinates>
			</Point>
		</Placemark>
		<Placemark>
			<name>263P</name>
			<styleUrl>#ESSMAPS NO</styleUrl>
			<Point>
				<coordinates>73.4830477432959,18.5135073317488,0</coordinates>
			</Point>
		</Placemark>
		<Placemark>
			<name>TATA TALAV</name>
			<styleUrl>#ESSMAPS NO</styleUrl>
			<Point>
				<coordinates>73.49379334996929,18.5210224498922,0</coordinates>
			</Point>
		</Placemark>
		<Placemark>
			<name>274P</name>
			<styleUrl>#ESSMAPS NO</styleUrl>
			<Point>
				<coordinates>73.4913529473942,18.5144328931833,0</coordinates>
			</Point>
		</Placemark>
		<Placemark>
			<name>281</name>
			<styleUrl>#ESSMAPS NO</styleUrl>
			<Point>
				<coordinates>73.4953640416748,18.5124663385331,0</coordinates>
			</Point>
		</Placemark>
		<Placemark>
			<name>286</name>
			<styleUrl>#ESSMAPS NO</styleUrl>
			<Point>
				<coordinates>73.4997063573046,18.5164733319862,0</coordinates>
			</Point>
		</Placemark>
		<Placemark>
			<name>252</name>
			<styleUrl>#ESSMAPS NO</styleUrl>
			<Point>
				<coordinates>73.4855438349753,18.5227479559836,0</coordinates>
			</Point>
		</Placemark>
		<Placemark>
			<name>225</name>
			<styleUrl>#ESSMAPS NO</styleUrl>
			<Point>
				<coordinates>73.5002921825739,18.5026014478996,0</coordinates>
			</Point>
		</Placemark>
		<Placemark>
			<name>79</name>
			<styleUrl>#ESSMAPS NO</styleUrl>
			<Point>
				<coordinates>73.4913211615029,18.4991953383122,0</coordinates>
			</Point>
		</Placemark>
		<Placemark>
			<name>142</name>
			<styleUrl>#ESSMAPS NO</styleUrl>
			<Point>
				<coordinates>73.4746087004569,18.5005179303455,0</coordinates>
			</Point>
		</Placemark>
		<Placemark>
			<name>216</name>
			<styleUrl>#ESSMAPS NO</styleUrl>
			<Point>
				<coordinates>73.4910887644037,18.5031548469883,0</coordinates>
			</Point>
		</Placemark>
		<Placemark>
			<name>FOREST 259</name>
			<styleUrl>#ESSMAPS NO</styleUrl>
			<Point>
				<coordinates>73.4789691709646,18.504298697339,0</coordinates>
			</Point>
		</Placemark>
		<Placemark>
			<name>214</name>
			<styleUrl>#ESSMAPS NO</styleUrl>
			<Point>
				<coordinates>73.4964259285936,18.4999190718127,0</coordinates>
			</Point>
		</Placemark>
		<Placemark>
			<name>215</name>
			<styleUrl>#ESSMAPS NO</styleUrl>
			<Point>
				<coordinates>73.4936549639249,18.501355574291,0</coordinates>
			</Point>
		</Placemark>
		<Placemark>
			<name>224</name>
			<styleUrl>#ESSMAPS NO</styleUrl>
			<Point>
				<coordinates>73.4987444805742,18.5039521130241,0</coordinates>
			</Point>
		</Placemark>
		<Placemark>
			<name>219</name>
			<styleUrl>#ESSMAPS NO</styleUrl>
			<Point>
				<coordinates>73.49556556130089,18.5035237425213,0</coordinates>
			</Point>
		</Placemark>
		<Placemark>
			<name>220</name>
			<styleUrl>#ESSMAPS NO</styleUrl>
			<Point>
				<coordinates>73.4966381147715,18.5070467136076,0</coordinates>
			</Point>
		</Placemark>
		<Placemark>
			<name>213</name>
			<styleUrl>#ESSMAPS NO</styleUrl>
			<Point>
				<coordinates>73.4990672609397,18.5011381004392,0</coordinates>
			</Point>
		</Placemark>
		<Placemark>
			<name>218</name>
			<styleUrl>#ESSMAPS NO</styleUrl>
			<Point>
				<coordinates>73.49392240008299,18.5062663409173,0</coordinates>
			</Point>
		</Placemark>
		<Placemark>
			<name>236</name>
			<styleUrl>#ESSMAPS NO</styleUrl>
			<Point>
				<coordinates>73.50024535577001,18.5107082618769,0</coordinates>
			</Point>
		</Placemark>
		<Placemark>
			<name>237</name>
			<styleUrl>#ESSMAPS NO</styleUrl>
			<Point>
				<coordinates>73.49788734469431,18.509990183995,0</coordinates>
			</Point>
		</Placemark>
		<Placemark>
			<name>239</name>
			<styleUrl>#ESSMAPS NO</styleUrl>
			<Point>
				<coordinates>73.5005386635605,18.5126232195736,0</coordinates>
			</Point>
		</Placemark>
		<Placemark>
			<name>287</name>
			<styleUrl>#ESSMAPS NO</styleUrl>
			<Point>
				<coordinates>73.5006108290634,18.5196497631576,0</coordinates>
			</Point>
		</Placemark>
		<Placemark>
			<name>285</name>
			<styleUrl>#ESSMAPS NO</styleUrl>
			<Point>
				<coordinates>73.4995595293462,18.5150986063044,0</coordinates>
			</Point>
		</Placemark>
		<Placemark>
			<name>283</name>
			<styleUrl>#ESSMAPS NO</styleUrl>
			<Point>
				<coordinates>73.4973503891777,18.5137752211029,0</coordinates>
			</Point>
		</Placemark>
		<Placemark>
			<name>278</name>
			<styleUrl>#ESSMAPS NO</styleUrl>
			<Point>
				<coordinates>73.49309639323739,18.511727494879,0</coordinates>
			</Point>
		</Placemark>
		<Placemark>
			<name>275</name>
			<styleUrl>#ESSMAPS NO</styleUrl>
			<Point>
				<coordinates>73.49087697846549,18.5115576711806,0</coordinates>
			</Point>
		</Placemark>
		<Placemark>
			<name>282</name>
			<styleUrl>#ESSMAPS NO</styleUrl>
			<Point>
				<coordinates>73.4965332641779,18.5126988743324,0</coordinates>
			</Point>
		</Placemark>
		<Placemark>
			<name>272</name>
			<styleUrl>#ESSMAPS NO</styleUrl>
			<Point>
				<coordinates>73.4891129691779,18.510895601327,0</coordinates>
			</Point>
		</Placemark>
		<Placemark>
			<name>FOREST 271</name>
			<styleUrl>#ESSMAPS NO</styleUrl>
			<Point>
				<coordinates>73.48883794576621,18.5080291347782,0</coordinates>
			</Point>
		</Placemark>
		<Placemark>
			<name>270</name>
			<styleUrl>#ESSMAPS NO</styleUrl>
			<Point>
				<coordinates>73.48639586092359,18.5073206592774,0</coordinates>
			</Point>
		</Placemark>
		<Placemark>
			<name>284</name>
			<styleUrl>#ESSMAPS NO</styleUrl>
			<Point>
				<coordinates>73.49941463056589,18.5139175781071,0</coordinates>
			</Point>
		</Placemark>
		<Placemark>
			<name>277</name>
			<styleUrl>#ESSMAPS NO</styleUrl>
			<Point>
				<coordinates>73.4948621136144,18.513675175348,0</coordinates>
			</Point>
		</Placemark>
		<Placemark>
			<name>259</name>
			<styleUrl>#ESSMAPS NO</styleUrl>
			<Point>
				<coordinates>73.4789380453395,18.5146817908929,0</coordinates>
			</Point>
		</Placemark>
		<Placemark>
			<name>265P</name>
			<styleUrl>#ESSMAPS NO</styleUrl>
			<Point>
				<coordinates>73.4792611162994,18.5102290528447,0</coordinates>
			</Point>
		</Placemark>
		<Placemark>
			<name>276</name>
			<styleUrl>#ESSMAPS NO</styleUrl>
			<Point>
				<coordinates>73.4927910777713,18.5090141634292,0</coordinates>
			</Point>
		</Placemark>
		<Placemark>
			<name>280</name>
			<styleUrl>#ESSMAPS NO</styleUrl>
			<Point>
				<coordinates>73.49544636245621,18.5108724145005,0</coordinates>
			</Point>
		</Placemark>
		<Placemark>
			<name>274P</name>
			<styleUrl>#ESSMAPS NO</styleUrl>
			<Point>
				<coordinates>73.48932142802261,18.5140689289235,0</coordinates>
			</Point>
		</Placemark>
		<Placemark>
			<name>263P</name>
			<styleUrl>#ESSMAPS NO</styleUrl>
			<Point>
				<coordinates>73.4813998883931,18.5130771143005,0</coordinates>
			</Point>
		</Placemark>
		<Placemark>
			<name>262</name>
			<styleUrl>#ESSMAPS NO</styleUrl>
			<Point>
				<coordinates>73.48329995621251,18.5125218150226,0</coordinates>
			</Point>
		</Placemark>
		<Placemark>
			<name>273</name>
			<styleUrl>#ESSMAPS NO</styleUrl>
			<Point>
				<coordinates>73.4869617610556,18.5130134862934,0</coordinates>
			</Point>
		</Placemark>
		<Placemark>
			<name>261</name>
			<styleUrl>#ESSMAPS NO</styleUrl>
			<Point>
				<coordinates>73.48509310424561,18.5145563007654,0</coordinates>
			</Point>
		</Placemark>
		<Placemark>
			<name>256</name>
			<styleUrl>#ESSMAPS NO</styleUrl>
			<Point>
				<coordinates>73.4865549866486,18.5175426625653,0</coordinates>
			</Point>
		</Placemark>
		<Placemark>
			<name>257</name>
			<styleUrl>#ESSMAPS NO</styleUrl>
			<Point>
				<coordinates>73.4849170693747,18.5190455745331,0</coordinates>
			</Point>
		</Placemark>
		<Placemark>
			<name>254</name>
			<styleUrl>#ESSMAPS NO</styleUrl>
			<Point>
				<coordinates>73.48882390445419,18.5197327117974,0</coordinates>
			</Point>
		</Placemark>
		<Placemark>
			<name>268</name>
			<styleUrl>#ESSMAPS NO</styleUrl>
			<Point>
				<coordinates>73.4830188999133,18.509911462426,0</coordinates>
			</Point>
		</Placemark>
		<Placemark>
			<name>FOREST 64</name>
			<styleUrl>#ESSMAPS NO</styleUrl>
			<Point>
				<coordinates>73.4802061469327,18.5015102533463,0</coordinates>
			</Point>
		</Placemark>
		<Placemark>
			<name>63</name>
			<styleUrl>#ESSMAPS NO</styleUrl>
			<Point>
				<coordinates>73.476899703325,18.498403007321,0</coordinates>
			</Point>
		</Placemark>
		<Placemark>
			<name>217</name>
			<styleUrl>#ESSMAPS NO</styleUrl>
			<Point>
				<coordinates>73.48882702382031,18.5041686882634,0</coordinates>
			</Point>
		</Placemark>
		<Placemark>
			<name>221</name>
			<styleUrl>#ESSMAPS NO</styleUrl>
			<Point>
				<coordinates>73.49809248454299,18.5057301442471,0</coordinates>
			</Point>
		</Placemark>
		<Placemark>
			<name>238</name>
			<styleUrl>#ESSMAPS NO</styleUrl>
			<Point>
				<coordinates>73.49913577201519,18.5121936566752,0</coordinates>
			</Point>
		</Placemark>
		<Placemark>
			<name>279</name>
			<styleUrl>#ESSMAPS NO</styleUrl>
			<Point>
				<coordinates>73.49206703992149,18.5135666386997,0</coordinates>
			</Point>
		</Placemark>
		<Placemark>
			<name>269</name>
			<styleUrl>#ESSMAPS NO</styleUrl>
			<Point>
				<coordinates>73.4858299211166,18.5107186218944,0</coordinates>
			</Point>
		</Placemark>
		<Placemark>
			<name>267</name>
			<styleUrl>#ESSMAPS NO</styleUrl>
			<Point>
				<coordinates>73.483525111643,18.5069825213243,0</coordinates>
			</Point>
		</Placemark>
		<Placemark>
			<name>266</name>
			<styleUrl>#ESSMAPS NO</styleUrl>
			<Point>
				<coordinates>73.4800098097855,18.5076691494813,0</coordinates>
			</Point>
		</Placemark>
		<Placemark>
			<name>264</name>
			<styleUrl>#ESSMAPS NO</styleUrl>
			<Point>
				<coordinates>73.48070058225061,18.5115370266906,0</coordinates>
			</Point>
		</Placemark>
		<Placemark>
			<name>260</name>
			<styleUrl>#ESSMAPS NO</styleUrl>
			<Point>
				<coordinates>73.4832466604649,18.515855233152,0</coordinates>
			</Point>
		</Placemark>
		<Placemark>
			<name>255</name>
			<styleUrl>#ESSMAPS NO</styleUrl>
			<Point>
				<coordinates>73.48869905723279,18.5166114827505,0</coordinates>
			</Point>
		</Placemark>
		<Placemark>
			<name>253</name>
			<styleUrl>#ESSMAPS NO</styleUrl>
			<Point>
				<coordinates>73.4859812618121,18.5210819345262,0</coordinates>
			</Point>
		</Placemark>
		<Placemark>
			<name>258</name>
			<styleUrl>#ESSMAPS NO</styleUrl>
			<Point>
				<coordinates>73.48251554654669,18.5206777144017,0</coordinates>
			</Point>
		</Placemark>
		<Placemark>
			<name>251</name>
			<styleUrl>#ESSMAPS NO</styleUrl>
			<Point>
				<coordinates>73.4874725249921,18.5225342559733,0</coordinates>
			</Point>
		</Placemark>
	</Folder>
	<Folder>
		<name>SYM_LOGO</name>
		<Placemark>
			<name>Prop.CA Land</name>
			<styleUrl>#ESSMAPSYM_LOGO</styleUrl>
			<Point>
				<coordinates>73.47973033439931,18.5119994635785,0</coordinates>
			</Point>
		</Placemark>
	</Folder>
	<Folder>
		<name>V_BOUND_LINE</name>
		<Placemark>
			<name>VADGAON</name>
			<styleUrl>#ESSMAPV_BOUND_LINE</styleUrl>
			<Point>
				<coordinates>73.4897385170305,18.5039394001475,0</coordinates>
			</Point>
		</Placemark>
		<Placemark>
			<styleUrl>#ESSMAPV_BOUND_LINE</styleUrl>
			<LineString>
				<coordinates>
					73.48951100106621,18.5159275521489,0 73.4894133995233,18.5158221261235,0 73.48913810805369,18.5154168807881,0 73.4890399644469,18.5153177892566,0 73.48865782925211,18.5150330731881,0 73.4880153897988,18.5145555155991,0 73.4875466578257,18.5148505483086,0 73.48732050767249,18.5146246779368,0 73.4865184272212,18.5142891146355,0 73.48628396496559,18.5140876453989,0 73.4861514061523,18.5136658147736,0 73.48566341822119,18.5130631618587,0 73.48559609457,18.5130105368101,0 73.48519232068109,18.512779684669,0 73.4849907245702,18.5126573100644,0 73.4845707119903,18.5124178332867,0 73.4840004476343,18.5120834546371,0 73.4831014692067,18.5114983187301,0 
				</coordinates>
			</LineString>
		</Placemark>
		<Placemark>
			<styleUrl>#ESSMAPV_BOUND_LINE</styleUrl>
			<LineString>
				<coordinates>
					73.4968089896668,18.5153102024526,0 73.49671093559191,18.5152950937605,0 73.4957945030808,18.5153235419255,0 73.49522994483981,18.5153341503494,0 73.49482349896471,18.5153458287397,0 73.4943562390047,18.5152104579562,0 73.4938418165105,18.5150461722574,0 73.49358231193121,18.5149147109074,0 73.49336243509229,18.5148252956847,0 73.49302607056811,18.5147143864576,0 73.49253014170159,18.5145346581894,0 73.4920298238075,18.5147776399026,0 73.49106082200851,18.5152091627421,0 73.4899516932721,18.5157162606533,0 73.48951100106621,18.5159275521489,0 
				</coordinates>
			</LineString>
		</Placemark>
		<Placemark>
			<styleUrl>#ESSMAPV_BOUND_LINE</styleUrl>
			<LineString>
				<coordinates>
					73.4968089896668,18.5153102024526,0 73.4968731945104,18.5153829203206,0 73.4969320268746,18.5153808969415,0 73.4969926921078,18.5154031834518,0 73.49706357624019,18.5154734642003,0 
				</coordinates>
			</LineString>
		</Placemark>
		<Placemark>
			<styleUrl>#ESSMAPV_BOUND_LINE</styleUrl>
			<LineString>
				<coordinates>
					73.4997505839364,18.5179498794285,0 73.4993735364578,18.5175982173966,0 73.4988636673465,18.5171373355744,0 73.49848964853059,18.5167905403337,0 73.4981108174002,18.5164395376994,0 73.4976404313764,18.5160123547795,0 73.4973526938429,18.5157433114032,0 73.49706357624019,18.5154734642003,0 
				</coordinates>
			</LineString>
		</Placemark>
		<Placemark>
			<styleUrl>#ESSMAPV_BOUND_LINE</styleUrl>
			<LineString>
				<coordinates>
					73.5007642639579,18.5210775785266,0 73.50074784318829,18.5210325293574,0 73.5005524184153,18.5204145668735,0 73.5004284560042,18.520080157506,0 73.50025511352951,18.5195332436653,0 73.5002442358405,18.5194748301136,0 73.49997906311771,18.5186345620325,0 73.4997505839364,18.5179498794285,0 
				</coordinates>
			</LineString>
		</Placemark>
		<Placemark>
			<styleUrl>#ESSMAPV_BOUND_LINE</styleUrl>
			<LineString>
				<coordinates>
					73.4905321987639,18.5233632875204,0 73.4898728412397,18.5224705308328,0 73.4897722667322,18.5224094065447,0 73.48930277297011,18.5218658657775,0 73.48912350594669,18.52165954753,0 73.4894543334602,18.521416642936,0 73.49029440381349,18.5207818400736,0 73.4907561894188,18.5204313056812,0 73.4911347544769,18.52014173903,0 73.4909786979365,18.5199486045809,0 73.49056289781571,18.5194458818113,0 73.4902770940942,18.5191366157001,0 73.4894357743093,18.5182073812404,0 73.4913704324489,18.5170087106717,0 73.49101137414679,18.5168044695774,0 73.4907980892704,18.5163347784426,0 73.4905719956095,18.5158988228166,0 
				</coordinates>
			</LineString>
		</Placemark>
		<Placemark>
			<styleUrl>#ESSMAPV_BOUND_LINE</styleUrl>
			<LineString>
				<coordinates>
					73.4760797914269,18.5031951826485,0 73.4761229211373,18.5031937037446,0 73.4768202505734,18.5037384821515,0 
				</coordinates>
			</LineString>
		</Placemark>
		<Placemark>
			<styleUrl>#ESSMAPV_BOUND_LINE</styleUrl>
			<LineString>
				<coordinates>
					73.4718163285949,18.5028551269121,0 73.4719555218194,18.5029531352864,0 73.472056664511,18.5030004540411,0 73.4726071761956,18.5030321096178,0 73.4743620998204,18.5031164911134,0 73.4760797914269,18.5031951826485,0 
				</coordinates>
			</LineString>
		</Placemark>
		<Placemark>
			<styleUrl>#ESSMAPV_BOUND_LINE</styleUrl>
			<LineString>
				<coordinates>
					73.4768202505734,18.5037384821515,0 73.4767218617507,18.5043534597139,0 73.47634878267711,18.5062617871124,0 73.476230745813,18.5068839855421,0 73.4758412731821,18.5084888008949,0 73.4757696541904,18.5088372491157,0 73.4755166213273,18.509877270281,0 73.47557851946701,18.5101171925211,0 73.4758879077588,18.5111959774415,0 73.4760975750843,18.5119409834281,0 73.4762938917829,18.5126417232102,0 73.47657399243759,18.513635388032,0 73.4766221884116,18.5137947494369,0 73.4769381671547,18.5143971656249,0 73.4774091400393,18.5153035282665,0 73.4779264777752,18.516310481089,0 73.47808857218619,18.5166124447623,0 73.4781566505312,18.516739266738,0 73.4782288032423,18.5170602926486,0 73.4784495393959,18.5178833169699,0 73.478625201304,18.5185174560166,0 73.4786801548486,18.5187114086126,0 73.47891826082029,18.5189483773724,0 73.4794720345013,18.5194776452851,0 73.47991765978701,18.5199071001126,0 73.4801795376715,18.520075384161,0 73.4809237980493,18.5206263747635,0 73.4812677531272,18.520866504325,0 73.4823522255172,18.521667248577,0 73.4825836028777,18.5218587737769,0 73.48374090249099,18.522720076529,0 73.4845326731399,18.5233152800703,0 
				</coordinates>
			</LineString>
		</Placemark>
		<Placemark>
			<styleUrl>#ESSMAPV_BOUND_LINE</styleUrl>
			<LineString>
				<coordinates>
					73.5009270772301,18.5023847947433,0 73.50088877942081,18.5024863519143,0 73.5009261808087,18.5024877750587,0 
				</coordinates>
			</LineString>
		</Placemark>
		<Placemark>
			<styleUrl>#ESSMAPV_BOUND_LINE</styleUrl>
			<LineString>
				<coordinates>
					73.4718163285949,18.5028551269121,0 73.4719984553595,18.5021399457492,0 73.4722964918391,18.5008257161611,0 73.4725638877069,18.4996671851928,0 73.4726703584362,18.499176113184,0 73.4727066416694,18.4989052185579,0 73.4727023260161,18.4983565614483,0 
				</coordinates>
			</LineString>
		</Placemark>
		<Placemark>
			<styleUrl>#ESSMAPV_BOUND_LINE</styleUrl>
			<LineString>
				<coordinates>
					73.4905719956095,18.5158988228166,0 73.4899523372878,18.5160406385748,0 73.4893367777714,18.516196345071,0 73.4889520678354,18.5155208128604,0 73.4885470970669,18.5151956637775,0 73.4880596432901,18.5148357630167,0 73.4875686217265,18.5151099271476,0 73.4871818496123,18.5147456687876,0 73.4870484271889,18.5146890486238,0 73.4865102631277,18.5145074366304,0 73.4864316861314,18.5144601808569,0 73.4861417168365,18.5141909491172,0 73.4860059362543,18.5137479673165,0 73.48556916322811,18.5132427114871,0 73.48501138499741,18.5128261947376,0 73.4844094970428,18.5124003774846,0 73.4839057608874,18.5120653150711,0 73.48304181419461,18.5114982008887,0 
				</coordinates>
			</LineString>
		</Placemark>
	</Folder>
</Document>
</kml>
