<?xml version="1.0" encoding="UTF-8"?>
<kml xmlns="http://www.opengis.net/kml/2.2" xmlns:gx="http://www.google.com/kml/ext/2.2" xmlns:kml="http://www.opengis.net/kml/2.2" xmlns:atom="http://www.w3.org/2005/Atom">
<Document>
	<name>Alt4.kml</name>
	<open>1</open>
	<StyleMap id="msn_ylw-pushpin">
		<Pair>
			<key>normal</key>
			<styleUrl>#sn_ylw-pushpin</styleUrl>
		</Pair>
		<Pair>
			<key>highlight</key>
			<styleUrl>#sh_ylw-pushpin1</styleUrl>
		</Pair>
	</StyleMap>
	<StyleMap id="msn_ylw-pushpin0">
		<Pair>
			<key>normal</key>
			<styleUrl>#sn_ylw-pushpin1</styleUrl>
		</Pair>
		<Pair>
			<key>highlight</key>
			<styleUrl>#sh_ylw-pushpin0</styleUrl>
		</Pair>
	</StyleMap>
	<StyleMap id="msn_ylw-pushpin1">
		<Pair>
			<key>normal</key>
			<styleUrl>#sn_ylw-pushpin0</styleUrl>
		</Pair>
		<Pair>
			<key>highlight</key>
			<styleUrl>#sh_ylw-pushpin</styleUrl>
		</Pair>
	</StyleMap>
	<Style id="sh_ylw-pushpin">
		<IconStyle>
			<scale>1.3</scale>
			<Icon>
				<href>http://maps.google.com/mapfiles/kml/pushpin/ylw-pushpin.png</href>
			</Icon>
			<hotSpot x="20" y="2" xunits="pixels" yunits="pixels"/>
		</IconStyle>
		<LineStyle>
			<color>ff00ffff</color>
			<width>3</width>
		</LineStyle>
		<PolyStyle>
			<fill>0</fill>
		</PolyStyle>
	</Style>
	<Style id="sh_ylw-pushpin0">
		<IconStyle>
			<scale>1.3</scale>
			<Icon>
				<href>http://maps.google.com/mapfiles/kml/pushpin/ylw-pushpin.png</href>
			</Icon>
			<hotSpot x="20" y="2" xunits="pixels" yunits="pixels"/>
		</IconStyle>
		<LineStyle>
			<color>ff00aaff</color>
			<width>3</width>
		</LineStyle>
		<PolyStyle>
			<fill>0</fill>
		</PolyStyle>
	</Style>
	<Style id="sh_ylw-pushpin1">
		<IconStyle>
			<scale>1.3</scale>
			<Icon>
				<href>http://maps.google.com/mapfiles/kml/pushpin/ylw-pushpin.png</href>
			</Icon>
			<hotSpot x="20" y="2" xunits="pixels" yunits="pixels"/>
		</IconStyle>
		<LineStyle>
			<color>ffff0000</color>
			<width>3</width>
		</LineStyle>
		<PolyStyle>
			<fill>0</fill>
		</PolyStyle>
	</Style>
	<Style id="sn_ylw-pushpin">
		<IconStyle>
			<scale>1.1</scale>
			<Icon>
				<href>http://maps.google.com/mapfiles/kml/pushpin/ylw-pushpin.png</href>
			</Icon>
			<hotSpot x="20" y="2" xunits="pixels" yunits="pixels"/>
		</IconStyle>
		<LineStyle>
			<color>ffff0000</color>
			<width>3</width>
		</LineStyle>
		<PolyStyle>
			<fill>0</fill>
		</PolyStyle>
	</Style>
	<Style id="sn_ylw-pushpin0">
		<IconStyle>
			<scale>1.1</scale>
			<Icon>
				<href>http://maps.google.com/mapfiles/kml/pushpin/ylw-pushpin.png</href>
			</Icon>
			<hotSpot x="20" y="2" xunits="pixels" yunits="pixels"/>
		</IconStyle>
		<LineStyle>
			<color>ff00ffff</color>
			<width>3</width>
		</LineStyle>
		<PolyStyle>
			<fill>0</fill>
		</PolyStyle>
	</Style>
	<Style id="sn_ylw-pushpin1">
		<IconStyle>
			<scale>1.1</scale>
			<Icon>
				<href>http://maps.google.com/mapfiles/kml/pushpin/ylw-pushpin.png</href>
			</Icon>
			<hotSpot x="20" y="2" xunits="pixels" yunits="pixels"/>
		</IconStyle>
		<LineStyle>
			<color>ff00aaff</color>
			<width>3</width>
		</LineStyle>
		<PolyStyle>
			<fill>0</fill>
		</PolyStyle>
	</Style>
	<Placemark>
		<name>Lower Reservoir</name>
		<styleUrl>#msn_ylw-pushpin</styleUrl>
		<Polygon>
			<tessellate>1</tessellate>
			<outerBoundaryIs>
				<LinearRing>
					<coordinates>
						73.44952783497614,18.94181414786429,0 73.4493956361646,18.94183394632586,0 73.44926241125484,18.94185393044297,0 73.44912919753624,18.9418739167204,0 73.44899578932326,18.94187291805669,0 73.44886163405985,18.94187204921383,0 73.44872633083634,18.94187134464718,0 73.44861331122189,18.94187078136729,0 73.44845449232959,18.94187005771925,0 73.44831840583186,18.94186939740442,0 73.4482278185527,18.94186893317618,0 73.44813732481342,18.94186844797867,0 73.44797896546986,18.94186758248157,0 73.44786623619491,18.94186690073564,0 73.44775347917421,18.94186621831845,0 73.44761762539164,18.94188655234315,0 73.4475051820821,18.94190692633419,0 73.44741507394232,18.94194856521315,0 73.44727988879539,18.9419899338576,0 73.4470562094595,18.94203052704651,0 73.44699008548547,18.9420721101693,0 73.44685750958716,18.94211310763498,0 73.44672437860241,18.94215417393899,0 73.4466131413234,18.94221654517028,0 73.44652441591688,18.94230011366311,0 73.44641140267873,18.94229952428545,0 73.44634375450265,18.9423413047074,0 73.44623049281645,18.94240401023442,0 73.44611708230509,18.94244566877674,0 73.44602636521668,18.94248743669161,0 73.44595757347957,18.94257163907062,0 73.44582092735007,18.94261334022635,0 73.44573000550862,18.94267628101654,0 73.44561563876081,18.9427392967761,0 73.44550015476908,18.94282368225143,0 73.44543083192859,18.942865896909,0 73.44533833739666,18.94292925993557,0 73.44526893385694,18.94297152596076,0 73.44517474252835,18.94305646572479,0 73.44512777774982,18.9430777870408,0 73.44500976185984,18.94320530698386,0 73.44496317209038,18.94322657446309,0 73.44484847799879,18.94335336062146,0 73.44471181163726,18.94347989837116,0 73.44468877323264,18.94352222258054,0 73.4445967554271,18.94362802034508,0 73.4445503584153,18.94371278879462,0 73.44443634252107,18.94375483806253,0 73.44434449271785,18.94383947688159,0 73.44423057574728,18.94386033539026,0 73.44413963763681,18.94388119785169,0 73.44404871410326,18.94388087361111,0 73.44393502620512,18.94388046859148,0 73.4438205627402,18.94381670738872,0 73.44372840748377,18.94375309891939,0 73.44365915950677,18.94368948071195,0 73.4435903057657,18.94360451551313,0 73.44352210544089,18.94351934053023,0 73.44345470675761,18.94345516993185,0 73.44339109204051,18.94334770196521,0 73.44339226870325,18.94332622626538,0 73.44335595680445,18.94317561510679,0 73.44331326781963,18.94306883970985,0 73.4433155758542,18.9429200103694,0 73.44327389390358,18.94274953722638,0 73.44327469681237,18.9426221945523,0 73.44327254886932,18.94251645194853,0 73.44326997005649,18.94238947256869,0 73.44326824935581,18.94230476613905,0 73.4432665278144,18.94222001780558,0 73.44326521203261,18.94209270676744,0 73.44326534078903,18.9420077113631,0 73.44326582465486,18.94192268470437,0 73.44331097948005,18.94185925539163,0 73.44342428589015,18.9418175326053,0 73.44356016315292,18.94173347373293,0 73.44371969054157,18.94171327495956,0 73.44385666403599,18.94167168091447,0 73.44392511798564,18.94165089017222,0 73.44410754111509,18.9415246822583,0 73.44422162116732,18.94144049573323,0 73.44431224988871,18.94133496780062,0 73.44442529975828,18.94127206370122,0 73.4458632036342,18.94045590763725,0 73.44814704310826,18.93910918217882,0 73.44819134708605,18.93906714870357,0 73.44836879525012,18.93900473082143,0 73.44850224499497,18.93894219121433,0 73.44861373620104,18.93894309323622,0 73.44872605001831,18.9389232943821,0 73.44890586219546,18.93890444647939,0 73.44904066892454,18.93888505686613,0 73.44917576672341,18.93884475873114,0 73.4493102092158,18.93884640563084,0 73.44939963516133,18.93884739551022,0 73.44948831757456,18.93880556955978,0 73.44979676466289,18.93901739468533,0 73.449818869739,18.93912325359545,0 73.44981857161844,18.93916536241117,0 73.44981722040461,18.93931252305438,0 73.44983847133959,18.93941779576696,0 73.44983789215742,18.93948087377745,0 73.44983712064349,18.93956498038463,0 73.44985837387274,18.93967027136782,0 73.44985812677635,18.93979687883677,0 73.44985799643159,18.93986015918742,0 73.44985738787327,18.93998652039475,0 73.4498565058415,18.94015491885717,0 73.44985597277336,18.94026014551769,0 73.44985533340585,18.94038638677454,0 73.44985505282349,18.94044951350371,0 73.44985469565268,18.94057575863055,0 73.44985438912914,18.94070196247185,0 73.44985312424831,18.94080694076554,0 73.44985124428328,18.94095394671318,0 73.44984958913685,18.94108000247877,0 73.4498476692093,18.94118507582732,0 73.44984663558756,18.94124815691684,0 73.44984490317107,18.94135333850832,0 73.44984189004215,18.94152177206904,0 73.4498402593337,18.94162710108619,0 73.4498383965344,18.94175354996469,0 73.44979259141618,18.94183756310899,0 73.44965936024379,18.94187856480035,0 73.44952727345398,18.9418983053005,0 73.44952783497614,18.94181414786429,0 
					</coordinates>
				</LinearRing>
			</outerBoundaryIs>
		</Polygon>
	</Placemark>
	<Placemark>
		<name>Untitled Polygon</name>
		<styleUrl>#msn_ylw-pushpin0</styleUrl>
		<Polygon>
			<tessellate>1</tessellate>
			<outerBoundaryIs>
				<LinearRing>
					<coordinates>
						73.44989863068561,18.93968040454648,0 73.4662738384401,18.93974359668544,0 73.4664652622706,18.9399160326855,0 73.4663527663935,18.94003160500487,0 73.46631365143458,18.94010386099156,0 73.46428960204376,18.94007729587051,0 73.44984148955342,18.94003242269292,0 73.44989863068561,18.93968040454648,0 
					</coordinates>
				</LinearRing>
			</outerBoundaryIs>
		</Polygon>
	</Placemark>
	<Placemark>
		<name>HRT</name>
		<styleUrl>#msn_ylw-pushpin1</styleUrl>
		<Polygon>
			<tessellate>1</tessellate>
			<outerBoundaryIs>
				<LinearRing>
					<coordinates>
						73.46640938261056,18.93991936102367,0 73.46817763777182,18.9397568029636,0 73.48614151951271,18.94013449775587,0 73.48616926371643,18.94024062995683,0 73.46645881878587,18.93998273015813,0 73.46640938261056,18.93991936102367,0 
					</coordinates>
				</LinearRing>
			</outerBoundaryIs>
		</Polygon>
	</Placemark>
</Document>
</kml>
