<?xml version="1.0" encoding="UTF-8"?>
<kml xmlns="http://www.opengis.net/kml/2.2" xmlns:gx="http://www.google.com/kml/ext/2.2" xmlns:kml="http://www.opengis.net/kml/2.2" xmlns:atom="http://www.w3.org/2005/Atom">
<Document>
	<name>NM-TPC-BHVPRI-PSP-GEOD-0C-26.09.203KML.kml</name>
	<open>1</open>
	<StyleMap id="ESSMAPPROP.PROJECT OUTLINE">
		<Pair>
			<key>normal</key>
			<styleUrl>#ESSPROP.PROJECT OUTLINE</styleUrl>
		</Pair>
	</StyleMap>
	<StyleMap id="ESSMAPVILL NAME">
		<Pair>
			<key>normal</key>
			<styleUrl>#ESSVILL NAME</styleUrl>
		</Pair>
	</StyleMap>
	<Style id="ESSPROP.PROJECT OUTLINE">
		<IconStyle>
			<Icon>
			</Icon>
		</IconStyle>
		<LineStyle>
			<color>fffe0001</color>
		</LineStyle>
		<PolyStyle>
			<color>fffe0001</color>
			<fill>0</fill>
		</PolyStyle>
	</Style>
	<Style id="ESSVILL NAME">
		<IconStyle>
			<Icon>
			</Icon>
		</IconStyle>
		<LineStyle>
			<color>ff0004fd</color>
		</LineStyle>
		<PolyStyle>
			<color>ff0004fd</color>
			<fill>0</fill>
		</PolyStyle>
	</Style>
	<StyleMap id="m_ylw-pushpin3">
		<Pair>
			<key>normal</key>
			<styleUrl>#s_ylw-pushpin3</styleUrl>
		</Pair>
		<Pair>
			<key>highlight</key>
			<styleUrl>#s_ylw-pushpin_hl3</styleUrl>
		</Pair>
	</StyleMap>
	<Style id="s_ylw-pushpin3">
		<IconStyle>
			<scale>1.1</scale>
			<Icon>
				<href>http://maps.google.com/mapfiles/kml/pushpin/ylw-pushpin.png</href>
			</Icon>
			<hotSpot x="20" y="2" xunits="pixels" yunits="pixels"/>
		</IconStyle>
		<LineStyle>
			<color>ffff0000</color>
		</LineStyle>
	</Style>
	<Style id="s_ylw-pushpin_hl3">
		<IconStyle>
			<scale>1.3</scale>
			<Icon>
				<href>http://maps.google.com/mapfiles/kml/pushpin/ylw-pushpin.png</href>
			</Icon>
			<hotSpot x="20" y="2" xunits="pixels" yunits="pixels"/>
		</IconStyle>
		<LineStyle>
			<color>ffff0000</color>
		</LineStyle>
	</Style>
	<Folder>
		<name>PROP.PROJECT OUTLINE</name>
		<Placemark>
			<styleUrl>#ESSMAPPROP.PROJECT OUTLINE</styleUrl>
			<LineString>
				<coordinates>
					73.4856425730172,18.9381279164592,0 73.4856792473834,18.9381055437119,0 73.48583679799989,18.9377807482143,0 
				</coordinates>
			</LineString>
		</Placemark>
		<Placemark>
			<styleUrl>#ESSMAPPROP.PROJECT OUTLINE</styleUrl>
			<LineString>
				<coordinates>
					73.44583542567391,18.9410253251651,0 73.44600814619891,18.9408167535117,0 73.44826734535511,18.9419095759776,0 73.44876643497339,18.9413162030153,0 73.44751302983239,18.9402246260973,0 73.44661234879079,18.9411090230718,0 73.44751302983239,18.9402246260973,0 73.44876893446219,18.9413183797714,0 73.44826734535511,18.9419095759776,0 73.4487664552629,18.9413161788928,0 
				</coordinates>
			</LineString>
		</Placemark>
		<Placemark>
			<styleUrl>#ESSMAPPROP.PROJECT OUTLINE</styleUrl>
			<LineString>
				<coordinates>
					73.44661234879079,18.9411090230718,0 73.4475229451006,18.9402148900139,0 
				</coordinates>
			</LineString>
		</Placemark>
		<Placemark>
			<styleUrl>#ESSMAPPROP.PROJECT OUTLINE</styleUrl>
			<LineString>
				<coordinates>
					73.4454112944001,18.9405280368856,0 73.4455766022844,18.9406080019689,0 73.44546254664159,18.9407457314193,0 
				</coordinates>
			</LineString>
		</Placemark>
		<Placemark>
			<styleUrl>#ESSMAPPROP.PROJECT OUTLINE</styleUrl>
			<LineString>
				<coordinates>
					73.44661234879079,18.9411090230718,0 73.44600814619891,18.9408167535117,0 73.44631142465821,18.9404505226181,0 
				</coordinates>
			</LineString>
		</Placemark>
		<Placemark>
			<styleUrl>#ESSMAPPROP.PROJECT OUTLINE</styleUrl>
			<LineString>
				<coordinates>
					73.4459385459586,18.9401709298476,0 73.4455766022844,18.9406080019689,0 
				</coordinates>
			</LineString>
		</Placemark>
		<Placemark>
			<styleUrl>#ESSMAPPROP.PROJECT OUTLINE</styleUrl>
			<LineString>
				<coordinates>
					73.44661234879079,18.9411090230718,0 73.44751302983239,18.9402246260973,0 
				</coordinates>
			</LineString>
		</Placemark>
		<Placemark>
			<styleUrl>#ESSMAPPROP.PROJECT OUTLINE</styleUrl>
			<Polygon>
				<outerBoundaryIs>
					<LinearRing>
						<coordinates>
							73.44981037826049,18.9374497584284,0 73.4498584551159,18.9378378740601,0 73.4501757908906,18.937884051377,0 73.4506180833727,18.9384097122731,0 73.451822573862,18.9383080167941,0 73.45204250620731,18.9373599784927,0 73.44981037826049,18.9374497584284,0 
						</coordinates>
					</LinearRing>
				</outerBoundaryIs>
			</Polygon>
		</Placemark>
		<Placemark>
			<styleUrl>#ESSMAPPROP.PROJECT OUTLINE</styleUrl>
			<Polygon>
				<outerBoundaryIs>
					<LinearRing>
						<coordinates>
							73.44811793170339,18.9380343342432,0 73.4484553758617,18.9380371572793,0 73.44845775716151,18.9377793858231,0 73.4481203135206,18.9377765628282,0 73.44811793170339,18.9380343342432,0 
						</coordinates>
					</LinearRing>
				</outerBoundaryIs>
			</Polygon>
		</Placemark>
		<Placemark>
			<styleUrl>#ESSMAPPROP.PROJECT OUTLINE</styleUrl>
			<LineString>
				<coordinates>
					73.44801230709589,18.9387874930846,0 73.4495133437086,18.940287484698,0 73.44951029800841,18.9402906816469,0 
				</coordinates>
			</LineString>
		</Placemark>
		<Placemark>
			<styleUrl>#ESSMAPPROP.PROJECT OUTLINE</styleUrl>
			<Polygon>
				<outerBoundaryIs>
					<LinearRing>
						<coordinates>
							73.4459385459586,18.9401709298476,0 73.44546254664159,18.9407457314193,0 73.44583542567391,18.9410253251651,0 73.44631142465821,18.9404505226181,0 73.4459385459586,18.9401709298476,0 
						</coordinates>
					</LinearRing>
				</outerBoundaryIs>
			</Polygon>
		</Placemark>
		<Placemark>
			<styleUrl>#ESSMAPPROP.PROJECT OUTLINE</styleUrl>
			<Polygon>
				<outerBoundaryIs>
					<LinearRing>
						<coordinates>
							73.45097779403891,18.9431606718646,0 73.450594721431,18.9435143585975,0 73.45092107326759,18.9436480943428,0 73.45203451394519,18.9433773037621,0 73.4516501131219,18.9428455400154,0 73.4516675622705,18.9424978335972,0 73.452224486879,18.9423398505357,0 73.4518915999528,18.940340309962,0 73.4500242134537,18.9405144502694,0 73.4505417336302,18.9410247413064,0 73.4494529030199,18.9422308637748,0 73.45097779403891,18.9431606718646,0 
						</coordinates>
					</LinearRing>
				</outerBoundaryIs>
			</Polygon>
		</Placemark>
		<Placemark>
			<styleUrl>#ESSMAPPROP.PROJECT OUTLINE</styleUrl>
			<Polygon>
				<outerBoundaryIs>
					<LinearRing>
						<coordinates>
							73.447559512252,18.9375122491606,0 73.445237234429,18.9396476696834,0 73.4443764324116,18.9403226014472,0 73.4439291786308,18.9399167876312,0 73.444895211443,18.9391569068079,0 73.44510651032169,18.9388966604324,0 73.4457623826612,18.9383058408982,0 73.4469416552093,18.9370733916654,0 73.447559512252,18.9375122491606,0 
						</coordinates>
					</LinearRing>
				</outerBoundaryIs>
			</Polygon>
		</Placemark>
		<Placemark>
			<styleUrl>#ESSMAPPROP.PROJECT OUTLINE</styleUrl>
			<Polygon>
				<outerBoundaryIs>
					<LinearRing>
						<coordinates>
							73.44863995675691,18.9456393357326,0 73.4502699289057,18.9454139385079,0 73.4502932784825,18.946339830025,0 73.44738365197411,18.9467762780862,0 73.4470256669735,18.9455928321434,0 73.44863995675691,18.9456393357326,0 
						</coordinates>
					</LinearRing>
				</outerBoundaryIs>
			</Polygon>
		</Placemark>
		<Placemark>
			<styleUrl>#ESSMAPPROP.PROJECT OUTLINE</styleUrl>
			<Polygon>
				<outerBoundaryIs>
					<LinearRing>
						<coordinates>
							73.4469775303487,18.9362740848693,0 73.4502255587816,18.9356728712394,0 73.44855772988259,18.9353205507528,0 73.4476147556326,18.9346169581348,0 73.4466825606427,18.9358288947172,0 73.4469775303487,18.9362740848693,0 
						</coordinates>
					</LinearRing>
				</outerBoundaryIs>
			</Polygon>
		</Placemark>
		<Placemark>
			<styleUrl>#ESSMAPPROP.PROJECT OUTLINE</styleUrl>
			<Polygon>
				<outerBoundaryIs>
					<LinearRing>
						<coordinates>
							73.45020163443959,18.9451564058355,0 73.4502081876218,18.9444465134672,0 73.4497143806569,18.9444423855856,0 73.4497078253887,18.9451522777878,0 73.45020163443959,18.9451564058355,0 
						</coordinates>
					</LinearRing>
				</outerBoundaryIs>
			</Polygon>
		</Placemark>
		<Placemark>
			<styleUrl>#ESSMAPPROP.PROJECT OUTLINE</styleUrl>
			<LineString>
				<coordinates>
					73.44951029800841,18.9402906816469,0 73.4503600591062,18.9410306863166,0 73.4491657646591,18.9423441491438,0 73.44826734535511,18.9419095759777,0 73.4487689370051,18.9413183767743,0 73.4475229451006,18.9402148900139,0 
				</coordinates>
			</LineString>
		</Placemark>
		<Placemark>
			<styleUrl>#ESSMAPPROP.PROJECT OUTLINE</styleUrl>
			<LineString>
				<coordinates>
					73.44331156834041,18.9448705262668,0 73.4425014418065,18.9428931388477,0 73.4454112944001,18.9405280368856,0 73.4455766022844,18.9406080019689,0 
				</coordinates>
			</LineString>
		</Placemark>
		<Placemark>
			<styleUrl>#ESSMAPPROP.PROJECT OUTLINE</styleUrl>
			<LineString>
				<coordinates>
					73.4503600591062,18.9410306863166,0 73.4495588821611,18.9403329908662,0 73.44801230709589,18.9387874930846,0 73.44615522841259,18.9396062352258,0 73.4454112944001,18.9405280368856,0 
				</coordinates>
			</LineString>
		</Placemark>
		<Placemark>
			<styleUrl>#ESSMAPPROP.PROJECT OUTLINE</styleUrl>
			<LineString>
				<coordinates>
					73.4858333669136,18.9377971886777,0 73.48608869382799,18.9377871769103,0 73.4860954581675,18.9369949401975,0 73.4862244720119,18.9369748840248,0 73.4862325935533,18.9369692308998,0 73.4862358046434,18.9369731222774,0 73.4863379429931,18.9373352760956,0 73.4862215648004,18.9377166374381,0 73.4863379429931,18.9373352760956,0 73.4857196338757,18.9383160488509,0 73.4856407428033,18.9383308972992,0 
				</coordinates>
			</LineString>
		</Placemark>
		<Placemark>
			<styleUrl>#ESSMAPPROP.PROJECT OUTLINE</styleUrl>
			<LineString>
				<coordinates>
					73.4856407428033,18.9383308972992,0 73.48564467300361,18.9378950131552,0 73.4675273472816,18.9386044987375,0 73.4675160315112,18.9390282808746,0 73.4675110925255,18.9390845606039,0 73.46749935174429,18.9391399201472,0 73.467480966484,18.9391936177034,0 73.46745618309551,18.9392449337407,0 73.4674253336641,18.9392931806388,0 73.46738883155901,18.9393377119022,0 73.46734716589521,18.9393779308234,0 73.46730089497891,18.9394132984792,0 73.4672506388273,18.9394433409518,0 73.4671970708591,18.9394676556793,0 73.4671409088722,18.9394859168502,0 73.46708290542421,18.9394978797695,0 73.463745531618,18.9399957918934,0 73.46375802399091,18.9399207667952,0 73.46707113926369,18.9394264735391,0 73.4671205495878,18.939416282907,0 73.46716839126231,18.9394007270997,0 73.46721402322009,18.9393800145609,0 73.4672568340052,18.9393544228335,0 73.4672962499646,18.9393242948399,0 73.4673317429362,18.9392900342876,0 73.46736283732569,18.9392521002587,0 73.46738911647959,18.9392110010589,0 73.46741022826779,18.9391672874061,0 73.4674258898025,18.9391215450507,0 73.46743589122821,18.9390743869266,0 73.4674400985333,18.9390264449382,0 73.46745128603681,18.9386074735865,0 73.4671762196666,18.9386182315089,0 73.46710279491241,18.9387607838687,0 73.46685894169801,18.9387740893212,0 73.46685358492741,18.9389675962765,0 73.4668518474197,18.9392766921121,0 73.4668170805855,18.9394689410515,0 73.4667264678846,18.9397702454079,0 73.4665981622969,18.9401273054986,0 73.4665170694103,18.9403203255194,0 73.4664513568644,18.9404590610106,0 73.4664593759768,18.9406370539725,0 73.4665054088275,18.9409176334575,0 73.46651310397711,18.9410661793703,0 73.4664867870965,18.9412086910371,0 73.46641529260501,18.941433971626,0 73.46635338924111,18.9415453068039,0 73.4663179220163,18.9416113185272,0 73.466182527949,18.9417952571315,0 73.46552732205529,18.9424487706459,0 73.4655991800839,18.9423163108688,0 73.4656992859158,18.9421070982193,0 73.4660867793426,18.9417206049516,0 73.4662119140754,18.9415506042161,0 73.4662438809377,18.9414911074451,0 73.466300590915,18.9413891128597,0 73.4663664933509,18.9411814533937,0 73.4663891402936,18.9410588157237,0 73.4663824474607,18.9409296165312,0 73.4663363536216,18.9406486640343,0 73.4663267828394,18.9404362265895,0 73.4664034452959,18.9402743733712,0 73.46648238501081,18.940086478697,0 73.4666086618036,18.939735065175,0 73.46669657203419,18.9394427477202,0 73.4667284727462,18.9392663481773,0 73.466730162788,18.9389657354811,0 73.4667352814036,18.9387808365195,0 73.46652756926341,18.9387921695975,0 73.46626766541461,18.9389476423338,0 73.46471397675479,18.9390083918468,0 73.4647014697489,18.9391863388508,0 73.4641520664445,18.9392160484174,0 73.4640884436441,18.9393674642818,0 73.4639077567663,18.9396012382398,0 73.4638244618295,18.9397437945355,0 73.4637625215878,18.9400370140543,0 73.46376534799241,18.9401640563931,0 73.46378289111431,18.9402843150554,0 73.4638211873005,18.9404874802022,0 73.4638735607947,18.9406643344026,0 73.46393988048381,18.9408724138155,0 73.4639927007359,18.9410183269411,0 73.4640021376469,18.9411891908209,0 73.46399677041779,18.9413567531627,0 73.46388315286821,18.9415429040964,0 73.4636863793832,18.9417179745047,0 73.46357218372709,18.9418641553512,0 73.4634670518067,18.9420939136784,0 73.46338226578651,18.9423166035736,0 73.46335036903911,18.9426160630024,0 73.4634331423774,18.9428943765349,0 73.4635522432841,18.9431931674943,0 73.4635993605458,18.9435093592469,0 73.4635905016965,18.943691697648,0 73.4635555703489,18.9439590281786,0 73.4633656329751,18.9443068349071,0 73.4632295480158,18.9445830063254,0 73.46304907088511,18.9447846058017,0 73.4628463317453,18.9450640064947,0 73.46279482953921,18.9452619571881,0 73.46278507501221,18.9454608798675,0 73.462824153573,18.9455793705231,0 73.4629004214101,18.9457218017873,0 73.4630032780718,18.9458571232874,0 73.46307472272809,18.9459797304536,0 73.46310227749591,18.9460366216365,0 73.46313526620681,18.9461427415468,0 73.46317085169041,18.9463886817216,0 73.46324005672361,18.9465502525537,0 73.4633464249206,18.9467453966581,0 73.4633898524278,18.9469098233033,0 73.463446574553,18.9470898626931,0 73.4635031829616,18.9472481364162,0 73.46354746046229,18.9473550633617,0 73.4636180692108,18.9475274601319,0 73.4636784801292,18.9476215616835,0 73.4637909047503,18.9477514195156,0 73.46397679011361,18.9479200783629,0 73.4640893113947,18.9480268581449,0 73.4642488065534,18.9481740299883,0 73.4644073966482,18.9482816667337,0 73.4645454081421,18.9483509247397,0 73.4646403701723,18.9484652015418,0 73.4647543088132,18.9486292300683,0 73.46482843367561,18.9487303678479,0 73.46490451210209,18.9488371854838,0 73.4649613695035,18.9489357303762,0 73.46503938731399,18.949006531254,0 73.4651815493709,18.9492010361429,0 73.4651994435993,18.9492270679083,0 73.4652926774873,18.9495772731678,0 73.465079206485,18.9492667249091,0 73.4649451679751,18.9490833344356,0 73.464862355801,18.949008182637,0 73.46479908768821,18.9488985266257,0 73.4647267127387,18.9487969087476,0 73.4646521796155,18.9486952138362,0 73.464540287327,18.9485341311374,0 73.4644647568268,18.9484432380773,0 73.4643424724993,18.9483818723689,0 73.4641695520189,18.9482645093978,0 73.4640027573128,18.9481106019276,0 73.4638906038271,18.9480041711157,0 73.46370034985669,18.9478315484126,0 73.4635776759831,18.9476898519175,0 73.4635070289833,18.9475798055975,0 73.4634325324059,18.9473979160864,0 73.46338726875641,18.9472886074752,0 73.4633289883127,18.947125658517,0 73.46327081612699,18.9469410161261,0 73.46323022043271,18.9467873109732,0 73.46312788121629,18.9465995582202,0 73.4630506861883,18.9464193330913,0 73.4630142553834,18.9461675494352,0 73.4629864410132,18.9460780744223,0 73.46296454243981,18.946032861283,0 73.4628989184048,18.945920242837,0 73.4627947886498,18.9457832462869,0 73.4627094771088,18.9456239255738,0 73.4626607544204,18.9454761924925,0 73.4626720942543,18.945244944352,0 73.4627319361618,18.9450149403003,0 73.4629510498706,18.9447129735998,0 73.46312482898151,18.9445188561879,0 73.4632549423861,18.9442548037781,0 73.463435815468,18.9439235956917,0 73.4634674202638,18.9436817246568,0 73.463475523542,18.9435149404202,0 73.4634319605338,18.9432225989028,0 73.4633158319418,18.9429312641058,0 73.46322519176771,18.9426264986932,0 73.4632610041445,18.9422902800812,0 73.46335232655581,18.9420504228385,0 73.46346466934099,18.941804906011,0 73.463593953681,18.9416394103901,0 73.4637855571987,18.9414689398227,0 73.4638743468751,18.9413234670172,0 73.4638786065177,18.9411904860006,0 73.4638703489741,18.9410409736497,0 73.4638224288171,18.9409085965011,0 73.4637550871299,18.9406973100714,0 73.46370075420781,18.9405138388462,0 73.4636609673699,18.9403027648233,0 73.4636420967758,18.940173405641,0 73.4636388298652,18.9400265584085,0 73.4637072402551,18.9397027108665,0 73.4638036836969,18.9395376515587,0 73.4639796804036,18.9393099459685,0 73.46401604430289,18.9392234037049,0 73.450435748057,18.9399572394824,0 73.45028896494919,18.94003974415,0 73.45025125266881,18.9400585441443,0 73.4502117254104,18.9400735941929,0 73.4501707936853,18.9400847379936,0 73.4501288825907,18.9400918598123,0 73.45008642739541,18.9400948856851,0 73.4500438690194,18.9400937841872,0 73.4500016494539,18.9400885667584,0 73.4499602071712,18.9400792875847,0 73.44991997257119,18.9400660430353,0 73.4498813635109,18.9400489706621,0 73.4498447809647,18.9400282477707,0 73.4498106048605,18.9400040895791,0 73.4497950020348,18.9399918385082,0 73.44951029800841,18.9402906816469,0 73.4503600591062,18.9410306863166,0 73.4491657646591,18.9423441491438,0 73.45082421138309,18.9431463372763,0 73.4486415112775,18.9454711148863,0 73.44331156834041,18.9448705262668,0 73.4425014418065,18.9428931388477,0 73.4454112944001,18.9405280368856,0 73.44615522841259,18.9396062352258,0 73.44740633488129,18.9390510300868,0 73.44910703059951,18.9383035350693,0 73.4487043576743,18.9375738207917,0 73.4487626760784,18.937543468769,0 73.4491674451147,18.9382769810732,0 73.4497464708971,18.9380224803591,0 73.44980907723721,18.937999316184,0 73.44987432870739,18.9379841392142,0 73.44994110527171,18.9379772099619,0 73.4500082607165,18.9379786473679,0 73.4500746423244,18.9379884267599,0 73.4501391106606,18.9380063802761,0 73.45020055913029,18.9380321997465,0 73.4502579329731,18.9380654419823,0 73.4503102473675,18.938105536383,0 73.4503566043354,18.9381517947307,0 73.4503962081554,18.9382034230026,0 73.4504283790219,18.9382595350008,0 73.4505445887018,18.9384982049711,0 73.45194245150439,18.9384436553796,0 73.4519299047903,18.9381525546443,0 73.4522768936268,18.9375763639582,0 73.452531365487,18.9372319089702,0 73.4525868529645,18.937266769248,0 73.4523330311707,18.9376103444493,0 73.4519970961621,18.9381681801071,0 73.45200885780901,18.9384410637048,0 73.45561012667009,18.9383004791864,0 73.45579751518351,18.9381514682991,0 73.4559675026286,18.938105336592,0 73.4560399788799,18.9380818858775,0 73.4561833220675,18.937986889009,0 73.4563494251538,18.937920134001,0 73.4565470195336,18.9378430454623,0 73.4566058848316,18.9378139466388,0 73.4567583700299,18.9376454304856,0 73.4568568353814,18.9374377100566,0 73.4569166864745,18.93715431169,0 73.4569474916246,18.9366955359573,0 
				</coordinates>
			</LineString>
		</Placemark>
	</Folder>
	<Folder>
		<name>VILL NAME</name>
		<Placemark>
			<styleUrl>#m_ylw-pushpin3</styleUrl>
			<LineString>
				<coordinates>
					73.4569471557228,18.9366976928005,0 73.4570138179559,18.9366995686702,0 73.45698272752389,18.9371625957485,0 73.4569205122975,18.9374571889479,0 73.45681500328639,18.9376797686916,0 73.4566478908104,18.9378644499561,0 73.4565750014941,18.9379004812619,0 73.4563749609199,18.9379785241481,0 73.4562155930394,18.9380425723533,0 73.4560702607068,18.9381388874729,0 73.4559873269465,18.9381657218627,0 73.455829308792,18.9382086053119,0 73.45571912524019,18.9382962230575,0 73.4574144922717,18.938230014797,0 73.4575297371957,18.9381220818656,0 73.4576040095704,18.9380238533683,0 73.45766052167571,18.9379545256097,0 73.45774689049431,18.9378833462895,0 73.4578191352598,18.9377933469945,0 73.4578912028055,18.9377336857249,0 73.4579341430964,18.9377211047808,0 73.4579911723357,18.9377152577523,0 73.458204148438,18.9376378695445,0 73.4583905307499,18.9366857065193,0 73.4584558685761,18.9366972875237,0 73.4582626640354,18.9376843046457,0 73.4580068450217,18.9377772605188,0 73.4579476045044,18.9377833342635,0 73.45792420909309,18.9377901888135,0 73.4578678526377,18.9378368436293,0 73.4577955624631,18.9379268995173,0 73.4577090053868,18.9379982340047,0 73.45765725920251,18.9380617150602,0 73.45758038559261,18.9381633838408,0 73.4575133640009,18.9382261531308,0 73.4601614833966,18.9381227049015,0 73.46067183903421,18.9383008917689,0 73.4605923022994,18.9373492216485,0 73.4606505374632,18.9370394747592,0 73.4606707728166,18.9368032440304,0 73.46067045160549,18.9366819811723,0 73.4607369130762,18.9366818217455,0 73.460737241364,18.9368057377178,0 73.46071652102751,18.9370476313228,0 73.4606592342512,18.9373523344826,0 73.4607386437218,18.9383024773065,0 73.46467315979891,18.9381486944043,0 73.46468474416589,18.9383313509899,0 73.4662384265314,18.9382706012601,0 73.46651085932641,18.9384052568325,0 73.4670830752989,18.9383917689283,0 73.4671723206522,18.9385279593712,0 73.485705951984,18.9378021846839,0 73.4857162163964,18.9377554408581,0 73.48572468236171,18.937708371894,0 73.48573133861601,18.9376610404251,0 73.4857361763034,18.9376135094343,0 73.48573918898811,18.9375658421697,0 73.4857403726628,18.9375181020608,0 73.4857397257539,18.9374703526341,0 73.4857372491238,18.9374226574282,0 73.4857329460697,18.9373750799096,0 73.48572682231899,18.9373276833885,0 73.4857188860221,18.9372805309334,0 73.48570914774081,18.9372336852887,0 73.4857017252052,18.9372129898697,0 73.48569129903269,18.9371935025532,0 73.48567807916569,18.9371756157356,0 73.4856623318002,18.9371596895858,0 73.4856443740255,18.9371460447922,0 73.4856245674395,18.9371349561063,0 73.4856033108675,18.9371266468091,0 73.4855810323311,18.9371212842166,0 73.4855581804304,18.9371189763095,0 73.48553521531031,18.9371197695598,0 73.4855125993957,18.9371236479944,0 73.4854907880797,18.9371305335172,0 73.48475129078579,18.9373945388025,0 73.484653228041,18.9374037896195,0 73.4845546846522,18.9374038893861,0 73.4844566014512,18.937394837151,0 73.4843599148755,18.9373767193405,0 73.48426554802811,18.937349708933,0 73.4841744018627,18.9373140638083,0 73.4840873465829,18.9372701242842,0 73.48400521333269,18.9372183098681,0 73.4839287862619,18.9371591152509,0 73.4838587950387,18.9370931055846,0 73.4837959078838,18.9370209110857,0 73.4837407251909,18.9369432210181,0 73.48369456552081,18.9368701938405,0 73.4836511406709,18.9367956632206,0 73.4836105046483,18.9367197218583,0 73.4835727079913,18.9366424642083,0 73.4835377977067,18.9365639863621,0 73.4835058172108,18.9364843859287,0 73.4834768062759,18.9364037619132,0 73.48345080098071,18.9363222145937,0 73.4834278336654,18.9362398453965,0 73.4834079328914,18.9361567567701,0 73.48339112340609,18.9360730520574,0 73.4833774261118,18.9359888353676,0 73.4833633455884,18.9358729585798,0 73.48335124368769,18.9357568795538,0 73.4833411235949,18.9356406288806,0 73.483332987973,18.9355242371962,0 73.4833268389617,18.9354077351739,0 73.4833226781774,18.9352911535158,0 73.4833205067124,18.9351745229451,0 73.4833203251348,18.9350578741978,0 73.4833221334884,18.9349412380144,0 73.4833259312924,18.9348246451324,0 73.4833317175419,18.9347081262777,0 73.48333949070781,18.9345917121564,0 73.4834647974555,18.9345717844853,0 73.4834565246634,18.9346885659343,0 73.4834502851683,18.9348054617282,0 73.4834460806855,18.9349224398117,0 73.4834439123721,18.9350394681068,0 73.4834437808271,18.9351565145217,0 73.4834456860907,18.9352735469595,0 73.4834496276447,18.9353905333273,0 73.4834556044125,18.9355074415445,0 73.4834636147594,18.9356242395519,0 73.483473656493,18.9357408953205,0 73.4834857268639,18.9358573768605,0 73.4834998225664,18.9359736522293,0 73.4835128823707,18.9360537779412,0 73.4835289034083,18.9361334155668,0 73.48354786575359,18.9362124660394,0 73.48356974582239,18.9362908310224,0 73.4835945164005,18.9363684130321,0 73.483622146678,18.9364451155581,0 73.48365260228751,18.9365208431845,0 73.4836858453469,18.9365955017076,0 73.4837218345061,18.9366689982539,0 73.4837605249991,18.9367412413947,0 73.483801868699,18.9368121412609,0 73.48384581417849,18.936881609654,0 73.4838935859418,18.9369490824933,0 73.48394797617109,18.937011854498,0 73.4840084773587,18.9370693399421,0 73.48407452497339,18.937121002428,0 73.48414550272889,18.9371663598914,0 73.4842207483336,18.9372049891001,0 73.4842995596709,18.9372365296026,0 73.4843812013508,18.9372606870926,0 73.48446491157171,18.9372772361547,0 73.4845499092298,18.9372860223676,0 73.484635401207,18.9372869637461,0 73.48472058977261,18.9372800515051,0 73.4854458216539,18.9370211390185,0 73.4854844210524,18.9370092835202,0 73.48552439685901,18.9370027550304,0 73.48556494153441,18.9370016854293,0 73.4856052360482,18.9370060963238,0 73.4856444664232,18.9370158986112,0 73.4856818401781,18.9370308942786,0 73.4857166023362,18.9370507804032,0 73.48574805067589,18.9370751552713,0 73.4857755499163,18.9371035264932,0 73.4857985445507,18.9371353209496,0 73.4858165700674,18.9371698963691,0 73.48582926233441,18.9372065543021,0 73.4858394986925,18.937255164622,0 73.4858479538228,18.9373040840536,0 73.48585461751181,18.9373532535137,0 73.4858594817098,18.9374026136168,0 73.4858625405403,18.9374521047475,0 73.48586379030731,18.9375016671316,0 73.4858632294999,18.9375512409092,0 73.4858608587937,18.9376007662065,0 73.48585668105051,18.937650183208,0 73.48585070131431,18.9376994322291,0 73.4858429268059,18.937748453788,0 73.4858333669136,18.9377971886777,0 
				</coordinates>
			</LineString>
		</Placemark>
		<Placemark>
			<name>Road</name>
			<styleUrl>#ESSMAPVILL NAME</styleUrl>
			<Point>
				<coordinates>73.4488483913029,18.9379074089111,0</coordinates>
			</Point>
		</Placemark>
		<Placemark>
			<name>Road</name>
			<styleUrl>#ESSMAPVILL NAME</styleUrl>
			<Point>
				<coordinates>73.45219306916221,18.9376021743545,0</coordinates>
			</Point>
		</Placemark>
		<Placemark>
			<name>Road</name>
			<styleUrl>#ESSMAPVILL NAME</styleUrl>
			<Point>
				<coordinates>73.45787583468081,18.9377291928031,0</coordinates>
			</Point>
		</Placemark>
		<Placemark>
			<name>Road</name>
			<styleUrl>#ESSMAPVILL NAME</styleUrl>
			<Point>
				<coordinates>73.45681589107539,18.9373837835854,0</coordinates>
			</Point>
		</Placemark>
		<Placemark>
			<name>Road</name>
			<styleUrl>#ESSMAPVILL NAME</styleUrl>
			<Point>
				<coordinates>73.4605759523029,18.9373183027842,0</coordinates>
			</Point>
		</Placemark>
		<Placemark>
			<name>Road</name>
			<styleUrl>#ESSMAPVILL NAME</styleUrl>
			<Point>
				<coordinates>73.48333658360001,18.935287697061,0</coordinates>
			</Point>
		</Placemark>
		<Placemark>
			<name>Road</name>
			<styleUrl>#ESSMAPVILL NAME</styleUrl>
			<Point>
				<coordinates>73.4633316495423,18.94210136545,0</coordinates>
			</Point>
		</Placemark>
		<Placemark>
			<name>Road</name>
			<styleUrl>#ESSMAPVILL NAME</styleUrl>
			<Point>
				<coordinates>73.4664423992453,18.9401189931878,0</coordinates>
			</Point>
		</Placemark>
		<Placemark>
			<name>MAGAZINE AREA</name>
			<styleUrl>#ESSMAPVILL NAME</styleUrl>
			<Point>
				<coordinates>73.4496949406321,18.9447193322007,0</coordinates>
			</Point>
		</Placemark>
		<Placemark>
			<name>Labour Camp</name>
			<styleUrl>#ESSMAPVILL NAME</styleUrl>
			<Point>
				<coordinates>73.45084968022159,18.9378456915091,0</coordinates>
			</Point>
		</Placemark>
		<Placemark>
			<name>Dump Yard</name>
			<styleUrl>#ESSMAPVILL NAME</styleUrl>
			<Point>
				<coordinates>73.44569938671729,18.9386154939476,0</coordinates>
			</Point>
		</Placemark>
		<Placemark>
			<name>Dump Yard</name>
			<styleUrl>#ESSMAPVILL NAME</styleUrl>
			<Point>
				<coordinates>73.4477836342266,18.9356041286168,0</coordinates>
			</Point>
		</Placemark>
		<Placemark>
			<name>Dump Yard</name>
			<styleUrl>#ESSMAPVILL NAME</styleUrl>
			<Point>
				<coordinates>73.4486340147414,18.9460833526847,0</coordinates>
			</Point>
		</Placemark>
		<Placemark>
			<name>Dump Yard</name>
			<styleUrl>#ESSMAPVILL NAME</styleUrl>
			<Point>
				<coordinates>73.45108516748461,18.9416988096195,0</coordinates>
			</Point>
		</Placemark>
		<Placemark>
			<name>Cement Storage</name>
			<styleUrl>#ESSMAPVILL NAME</styleUrl>
			<Point>
				<coordinates>73.4456097509742,18.9406195786585,0</coordinates>
			</Point>
		</Placemark>
		<Placemark>
			<name>Batching plant, Crusher,</name>
			<styleUrl>#ESSMAPVILL NAME</styleUrl>
			<Point>
				<coordinates>73.4454998269992,18.9406704486966,0</coordinates>
			</Point>
		</Placemark>
		<Placemark>
			<name>office</name>
			<styleUrl>#ESSMAPVILL NAME</styleUrl>
			<Point>
				<coordinates>73.4481883157636,18.9379047606073,0</coordinates>
			</Point>
		</Placemark>
		<Placemark>
			<name>Adit</name>
			<styleUrl>#ESSMAPVILL NAME</styleUrl>
			<Point>
				<coordinates>73.4659895852177,18.9396145984871,0</coordinates>
			</Point>
		</Placemark>
		<Placemark>
			<name>Underground HRT</name>
			<styleUrl>#ESSMAPVILL NAME</styleUrl>
			<Point>
				<coordinates>73.4777755417323,18.9381156905968,0</coordinates>
			</Point>
		</Placemark>
		<Placemark>
			<name>Surface Penstock</name>
			<styleUrl>#ESSMAPVILL NAME</styleUrl>
			<Point>
				<coordinates>73.4558958629122,18.9388313343868,0</coordinates>
			</Point>
		</Placemark>
		<Placemark>
			<name>Power House</name>
			<styleUrl>#ESSMAPVILL NAME</styleUrl>
			<Point>
				<coordinates>73.4484050685096,18.940406857056,0</coordinates>
			</Point>
		</Placemark>
		<Placemark>
			<name>Underground TRT</name>
			<styleUrl>#ESSMAPVILL NAME</styleUrl>
			<Point>
				<coordinates>73.447490504005,18.9410808615341,0</coordinates>
			</Point>
		</Placemark>
		<Placemark>
			<name>Lower Reservoir</name>
			<styleUrl>#ESSMAPVILL NAME</styleUrl>
			<Point>
				<coordinates>73.446269574827,18.943330394089,0</coordinates>
			</Point>
		</Placemark>
	</Folder>
</Document>
</kml>
