<?xml version="1.0" encoding="UTF-8"?>
<kml xmlns="http://www.opengis.net/kml/2.2" xmlns:gx="http://www.google.com/kml/ext/2.2" xmlns:kml="http://www.opengis.net/kml/2.2" xmlns:atom="http://www.w3.org/2005/Atom">
<Document>
	<name>Bhivpuri Alt3.kml</name>
	<StyleMap id="falseColor">
		<Pair>
			<key>normal</key>
			<styleUrl>#falseColor7</styleUrl>
		</Pair>
		<Pair>
			<key>highlight</key>
			<styleUrl>#falseColor10</styleUrl>
		</Pair>
	</StyleMap>
	<Style id="falseColor10">
		<LineStyle>
			<color>ff0000ff</color>
			<width>3</width>
		</LineStyle>
		<PolyStyle>
			<colorMode>random</colorMode>
			<fill>0</fill>
		</PolyStyle>
	</Style>
	<Style id="falseColor7">
		<LineStyle>
			<color>ff0000ff</color>
			<width>3</width>
		</LineStyle>
		<PolyStyle>
			<colorMode>random</colorMode>
			<fill>0</fill>
		</PolyStyle>
	</Style>
	<Folder id="layer 0">
		<name>Bhivpuri Alt3</name>
		<open>1</open>
		<Placemark>
			<styleUrl>#falseColor</styleUrl>
			<Polygon>
				<outerBoundaryIs>
					<LinearRing>
						<coordinates>
							73.43449853655223,18.90621052755303,0 73.43539688846109,18.90571515624573,0 73.43735518587856,18.90585107781461,0 73.43873414851699,18.9046964570969,0 73.43875287379643,18.90267816466228,0 73.43878033326006,18.89971799979137,0 73.4419119505862,18.89829027537088,0 73.45088003006072,18.89735226973152,0 73.45088832689673,18.89742411552296,0 73.44193309553634,18.89836077736936,0 73.43885585102306,18.89976371327333,0 73.43882881096947,18.90267880282432,0 73.4388097869637,18.90472939091865,0 73.43738143127398,18.90592536923539,0 73.4354147075037,18.90578886304292,0 73.43459298086755,18.90624198162633,0 73.43449853655223,18.90621052755303,0 
						</coordinates>
					</LinearRing>
				</outerBoundaryIs>
			</Polygon>
		</Placemark>
		<Placemark>
			<styleUrl>#falseColor</styleUrl>
			<Polygon>
				<outerBoundaryIs>
					<LinearRing>
						<coordinates>
							73.44043048213229,18.91177669180063,0 73.44032515143081,18.91246536155005,0 73.44077470388227,18.91398806859263,0 73.44067087596693,18.9165325274199,0 73.44059403810952,18.91652968749337,0 73.44069739676064,18.91399675732296,0 73.4402467075186,18.91247019724669,0 73.44035509871982,18.91176151956883,0 73.44101829417788,18.90950078406935,0 73.44109177048968,18.90952245398269,0 73.44043048213229,18.91177669180063,0 
						</coordinates>
					</LinearRing>
				</outerBoundaryIs>
			</Polygon>
		</Placemark>
		<Placemark>
			<styleUrl>#falseColor</styleUrl>
			<Polygon>
				<outerBoundaryIs>
					<LinearRing>
						<coordinates>
							73.43526596808859,18.9125529690545,0 73.43668725544052,18.9141470358236,0 73.43831597728375,18.91558070937376,0 73.43829019348802,18.91560724025621,0 73.43665978692833,18.91417208350006,0 73.43523258347695,18.91257138105818,0 73.4345495991047,18.91077252034164,0 73.43457458132787,18.91073197861662,0 73.43526596808859,18.9125529690545,0 
						</coordinates>
					</LinearRing>
				</outerBoundaryIs>
			</Polygon>
		</Placemark>
		<Placemark>
			<styleUrl>#falseColor</styleUrl>
			<Polygon>
				<outerBoundaryIs>
					<LinearRing>
						<coordinates>
							73.43207001329529,18.90697105838218,0 73.43617666366893,18.90813203088383,0 73.4345495991047,18.91077252034164,0 73.42948040606872,18.9091163400596,0 73.43207001329529,18.90697105838218,0 
						</coordinates>
					</LinearRing>
				</outerBoundaryIs>
			</Polygon>
		</Placemark>
		<Placemark>
			<styleUrl>#falseColor</styleUrl>
			<Polygon>
				<outerBoundaryIs>
					<LinearRing>
						<coordinates>
							73.43448548575067,18.9001439817687,0 73.43494145586081,18.90014782323333,0 73.43493443165728,18.90090321688124,0 73.43447616756248,18.90090475872622,0 73.43448548575067,18.9001439817687,0 
						</coordinates>
					</LinearRing>
				</outerBoundaryIs>
			</Polygon>
		</Placemark>
		<Placemark>
			<styleUrl>#falseColor</styleUrl>
			<Polygon>
				<outerBoundaryIs>
					<LinearRing>
						<coordinates>
							73.43234003118079,18.90672158914795,0 73.43228013756244,18.90688510425229,0 73.43202106277685,18.90680935626804,0 73.43061504989002,18.9064835705036,0 73.43211297221815,18.904766281144,0 73.4330206415608,18.90571831649024,0 73.43234003118079,18.90672158914795,0 
						</coordinates>
					</LinearRing>
				</outerBoundaryIs>
			</Polygon>
		</Placemark>
		<Placemark>
			<styleUrl>#falseColor</styleUrl>
			<Polygon>
				<outerBoundaryIs>
					<LinearRing>
						<coordinates>
							73.42726755628131,18.90500381110422,0 73.42727147504411,18.90500217828666,0 73.42727299732042,18.90500082515537,0 73.42740527096537,18.90490462613942,0 73.42751020474554,18.90478803319824,0 73.42754614393557,18.9047640737361,0 73.42757314194229,18.90473321895258,0 73.42767781360614,18.90464948161415,0 73.42776483786842,18.90451272946767,0 73.42777255488021,18.90450501245576,0 73.42777865993683,18.90448974990677,0 73.42791857071607,18.90433429352988,0 73.4280657610221,18.90417074894888,0 73.428228728908,18.90406210373082,0 73.42834480438047,18.90392023388763,0 73.42836108663275,18.90391118819299,0 73.42837698443434,18.9038899911892,0 73.42853654264786,18.90380489350195,0 73.42861022115927,18.90370911158339,0 73.42865790199271,18.90367096691364,0 73.42870348716427,18.90361398560218,0 73.42885002581995,18.90352778636363,0 73.42893585789341,18.90346877685447,0 73.42904919704743,18.90342627468556,0 73.42919377004013,18.90332618573412,0 73.42920102152578,18.90332116548171,0 73.42933695033895,18.9032270609302,0 73.42943980109861,18.90310364019145,0 73.429459593516,18.90308384776731,0 73.42947943921676,18.90306400212258,0 73.4296223030879,18.90294494889119,0 73.42972658433744,18.90285804794674,0 73.42974677504891,18.90283617466988,0 73.42978240203,18.90279083137847,0 73.42992770871552,18.90267781504075,0 73.43002796358644,18.90260921966189,0 73.4301020964608,18.90255849715066,0 73.4302027350107,18.90249811409866,0 73.43020708227245,18.90249376683279,0 73.43024573767777,18.90239988973689,0 73.43031670521862,18.90228836933534,0 73.43037398181775,18.902242548166,0 73.43040640781628,18.90219066656015,0 73.43043536251555,18.90203141714705,0 73.43046800992114,18.9019595928011,0 73.43051705230496,18.90185169992615,0 73.43053704477022,18.90179572111025,0 73.43053208039254,18.90178877098201,0 73.43048223765832,18.90171899112452,0 73.43046768778602,18.90169862127963,0 73.43046575941192,18.90169592155271,0 73.43030239072262,18.90146720472599,0 73.43050178961317,18.90135983617398,0 73.43056674079473,18.90120828378222,0 73.43059290197124,18.90120828381448,0 73.43058670200018,18.90118348369876,0 73.43075667039726,18.90104750901713,0 73.43086897858537,18.90090712396018,0 73.43096157115434,18.9008955499482,0 73.43100219633412,18.9008447685647,0 73.43097834386904,18.90070960349128,0 73.43097834387032,18.90061760868075,0 73.43096823999075,18.90043573363205,0 73.43094893241413,18.90031988803558,0 73.43094893267607,18.90017221168982,0 73.43088076325837,18.90000178785122,0 73.43086794355366,18.89993127864691,0 73.43081846345605,18.89986324337286,0 73.43068218005328,18.89969288896911,0 73.43056297317401,18.89954388016294,0 73.43038539560787,18.89943289412789,0 73.43030635200465,18.89930115462771,0 73.43019310106814,18.89930115459729,0 73.42999847200959,18.89922330275356,0 73.42993629683082,18.89909895223476,0 73.42990263772217,18.89901480451548,0 73.42990263814706,18.89870928587646,0 73.42996365918611,18.8985872436365,0 73.4301387796538,18.8984996834227,0 73.43034733456051,18.89860396099304,0 73.43049795386462,18.89875458021222,0 73.43061535980523,18.89875458019755,0 73.43062693831614,18.89871405570639,0 73.43064731601139,18.89857141211533,0 73.43070250219145,18.89840585449456,0 73.43077514830418,18.8982605620962,0 73.43093052156384,18.89821616974501,0 73.43115835087286,18.89818362269843,0 73.43131741018495,18.89822700239818,0 73.43153979137092,18.89832808476274,0 73.43162172846935,18.89843050604624,0 73.43170732718119,18.89843050603545,0 73.43181875633282,18.89847826133396,0 73.43191985779445,18.89844937517537,0 73.43204660377889,18.89843353189796,0 73.4321461061938,18.89840865629587,0 73.43224155057459,18.8983847952076,0 73.43225682502725,18.8982473258284,0 73.43227266423204,18.89818396958987,0 73.43224873977967,18.89799257287279,0 73.43227224956735,18.89785151603714,0 73.4323773347836,18.89769388821095,0 73.43251755541665,18.89755366775926,0 73.43253215776723,18.8975449063497,0 73.43253569785293,18.89753900622943,0 73.43266755511708,18.89737418461587,0 73.43281755677602,18.89729918384124,0 73.43284767164937,18.89727910725253,0 73.43288295498166,18.89724382400021,0 73.43297619736016,18.89712727094044,0 73.43311840873515,18.89705616529535,0 73.43326622027341,18.89700689477213,0 73.43349662907596,18.89700689470466,0 73.42722103670268,18.90503964645611,0 73.42726755628131,18.90500381110422,0 
						</coordinates>
					</LinearRing>
				</outerBoundaryIs>
			</Polygon>
		</Placemark>
		<Placemark>
			<styleUrl>#falseColor</styleUrl>
			<Polygon>
				<outerBoundaryIs>
					<LinearRing>
						<coordinates>
							73.43448601610059,18.89797383414378,0 73.43439789541161,18.89817944938585,0 73.43435820394141,18.89827206328021,0 73.4343139926501,18.89834943304656,0 73.43429755989322,18.89851376331515,0 73.43427450155974,18.89857140912376,0 73.43425826863687,18.89878244104042,0 73.43424254124839,18.89883355499181,0 73.43420775623125,18.89894660684086,0 73.43417529577856,18.8990277580903,0 73.43417279889826,18.89906021856932,0 73.43410934892674,18.89926643133386,0 73.43407862571297,18.89934016743573,0 73.43407862574946,18.89945233689953,0 73.4340659997526,18.8995912258079,0 73.43406599979066,18.8997409661794,0 73.43400162294928,18.8999126386014,0 73.4339901364325,18.89995858462291,0 73.4339397377701,18.90016018040878,0 73.43393973805831,18.90041675618896,0 73.43393973839731,18.90071866482225,0 73.43387502804931,18.90094515168416,0 73.43387295361377,18.90096174748325,0 73.43392482540315,18.90116923368303,0 73.43415178570187,18.90144158564269,0 73.43419019598923,18.90155681615403,0 73.43419217635106,18.90156275721687,0 73.43420862829004,18.90161211282643,0 73.43423584810223,18.90169377204082,0 73.43426381372849,18.90177766861751,0 73.43426381371886,18.90183073971318,0 73.43432698488287,18.90208342292398,0 73.43428383671767,18.90225601553462,0 73.43416518705754,18.90237466540595,0 73.43410963139655,18.90243022105559,0 73.43405407613939,18.9024857764416,0 73.43397074260548,18.90256910992883,0 73.4338874096007,18.90265244305523,0 73.43383185393959,18.90270799870475,0 73.43382862947949,18.90271122317388,0 73.43382862954776,18.90285813464595,0 73.43375455568015,18.90296924583232,0 73.43375455568255,18.90300934899252,0 73.43375455598947,18.90319453391511,0 73.43375455599495,18.90326592504904,0 73.43379569609232,18.90343048435003,0 73.43384199254955,18.9036156697283,0 73.43387559778562,18.90375008946951,0 73.43382347436595,18.90395858357969,0 73.43378710036683,18.9041040807313,0 73.43372020644387,18.90419327261082,0 73.43366196468656,18.90433887752842,0 73.43366196497361,18.90459565080838,0 73.43362724299088,18.9048387062854,0 73.43362724319176,18.90491907637403,0 73.43348774706028,18.90510507132179,0 73.43336961567432,18.90526258013351,0 73.43334805427781,18.90527982922866,0 73.43333077984154,18.9053014223161,0 73.43322315181625,18.90538214337929,0 73.4331889800774,18.90550744052155,0 73.43312186772057,18.90557455284229,0 73.43307405333609,18.90565822822476,0 73.4330206415608,18.90571831649024,0 73.4395305627416,18.9078863301442,0 73.43960252429224,18.90769055230686,0 73.44067513755476,18.90805570483603,0 73.44062136306083,18.90820200565897,0 73.44106088653325,18.90834781426556,0 73.44119930148734,18.90851157244054,0 73.44236559064683,18.9089533295876,0 73.44413967775569,18.9095443913933,0 73.44420244012711,18.90937362860519,0 73.44447125586794,18.90946312271136,0 73.4444085994221,18.90963359801659,0 73.45114738688692,18.91186883216952,0 73.45858505078741,18.91239727891932,0 73.45858543549231,18.91232557175679,0 73.46025665101324,18.91233943667408,0 73.46024714823407,18.91337745960989,0 73.45857965388171,18.91336362485119,0 73.45858016586078,18.91330776173874,0 73.45087084841551,18.91274058150668,0 73.44409296235295,18.9104923753205,0 73.44403027333912,18.91066293675012,0 73.44376135031384,18.91057372948442,0 73.44382403955279,18.91040316816124,0 73.44180710222177,18.90973342056278,0 73.44022948855711,18.90926814437556,0 73.44008377975048,18.90966455748542,0 73.4390109730676,18.90929990422863,0 73.43912790748347,18.90898177978276,0 73.43234003118079,18.90672158914795,0 73.43228013756244,18.90688510425229,0 73.43202106277685,18.90680935626804,0 73.43188138066186,18.90687919734248,0 73.43185385938712,18.90688837110707,0 73.43181724152889,18.90693545131792,0 73.43178767648196,18.90695591943085,0 73.43178120896827,18.90696039694085,0 73.4317164305656,18.90700524348901,0 73.43165485562486,18.90706681851304,0 73.43158143399744,18.9071202160663,0 73.43157901393353,18.90712197611169,0 73.43151930699261,18.90720407335861,0 73.43145718313579,18.90725663966868,0 73.43140331860452,18.90734641409217,0 73.43133988541973,18.90740984728323,0 73.43129843446138,18.90747498472,0 73.43118835769181,18.90757588838666,0 73.43108434415139,18.90767123424035,0 73.43099213517182,18.9077173387307,0 73.43087922701072,18.90778918944907,0 73.4308393859792,18.90781454279849,0 73.4308245799313,18.90782638765235,0 73.43073966828671,18.9079112993109,0 73.43068763034566,18.90800794152557,0 73.43062408734016,18.90809972578704,0 73.43055602080368,18.90815644798785,0 73.43053368665915,18.90817329172238,0 73.42722103670268,18.90503964645611,0 73.43450934139076,18.8978883077415,0 73.43448601610059,18.89797383414378,0 
						</coordinates>
					</LinearRing>
				</outerBoundaryIs>
			</Polygon>
		</Placemark>
	</Folder>
</Document>
</kml>
