<?xml version="1.0" encoding="UTF-8"?>
<kml xmlns="http://www.opengis.net/kml/2.2" xmlns:gx="http://www.google.com/kml/ext/2.2" xmlns:kml="http://www.opengis.net/kml/2.2" xmlns:atom="http://www.w3.org/2005/Atom">
<Document>
	<name>Bhivpuri Alt1.kml</name>
	<Style id="falseColor0">
		<LineStyle>
			<color>ffff00ff</color>
			<width>3</width>
		</LineStyle>
		<PolyStyle>
			<colorMode>random</colorMode>
			<fill>0</fill>
		</PolyStyle>
	</Style>
	<Style id="falseColor1">
		<LineStyle>
			<color>ffff00ff</color>
			<width>3</width>
		</LineStyle>
		<PolyStyle>
			<colorMode>random</colorMode>
			<fill>0</fill>
		</PolyStyle>
	</Style>
	<StyleMap id="falseColor2">
		<Pair>
			<key>normal</key>
			<styleUrl>#falseColor1</styleUrl>
		</Pair>
		<Pair>
			<key>highlight</key>
			<styleUrl>#falseColor0</styleUrl>
		</Pair>
	</StyleMap>
	<Folder id="layer 0">
		<name>Bhivpuri Alt1</name>
		<open>1</open>
		<Placemark>
			<styleUrl>#falseColor2</styleUrl>
			<Polygon>
				<outerBoundaryIs>
					<LinearRing>
						<coordinates>
							73.44392378108155,18.9450691727754,0 73.44379845705616,18.94502254727957,0 73.44367004736492,18.94497956966511,0 73.44364838903574,18.94497238784221,0 73.44331058535592,18.94479414725085,0 73.44314893461581,18.94465721753308,0 73.44301881829006,18.94451182461054,0 73.44283536493778,18.94419165687406,0 73.44282307293528,18.94415948783231,0 73.44277725047682,18.94403803623772,0 73.44273016144578,18.94390695046377,0 73.44268591258725,18.94377618223045,0 73.442642665273,18.94364752055909,0 73.44259909189793,18.94352122736055,0 73.4425527195084,18.94339601327549,0 73.44249481141712,18.94324400971375,0 73.4424110431229,18.94293606823951,0 73.4424170679692,18.94256480890915,0 73.44246216668569,18.94233167564242,0 73.44253584488303,18.94217862747212,0 73.44273430132878,18.94185200579091,0 73.44303402448939,18.9415981703693,0 73.44306155539283,18.94157925180379,0 73.44318238545127,18.94150694072203,0 73.44342899766588,18.94136392286575,0 73.44355521128536,18.94129520764452,0 73.44367549895729,18.9412302157433,0 73.44379684120679,18.94115725688534,0 73.44393258130071,18.94108587533183,0 73.44407334280784,18.94102420240167,0 73.44419960835906,18.9409758085559,0 73.44431355855066,18.94091399192165,0 73.44443829821445,18.94084886114747,0 73.44455337386246,18.9407859999983,0 73.44465964707578,18.94071609992594,0 73.44477519993434,18.94063025265221,0 73.44490229564062,18.94055258021217,0 73.44501454259786,18.9404837444472,0 73.44513701198765,18.94039238857305,0 73.44527738419958,18.94032872782474,0 73.44540467397323,18.94025680186459,0 73.44555358962587,18.94019923718781,0 73.44568738881992,18.94015087327561,0 73.44582888253207,18.94009327054615,0 73.44597749343637,18.94005597334198,0 73.44610235753463,18.94001248735525,0 73.44622485464929,18.93996500481795,0 73.44634374305804,18.93990650744932,0 73.44645436655732,18.93985159666244,0 73.44655809151062,18.93977405529783,0 73.44668767927635,18.93968939680558,0 73.44681875454268,18.93961919455436,0 73.44694220126787,18.93955218163599,0 73.44707200581603,18.93948204632035,0 73.44720109813649,18.93942315847979,0 73.44731836324776,18.93935982909042,0 73.44743972331979,18.93929253665983,0 73.44756755160594,18.93922009704888,0 73.447698569796,18.93915821362142,0 73.44782172099976,18.93909385174435,0 73.44794483829419,18.93903249550007,0 73.4480729631042,18.93895914416582,0 73.44820671553057,18.93890415908853,0 73.44832169626615,18.93884124227053,0 73.44844962033996,18.93877295968331,0 73.44857453927968,18.93871137393401,0 73.44869151147907,18.9386457036171,0 73.44881219876581,18.93857565059967,0 73.44893471060807,18.93850512014424,0 73.4490560681128,18.93843595476138,0 73.44917635702535,18.93836510747038,0 73.4492977110461,18.93829435457236,0 73.4494191146087,18.93822268553942,0 73.44955391761242,18.93814491656503,0 73.44969708654845,18.93808808403487,0 73.44982113132438,18.93803409530559,0 73.44994565204759,18.93797403622735,0 73.45006963700126,18.93791510701952,0 73.45015585616942,18.93786870117008,0 73.45017696840806,18.93784257411232,0 73.45047277017942,18.93772506631962,0 73.45078206197547,18.93774819509444,0 73.45105309142544,18.93777784339577,0 73.45127402308907,18.9378629797782,0 73.45133820321932,18.93789866109114,0 73.45156960867956,18.93808535520875,0 73.45168024649946,18.93834273887217,0 73.45175876173681,18.93858147025651,0 73.45175319958024,18.93870715961052,0 73.45175634731004,18.93876281205293,0 73.45177267769093,18.93890536577935,0 73.4517680737933,18.93904045621903,0 73.4517856188438,18.93917726215813,0 73.45177657944421,18.93933019040243,0 73.45176889290541,18.93945167785629,0 73.45178343229817,18.93957647728376,0 73.45179117881908,18.93972218062288,0 73.45179065726715,18.93985235319016,0 73.45180832612965,18.93999859109259,0 73.45178580037259,18.94016139824159,0 73.45176069167435,18.94030142758055,0 73.45173963179978,18.940428158534,0 73.45173358270053,18.94054934711062,0 73.45173502937614,18.94066628019443,0 73.45175549151412,18.94078613657026,0 73.45178010146728,18.94092024968999,0 73.45180372625536,18.94105852272413,0 73.45182315946214,18.94120252033029,0 73.45183053289291,18.94132707808236,0 73.4518610870396,18.94144255578333,0 73.45187614553529,18.94149649853635,0 73.45188886874986,18.94164169788214,0 73.45189172790249,18.94170996167859,0 73.45188286194589,18.94186046913849,0 73.45187413402969,18.94194052181785,0 73.45184707693038,18.9420494877869,0 73.45181460876334,18.9421580436763,0 73.45182410825893,18.94234447523665,0 73.45171582285704,18.94250063829433,0 73.45165328622465,18.94261136699826,0 73.45158219141693,18.94274304288901,0 73.45149111171763,18.94286159209766,0 73.45142155446855,18.94296190166655,0 73.45140792779564,18.94298845852934,0 73.45467956675098,18.94301575686929,0 73.45647320053057,18.94322959365373,0 73.4655333614695,18.93829041137052,0 73.48609127335489,18.93748543192574,0 73.48609845068849,18.93664480752045,0 73.48657613807121,18.93706646411309,0 73.48619651061591,18.93878500893574,0 73.48563669242786,18.93878043900934,0 73.4856442730263,18.93793971561228,0 73.46788715963076,18.9386351119201,0 73.45640576616616,18.94439557091863,0 73.45494060568717,18.94487837679055,0 73.45057256650078,18.9448419203592,0 73.45051277474523,18.9449466968177,0 73.45046036083282,18.94505288852417,0 73.45041749346684,18.94518724318045,0 73.45034607580355,18.94532243972413,0 73.45028137321042,18.94544397470901,0 73.45024506751314,18.94551139096759,0 73.44702566875044,18.94559281032988,0 73.44398896182727,18.94509694481899,0 73.44392378108155,18.9450691727754,0 
						</coordinates>
					</LinearRing>
				</outerBoundaryIs>
			</Polygon>
		</Placemark>
		<Placemark>
			<styleUrl>#falseColor2</styleUrl>
			<Polygon>
				<outerBoundaryIs>
					<LinearRing>
						<coordinates>
							73.46389033299727,18.94064053472808,0 73.46402385821331,18.94134899409805,0 73.46153902156706,18.94535823611646,0 73.46081951716501,18.94827415718203,0 73.46342829904457,18.95825877297538,0 73.46628183847231,18.96278079362332,0 73.46869433710806,18.96346623526549,0 73.46865357994984,18.96359609131476,0 73.46618815183275,18.96289561070017,0 73.46329521191481,18.95831114712216,0 73.46067299189365,18.94827506652335,0 73.46140532412095,18.94530716838506,0 73.46387434863267,18.9413234452086,0 73.46375813985323,18.94070686076418,0 73.46389033299727,18.94064053472808,0 
						</coordinates>
					</LinearRing>
				</outerBoundaryIs>
			</Polygon>
		</Placemark>
		<Placemark>
			<styleUrl>#falseColor2</styleUrl>
			<Polygon>
				<outerBoundaryIs>
					<LinearRing>
						<coordinates>
							73.45904744451374,18.9393118486954,0 73.46048111245727,18.93822935931723,0 73.46064300417123,18.93667061366459,0 73.46099476373479,18.93561944531235,0 73.46177849024096,18.93295378427769,0 73.45929707421909,18.93054033889534,0 73.459384020286,18.9304330054668,0 73.46188744715593,18.93293072904972,0 73.46112756150376,18.93566924744085,0 73.46078325704626,18.93669814003985,0 73.46061690638577,18.93829982983888,0 73.45915175738573,18.93940608986451,0 73.45904744451374,18.9393118486954,0 
						</coordinates>
					</LinearRing>
				</outerBoundaryIs>
			</Polygon>
		</Placemark>
		<Placemark>
			<styleUrl>#falseColor2</styleUrl>
			<Polygon>
				<outerBoundaryIs>
					<LinearRing>
						<coordinates>
							73.46679876489462,18.93918123182888,0 73.46688261600328,18.93953178994917,0 73.46679554030966,18.94058654960627,0 73.46701315444113,18.94129918653945,0 73.46687562925582,18.94175567503581,0 73.46635267720076,18.9426395876235,0 73.46626993876077,18.94259526521491,0 73.46678742678925,18.94172058886884,0 73.4669143308908,18.94129935581065,0 73.46669952657986,18.94059591896759,0 73.46678682836198,18.93953842813241,0 73.4667118240702,18.93922485536946,0 73.46679876489462,18.93918123182888,0 
						</coordinates>
					</LinearRing>
				</outerBoundaryIs>
			</Polygon>
		</Placemark>
		<Placemark>
			<styleUrl>#falseColor2</styleUrl>
			<Polygon>
				<outerBoundaryIs>
					<LinearRing>
						<coordinates>
							73.45186122104838,18.94283121888144,0 73.45193443906062,18.94242871222567,0 73.45194662288453,18.94110715571868,0 73.45201896567558,18.93957686256145,0 73.45197313740124,18.93941842342408,0 73.45171202318674,18.9373220596852,0 73.45791441517967,18.93849792462957,0 73.45811658718445,18.93847086129932,0 73.46032243167555,18.94046372143571,0 73.45633292345865,18.94284460607355,0 73.45186122104838,18.94283121888144,0 
						</coordinates>
					</LinearRing>
				</outerBoundaryIs>
			</Polygon>
		</Placemark>
	</Folder>
</Document>
</kml>
