<?xml version="1.0" encoding="UTF-8"?>

<kml xmlns:xsd="http://www.w3.org/2001/XMLSchema" xmlns:gx="http://www.google.com/kml/ext/2.2" xmlns:atom="http://www.w3.org/2005/Atom" xmlns="http://www.opengis.net/kml/2.2">
<Document>
<name>Bhivpuri  Alternative-7</name>
<visibility>1</visibility>
<Folder id="kml_ft_Bhivpuri__Alternative-7">
<name>Bhivpuri  Alternative-7</name>
<Placemark id="kml_1">
<name>kml_1</name>
<Style>
<LineStyle>
<color>ffff0000</color>
</LineStyle>
</Style>
<LineString>
<coordinates>73.4272210349029,18.9050396682232,0.0 73.4272675544816,18.9050038328712,0.0 73.4272714732444,18.9050022000536,0.0 73.4272729955207,18.9050008469224,0.0 73.4274052691658,18.9049046479063,0.0 73.4275102029461,18.904788054965,0.0 73.4275461421362,18.9047640955028,0.0 73.4275731401429,18.9047332407193,0.0 73.4276778118069,18.9046495033807,0.0 73.4277648360693,18.9045127512341,0.0 73.4277725530811,18.9045050342222,0.0 73.4277786581377,18.9044897716732,0.0 73.4279185689171,18.9043343152961,0.0 73.4280657592233,18.9041707707149,0.0 73.4282287271094,18.9040621254967,0.0 73.428344802582,18.9039202556534,0.0 73.4283610848343,18.9039112099587,0.0 73.4283769826359,18.9038900129549,0.0 73.4285365408496,18.9038049152675,0.0 73.4286102193611,18.9037091333489,0.0 73.4286579001946,18.9036709886791,0.0 73.4287034853662,18.9036140073676,0.0 73.4288500240221,18.9035278081289,0.0 73.4289358560956,18.9034687986197,0.0 73.4290491952498,18.9034262964507,0.0 73.4291937682426,18.9033262074992,0.0 73.4292010197283,18.9033211872468,0.0 73.4293369485416,18.9032270826951,0.0 73.4294397993014,18.9031036619563,0.0 73.4294595917188,18.9030838695321,0.0 73.4294794374196,18.9030640238873,0.0 73.4296223012909,18.9029449706558,0.0 73.4297265825406,18.9028580697113,0.0 73.429746773252,18.9028361964344,0.0 73.4297824002332,18.9027908531429,0.0 73.4299277069189,18.9026778368051,0.0 73.4300279617899,18.9026092414261,0.0 73.4301020946644,18.9025585189148,0.0 73.4302027332144,18.9024981358628,0.0 73.4302070804761,18.9024937885969,0.0 73.4302457358815,18.9023999115009,0.0 73.4303167034224,18.9022883910992,0.0 73.4303739800216,18.9022425699298,0.0 73.4304064060202,18.9021906883239,0.0 73.4304353607195,18.9020314389107,0.0 73.4304680081251,18.9019596145646,0.0 73.430517050509,18.9018517216895,0.0 73.4305370429743,18.9017957428736,0.0 73.4305320785966,18.9017887927453,0.0 73.4304822358623,18.9017190128878,0.0 73.43046768599,18.9016986430428,0.0 73.4304657576159,18.9016959433159,0.0 73.4303023889264,18.9014672264889,0.0 73.4305017878172,18.9013598579368,0.0 73.4305667389988,18.9012083055449,0.0 73.4305929001754,18.9012083055771,0.0 73.4305867002043,18.9011835054614,0.0 73.4307566686016,18.9010475307796,0.0 73.4308689767898,18.9009071457225,0.0 73.4309615693589,18.9008955717105,0.0 73.4310021945387,18.9008447903269,0.0 73.4309783420736,18.9007096252533,0.0 73.4309783420749,18.9006176304427,0.0 73.4309682381953,18.9004357553938,0.0 73.4309489306187,18.9003199097972,0.0 73.4309489308806,18.9001722334513,0.0 73.4308807614628,18.9000018096125,0.0 73.4308679417581,18.8999313004081,0.0 73.4308184616604,18.8998632651339,0.0 73.4306821782575,18.89969291073,0.0 73.4305629713781,18.8995439019237,0.0 73.4303853938117,18.8994329158885,0.0 73.4303063502084,18.8993011763881,0.0 73.4301930992718,18.8993011763577,0.0 73.429998470213,18.8992233245139,0.0 73.4299362950342,18.899098973995,0.0 73.4299026359255,18.8990148262756,0.0 73.4299026363504,18.8987093076362,0.0 73.4299636573895,18.8985872653961,0.0 73.4301387778574,18.8984997051822,0.0 73.4303473327643,18.8986039827527,0.0 73.4304979520686,18.898754601972,0.0 73.4306153580094,18.8987546019574,0.0 73.4306269365203,18.8987140774662,0.0 73.4306473142156,18.8985714338749,0.0 73.4307025003957,18.898405876254,0.0 73.4307751465085,18.8982605838555,0.0 73.4309305197683,18.8982161915042,0.0 73.4311583490776,18.8981836444576,0.0 73.4313174083899,18.8982270241574,0.0 73.4315397895761,18.8983281065221,0.0 73.4316217266746,18.8984305278057,0.0 73.4317073253866,18.8984305277949,0.0 73.4318187545383,18.8984782830935,0.0 73.4319198560001,18.8984493969349,0.0 73.4320466019847,18.8984335536574,0.0 73.4321461043997,18.8984086780553,0.0 73.4322415487806,18.898384816967,0.0 73.4322568232333,18.8982473475876,0.0 73.4322726624381,18.898183991349,0.0 73.4322487379857,18.8979925946317,0.0 73.4322722477734,18.8978515377959,0.0 73.4323773329898,18.8976939099696,0.0 73.432517553623,18.8975536895177,0.0 73.4325321559736,18.8975449281081,0.0 73.4325356960593,18.8975390279878,0.0 73.4326675533236,18.8973742063741,0.0 73.4328175549827,18.8972992055994,0.0 73.4328476698561,18.8972791290107,0.0 73.4328829531884,18.8972438457583,0.0 73.432976195567,18.8971272926984,0.0 73.4331184069422,18.8970561870532,0.0 73.4332662184806,18.8970069165299,0.0 73.4334966272834,18.8970069164625,0.0 73.4336355160608,18.897041638737,0.0 73.4337967186648,18.8970416386428,0.0 73.4340428519347,18.8971647053414,0.0 73.4341732512242,18.8971212388737,0.0 73.4342426958425,18.8970980906616,0.0 73.4343383810323,18.8970661956111,0.0 73.4346132888368,18.8967912876342,0.0 73.4349024604651,18.8972250451886,0.0 73.4350610272973,18.8974628943814,0.0 73.4347634685154,18.8975521622265,0.0 73.4347520920992,18.8975555751478,0.0 73.4346769959211,18.8976757291908,0.0 73.4346542286824,18.8976711757763,0.0 73.4346650165835,18.8977035392635,0.0 73.4345326648626,18.8978028030926,0.0 73.4344860143092,18.8979738559027,0.0 73.4343978936201,18.898179471145,0.0 73.4343582021499,18.8982720850395,0.0 73.4343139908585,18.8983494548059,0.0 73.4342975581016,18.8985137850747,0.0 73.4342744997681,18.8985714308834,0.0 73.4342582668452,18.8987824628003,0.0 73.4342425394567,18.8988335767517,0.0 73.4342077544395,18.8989466286009,0.0 73.4341752939868,18.8990277798504,0.0 73.4341727971065,18.8990602403295,0.0 73.4341093471349,18.8992664530943,0.0 73.4340786239211,18.8993401891962,0.0 73.4340786239576,18.8994523586601,0.0 73.4340659979607,18.8995912475687,0.0 73.4340659979988,18.8997409879404,0.0 73.4340016211573,18.8999126603625,0.0 73.4339901346405,18.8999586063841,0.0 73.4339397359781,18.9001602021702,0.0 73.4339397362663,18.9004167779507,0.0 73.4339397366053,18.9007186865843,0.0 73.4338750262572,18.9009451734465,0.0 73.4338729518217,18.9009617692456,0.0 73.4339248236111,18.9011692554456,0.0 73.4341517839101,18.9014416074056,0.0 73.4341901941975,18.901556837917,0.0 73.4341921745593,18.9015627789799,0.0 73.4342086264983,18.9016121345895,0.0 73.4342358463105,18.901693793804,0.0 73.4342638119368,18.9017776903808,0.0 73.4342638119272,18.9018307614765,0.0 73.4343269830913,18.9020834446876,0.0 73.434283834926,18.9022560372985,0.0 73.4341651852658,18.9023746871699,0.0 73.4341096296047,18.9024302428196,0.0 73.4340540743475,18.9024857982057,0.0 73.4339707408135,18.902569131693,0.0 73.4338874078086,18.9026524648195,0.0 73.4338318521474,18.9027080204691,0.0 73.4338286276873,18.9027112449382,0.0 73.4338286277556,18.9028581564105,0.0 73.4337545538879,18.902969267597,0.0 73.4337545538903,18.9030093707572,0.0 73.4337545541972,18.90319455568,0.0 73.4337545542027,18.903265946814,0.0 73.4337956943001,18.9034305061152,0.0 73.4338419907574,18.9036156914937,0.0 73.4338755959935,18.9037501112351,0.0 73.4338234725738,18.9039586053455,0.0 73.4337870985746,18.9041041024973,0.0 73.4337202046516,18.9041932943769,0.0 73.4336619628942,18.9043388992946,0.0 73.4336619631813,18.9045956725749,0.0 73.4336272411985,18.9048387280522,0.0 73.4336272413994,18.9049190981409,0.0 73.4334877452677,18.9051050930889,0.0 73.4333696138816,18.9052626019008,0.0 73.4333480524851,18.905279850996,0.0 73.4333307780488,18.9053014440834,0.0 73.4332231500234,18.9053821651467,0.0 73.4331889782845,18.9055074622891,0.0 73.4331218659276,18.9055745746099,0.0 73.4330740515431,18.9056582499925,0.0 73.4330206397677,18.905718338258,0.0 73.439530560956,18.9078863519145,0.0 73.4396025225067,18.9076905740769,0.0 73.4406751357705,18.9080557266065,0.0 73.4406213612765,18.9082020274296,0.0 73.4410608847494,18.9083478360364,0.0 73.4411992997037,18.9085115942115,0.0 73.4441046982272,18.9094754033489,0.0 73.4441204231912,18.9094326191792,0.0 73.4441674817303,18.9093045830864,0.0 73.4444037169166,18.9093832305782,0.0 73.4445438236734,18.9094298747905,0.0 73.4444811884663,18.909600292577,0.0 73.4511661294283,18.9118176646057,0.0 73.458528402573,18.9123389324409,0.0 73.4585287675192,18.9122709121262,0.0 73.4603099529336,18.9122856893677,0.0 73.4603038136266,18.9134321623277,0.0 73.4585226160788,18.913417384166,0.0 73.4585229350857,18.913357932589,0.0 73.4508521021167,18.9127917925727,0.0 73.4441279384942,18.9105614069201,0.0 73.4440652494836,18.9107319683612,0.0 73.443688757153,18.9106070781444,0.0 73.4437514464788,18.9104365168523,0.0 73.4402294867723,18.9092681661474,0.0 73.4400837779655,18.9096645792577,0.0 73.4390109712814,18.9092999260006,0.0 73.4391279056974,18.9089818015543,0.0 73.4323400293869,18.9067216109169,0.0 73.4322801357685,18.9068851260214,0.0 73.4320210609826,18.9068093780371,0.0 73.4318813788675,18.9068792191117,0.0 73.4318538575927,18.9068883928762,0.0 73.4318172397344,18.9069354730871,0.0 73.4317876746875,18.9069559412001,0.0 73.4317812071738,18.9069604187101,0.0 73.431716428771,18.9070052652583,0.0 73.4316548538302,18.9070668402824,0.0 73.4315814322027,18.9071202378357,0.0 73.4315790121388,18.9071219978811,0.0 73.4315193051978,18.9072040951281,0.0 73.4314571813409,18.9072566614382,0.0 73.4314033168096,18.9073464358619,0.0 73.4313398836247,18.907409869053,0.0 73.4312984326663,18.9074750064898,0.0 73.4311883558966,18.9075759101566,0.0 73.4310843423561,18.9076712560104,0.0 73.4309921333764,18.9077173605008,0.0 73.4308792252152,18.9077892112193,0.0 73.4308393841836,18.9078145645687,0.0 73.4308245781357,18.9078264094225,0.0 73.430739666491,18.9079113210812,0.0 73.4306876285499,18.908007963296,0.0 73.4306240855443,18.9080997475576,0.0 73.4305560190078,18.9081564697585,0.0 73.4305336848632,18.908173313493,0.0 73.4272210349029,18.9050396682232,0.0</coordinates>
</LineString>
</Placemark>
</Folder>
</Document></kml>
