<?xml version="1.0" encoding="UTF-8"?>

<kml xmlns:xsd="http://www.w3.org/2001/XMLSchema" xmlns:gx="http://www.google.com/kml/ext/2.2" xmlns:atom="http://www.w3.org/2005/Atom" xmlns="http://www.opengis.net/kml/2.2">
<Document>
<name>Bhivpuri  Alternative-5</name>
<visibility>1</visibility>
<Folder id="kml_ft_Bhivpuri__Alternative-5">
<name>Bhivpuri  Alternative-5</name>
<Placemark id="kml_1">
<name>kml_1</name>
<Style>
<LineStyle>
<color>ffff0000</color>
</LineStyle>
</Style>
<LineString>
<coordinates>73.4559409118791,18.9448867328721,0.0 73.4505725647279,18.9448419421719,0.0 73.4505127729723,18.9449467186305,0.0 73.4504603590598,18.9450529103371,0.0 73.4504174916938,18.9451872649935,0.0 73.4503460740304,18.9453224615373,0.0 73.4502813714372,18.9454439965223,0.0 73.4502087600119,18.94557882903,0.0 73.4501208955965,18.9456898883686,0.0 73.4499771816034,18.9459403700659,0.0 73.449779426604,18.9461227959145,0.0 73.4497044967965,18.9461809791949,0.0 73.4493842200436,18.9463014798438,0.0 73.4492117426162,18.9463355572283,0.0 73.4491591895015,18.9463500462438,0.0 73.4490091199665,18.946393922517,0.0 73.4488534609821,18.946417192044,0.0 73.4487950219605,18.9464250543285,0.0 73.4486887636835,18.9464428106052,0.0 73.4484845423047,18.9464730607762,0.0 73.4482702409046,18.9464779850682,0.0 73.4481519754561,18.9464699466163,0.0 73.4480574522015,18.9464603262371,0.0 73.4478405088865,18.946428369852,0.0 73.447635364329,18.9463519379207,0.0 73.4475151966766,18.946300109965,0.0 73.4474829870423,18.9462873246645,0.0 73.4473532030642,18.9462489114903,0.0 73.4472107897505,18.9462035253284,0.0 73.4470729106026,18.9461508737514,0.0 73.4469410355167,18.946099619891,0.0 73.4468107056298,18.946049843238,0.0 73.4466802533376,18.9460021634435,0.0 73.4465495118243,18.9459562630284,0.0 73.4464135501398,18.9459113404462,0.0 73.4462776566542,18.9458614424064,0.0 73.4461470162421,18.9458133436303,0.0 73.446019145906,18.9457699374176,0.0 73.4458883300131,18.9457316412975,0.0 73.4457477632099,18.9456931421525,0.0 73.4456054085311,18.9456463085479,0.0 73.4454639446777,18.9455947890707,0.0 73.4454061384715,18.9455734072719,0.0 73.4452763592035,18.9455284048271,0.0 73.445143069134,18.9454856443131,0.0 73.4450052890779,18.9454408309078,0.0 73.4448685109589,18.9453922233456,0.0 73.4447393016355,18.9453449654951,0.0 73.4446098465175,18.9453047827473,0.0 73.4444731238826,18.9452647076161,0.0 73.4443354712255,18.945221563912,0.0 73.4441955741767,18.9451769858992,0.0 73.4440541408157,18.9451247386541,0.0 73.443923779301,18.9450691945883,0.0 73.4437984552755,18.9450225690924,0.0 73.4436700455841,18.9449795914779,0.0 73.4436483872549,18.944972409655,0.0 73.4433105835747,18.9447941690635,0.0 73.4431489328344,18.9446572393455,0.0 73.4430188165085,18.9445118464228,0.0 73.442835363156,18.9441916786859,0.0 73.4428230711535,18.9441595096442,0.0 73.442777248695,18.9440380580494,0.0 73.4427301596639,18.9439069722753,0.0 73.4426859108053,18.9437762040419,0.0 73.442642663491,18.9436475423704,0.0 73.4425990901159,18.9435212491717,0.0 73.4425527177263,18.9433960350865,0.0 73.442494809635,18.9432440315246,0.0 73.4424110413406,18.94293609005,0.0 73.4424170661869,18.9425648307192,0.0 73.4424621649035,18.9423316974522,0.0 73.4425358431009,18.9421786492817,0.0 73.4427342995469,18.9418520276001,0.0 73.4430340227078,18.9415981921782,0.0 73.4430615536113,18.9415792736127,0.0 73.4431823836699,18.9415069625309,0.0 73.4434289958848,18.9413639446744,0.0 73.4435552095044,18.9412952294531,0.0 73.4436754971765,18.9412302375518,0.0 73.4437968394261,18.9411572786937,0.0 73.4439325795202,18.9410858971402,0.0 73.4440733410275,18.9410242242099,0.0 73.4441996065788,18.9409758303641,0.0 73.4443135567706,18.9409140137298,0.0 73.4444382964345,18.9408488829555,0.0 73.4445533720827,18.9407860218063,0.0 73.4446596452961,18.9407161217339,0.0 73.4447751981548,18.94063027446,0.0 73.4449022938612,18.9405526020199,0.0 73.4450145408186,18.9404837662548,0.0 73.4451370102085,18.9403924103806,0.0 73.4452773824206,18.9403287496322,0.0 73.4454046721944,18.940256823672,0.0 73.4455535878472,18.9401992589951,0.0 73.4456873870414,18.9401508950829,0.0 73.4458288807537,18.9400932923533,0.0 73.4459774916582,18.9400559951491,0.0 73.4461023557566,18.9400125091624,0.0 73.4462248528714,18.939965026625,0.0 73.4463437412803,18.9399065292563,0.0 73.4464543647797,18.9398516184694,0.0 73.4465580897331,18.9397740771047,0.0 73.446687677499,18.9396894186123,0.0 73.4468187527655,18.939619216361,0.0 73.4469421994908,18.9395522034426,0.0 73.4470720040391,18.9394820681269,0.0 73.4472010963597,18.9394231802862,0.0 73.4473183614711,18.9393598508968,0.0 73.4474397215433,18.9392925584661,0.0 73.4475675498296,18.9392201188551,0.0 73.4476985680198,18.9391582354275,0.0 73.4478217192237,18.9390938735504,0.0 73.4479448365183,18.9390325173061,0.0 73.4480729613284,18.9389591659717,0.0 73.448206713755,18.9389041808944,0.0 73.4483216944907,18.9388412640763,0.0 73.4484496185646,18.938772981489,0.0 73.4485745375045,18.9387113957396,0.0 73.448691509704,18.9386457254227,0.0 73.4488121969909,18.9385756724051,0.0 73.4489347088333,18.9385051419496,0.0 73.4490560663382,18.9384359765667,0.0 73.4491763552509,18.9383651292756,0.0 73.4492977092717,18.9382943763775,0.0 73.4494191128345,18.9382227073445,0.0 73.4495539158384,18.93814493837,0.0 73.4496970847746,18.9380881058398,0.0 73.4498211295506,18.9380341171104,0.0 73.449945650274,18.9379740580321,0.0 73.4500696352278,18.9379151288242,0.0 73.4501558543961,18.9378687229747,0.0 73.4501769666347,18.9378425959169,0.0 73.4504727684064,18.9377250881241,0.0 73.4507820602028,18.937748216899,0.0 73.4510530896531,18.9377778652003,0.0 73.451274021317,18.9378630015828,0.0 73.4513382014473,18.9378986828958,0.0 73.4515696069078,18.9380853770136,0.0 73.4516802447278,18.9383427606774,0.0 73.4517587599653,18.938581492062,0.0 73.4517531978087,18.9387071814161,0.0 73.4517563455385,18.9387628338586,0.0 73.4517726759194,18.9389053875852,0.0 73.4517680720218,18.939040478025,0.0 73.4517856170723,18.9391772839643,0.0 73.4517765776727,18.9393302122087,0.0 73.4517688911339,18.9394516996627,0.0 73.4517834305267,18.9395764990904,0.0 73.4517911770476,18.9397222024297,0.0 73.4517906554957,18.9398523749971,0.0 73.4518083243582,18.9399986128997,0.0 73.4517857986011,18.9401614200489,0.0 73.4517606899028,18.940301449388,0.0 73.4517396300282,18.9404281803416,0.0 73.451733580929,18.9405493689183,0.0 73.4517350276046,18.9406663020023,0.0 73.4517554897426,18.9407861583783,0.0 73.4517800996958,18.9409202714981,0.0 73.4518037244839,18.9410585445324,0.0 73.4518231576907,18.9412025421388,0.0 73.4518305311215,18.941327099891,0.0 73.4518610852682,18.9414425775921,0.0 73.4518761437639,18.9414965203451,0.0 73.4518888669785,18.9416417196911,0.0 73.451892500484,18.9417118001604,0.0 73.4518828601745,18.9418604909477,0.0 73.4518741322583,18.9419405436272,0.0 73.451847075159,18.9420495095963,0.0 73.4518146069919,18.9421580654859,0.0 73.4518241064875,18.9423444970464,0.0 73.4517158210855,18.9425006601043,0.0 73.451653284453,18.9426113888083,0.0 73.4515821896452,18.9427430646993,0.0 73.4514911099458,18.942861613908,0.0 73.4514215526966,18.942961923477,0.0 73.4514079260237,18.9429884803399,0.0 73.4564750270689,18.9430307353688,0.0 73.4655333597138,18.9382904331757,0.0 73.4860912716228,18.9374854537299,0.0 73.4860984489564,18.9366448293237,0.0 73.4885377229209,18.9366647213484,0.0 73.4885184713433,18.938803967425,0.0 73.4856366906953,18.938780460815,0.0 73.4856442712937,18.937939737417,0.0 73.4678871578778,18.9386351337256,0.0 73.4559409118791,18.9448867328721,0.0</coordinates>
</LineString>
</Placemark>
</Folder>
</Document></kml>
