<?xml version="1.0" encoding="UTF-8"?>
<kml xmlns="http://www.opengis.net/kml/2.2" xmlns:gx="http://www.google.com/kml/ext/2.2" xmlns:kml="http://www.opengis.net/kml/2.2" xmlns:atom="http://www.w3.org/2005/Atom">
<Document>
	<name>Bhivpuri Alt2.kml</name>
	<Style id="falseColor3">
		<LineStyle>
			<color>ffff0055</color>
			<width>3</width>
		</LineStyle>
		<PolyStyle>
			<colorMode>random</colorMode>
			<fill>0</fill>
		</PolyStyle>
	</Style>
	<StyleMap id="falseColor6">
		<Pair>
			<key>normal</key>
			<styleUrl>#falseColor9</styleUrl>
		</Pair>
		<Pair>
			<key>highlight</key>
			<styleUrl>#falseColor3</styleUrl>
		</Pair>
	</StyleMap>
	<Style id="falseColor9">
		<LineStyle>
			<color>ffff0055</color>
			<width>3</width>
		</LineStyle>
		<PolyStyle>
			<colorMode>random</colorMode>
			<fill>0</fill>
		</PolyStyle>
	</Style>
	<Folder id="layer 0">
		<name>Bhivpuri Alt2</name>
		<open>1</open>
		<Placemark>
			<styleUrl>#falseColor6</styleUrl>
			<Polygon>
				<outerBoundaryIs>
					<LinearRing>
						<coordinates>
							73.48583336864597,18.93779716687311,0 73.48584292853825,18.93774843198351,0 73.48585070304665,18.93769941042466,0 73.48585668278287,18.93765016140363,0 73.48586086052603,18.93760074440218,0 73.48586323123222,18.93755121910492,0 73.48586379203965,18.93750164532744,0 73.48586254227264,18.93745208294336,0 73.48585948344214,18.93740259181273,0 73.48585461924414,18.93735323170964,0 73.48584795555517,18.93730406224962,0 73.48583950042486,18.93725514281807,0 73.48582926406678,18.93720653249826,0 73.48581657179977,18.93716987456521,0 73.48579854628314,18.93713529914581,0 73.4857755516487,18.93710350468946,0 73.48574805240838,18.93707513346757,0 73.48571660406868,18.93705075859952,0 73.48568184191065,18.93703087247498,0 73.4856444681558,18.93701587680759,0 73.48560523778086,18.93700607452017,0 73.48556494326709,18.93700166362564,0 73.48552439859175,18.93700273322681,0 73.48548442278521,18.93700926171659,0 73.48544582338673,18.93702111721485,0 73.48472059150626,18.93728002970115,0 73.48463540294074,18.93728694194217,0 73.48454991096368,18.93728600056367,0 73.48446491330564,18.93727721435079,0 73.48438120308485,18.93726066528871,0 73.484299561405,18.93723650779867,0 73.48422075006782,18.93720496729621,0 73.48414550446319,18.93716633808758,0 73.4840745267078,18.93712098062424,0 73.48400847909318,18.93706931813835,0 73.4839479779056,18.9370118326943,0 73.48389358767641,18.93694906068971,0 73.48384581591317,18.93688158785047,0 73.48380187043372,18.93681211945751,0 73.48376052673386,18.93674121959134,0 73.48372183624089,18.93666897645063,0 73.48368584708176,18.93659547990446,0 73.48365260402237,18.93652082138146,0 73.48362214841289,18.93644509375509,0 73.48359451813543,18.93636839122923,0 73.48356974755735,18.93629080921958,0 73.4835478674886,18.93621244423672,0 73.48352890514332,18.93613339376419,0 73.48351288410574,18.93605375613866,0 73.48349982430146,18.93597363042687,0 73.48348572859896,18.93585735505821,0 73.48347365822811,18.93574087351824,0 73.48346361649446,18.93562421774988,0 73.4834556061476,18.93550741974265,0 73.48344962937983,18.93539051152554,0 73.48344568782584,18.93527352515783,0 73.48344378256225,18.93515649272017,0 73.48344391410723,18.93503944630545,0 73.48344608242063,18.93492241801043,0 73.48345028690339,18.93480543992705,0 73.48345652639851,18.93468854413333,0 73.4834647991906,18.93457176268446,0 73.48333949244302,18.93459169035553,0 73.48333171927716,18.93470810447667,0 73.48332593302763,18.93482462333124,0 73.48332213522364,18.93494121621315,0 73.48332032687006,18.93505785239638,0 73.48332050844765,18.9351745011436,0 73.48332267991266,18.93529113171412,0 73.48332684069693,18.93540771337213,0 73.48333298970823,18.93552421539428,0 73.48334112533013,18.93564060707853,0 73.4833512454229,18.93575685775154,0 73.48336334732362,18.93587293677741,0 73.483377427847,18.93598881356517,0 73.48339112514127,18.9360730302548,0 73.48340793462654,18.9361567349674,0 73.48342783540058,18.93623982359374,0 73.48345080271582,18.9363221927908,0 73.48347680801095,18.9364037401103,0 73.48350581894583,18.93648436412568,0 73.48353779944169,18.93656396455896,0 73.48357270972627,18.93664244240507,0 73.48361050638323,18.93671970005503,0 73.48365114240578,18.93679564141722,0 73.48369456725565,18.93687017203698,0 73.48374072692566,18.93694319921456,0 73.48379590961852,18.93702088928198,0 73.48385879677336,18.93709308378088,0 73.4839287879965,18.93715909344714,0 73.48400521506717,18.93721828806427,0 73.48408734831729,18.9372701024803,0 73.484174403597,18.93731404200436,0 73.48426554976226,18.93734968712893,0 73.48435991660955,18.93737669753644,0 73.48445660318514,18.93739481534693,0 73.48455468638606,18.93740386758202,0 73.48465322977471,18.93740376781542,0 73.48475129251939,18.93739451699843,0 73.48549078981247,18.93713051171343,0 73.48551260112846,18.93712362619064,0 73.48553521704305,18.93711974775607,0 73.48555818216313,18.93711895450576,0 73.48558103406378,18.93712126241283,0 73.48560331260012,18.93712662500532,0 73.4856245691721,18.93713493430253,0 73.48564437575807,18.93714602298842,0 73.48566233353279,18.93715966778196,0 73.48567808089827,18.93717559393176,0 73.48569130076524,18.9371934807493,0 73.48570172693776,18.93721296806582,0 73.48570914947334,18.93723366348484,0 73.4857188877546,18.93728050912948,0 73.48572682405147,18.9373276615845,0 73.48573294780221,18.93737505810553,0 73.48573725085629,18.9374226356241,0 73.48573972748639,18.93747033082996,0 73.48574037439528,18.93751808025653,0 73.48573919072059,18.9375658203654,0 73.48573617803589,18.93761348762997,0 73.48573134034848,18.93766101862072,0 73.48572468409418,18.93770835008958,0 73.48571621812893,18.93775541905363,0 73.48570595371656,18.9378021628794,0 73.46717232240603,18.93852793756579,0 73.46708307705281,18.93839174712307,0 73.46651086108095,18.93840523502726,0 73.46623842828627,18.93827057945501,0 73.46468474592258,18.9383313291847,0 73.4646731615556,18.93814867259932,0 73.46073864548298,18.93830245550141,0 73.46065923601246,18.93735231267855,0 73.46071652278874,18.93704760951913,0 73.46073724312522,18.93680571591434,0 73.46073691483743,18.93668179994218,0 73.46067045336679,18.93668195936901,0 73.46067077457788,18.93680322222696,0 73.46065053922449,18.93703945295546,0 73.4605923040608,18.93734919984448,0 73.46067184079551,18.93830086996375,0 73.46016148515848,18.93812268309657,0 73.45751336576579,18.93822613132575,0 73.45758038735742,18.93816336203582,0 73.45765726096727,18.93806169325539,0 73.45770900715149,18.9379982121999,0 73.45779556422771,18.93792687771262,0 73.4578678544022,18.93783682182471,0 73.45792421085754,18.93779016700898,0 73.45794760626883,18.93778331245894,0 73.45800684678601,18.93777723871423,0 73.45826266579945,18.93768428284123,0 73.4584558703399,18.93669726572035,0 73.45839053251379,18.93668568471604,0 73.45820415020212,18.93763784774015,0 73.45799117410009,18.93771523594779,0 73.4579341448608,18.93772108297637,0 73.45789120457,18.93773366392038,0 73.45781913702434,18.93779332518994,0 73.45774689225894,18.93788332448488,0 73.45766052344044,18.93795450380495,0 73.45760401133521,18.93802383156353,0 73.45752973896056,18.93812206006071,0 73.45741449403671,18.93822999299194,0 73.45571912700719,18.93829620125233,0 73.45582931055883,18.93820858350687,0 73.45598732871315,18.93816570005772,0 73.45607026247338,18.93813886566797,0 73.45621559480581,18.93804255054849,0 73.45637496268611,18.93797850234335,0 73.4565750032601,18.9379004594572,0 73.45664789257631,18.93786442815146,0 73.45681500505209,18.9376797468871,0 73.4569205140631,18.93745716714378,0 73.45698272928939,18.9371625739447,0 73.45701381972138,18.9366995468669,0 73.45694715748837,18.93669767099717,0 73.48583336864597,18.93779716687311,0 
						</coordinates>
					</LinearRing>
				</outerBoundaryIs>
			</Polygon>
		</Placemark>
		<Placemark>
			<styleUrl>#falseColor6</styleUrl>
			<Polygon>
				<outerBoundaryIs>
					<LinearRing>
						<coordinates>
							73.48564467473619,18.93789499135059,0 73.46752734903497,18.938604476932,0 73.4675160332646,18.93902825906866,0 73.4675110942789,18.93908453879785,0 73.46749935349776,18.93913989834112,0 73.46748096823744,18.93919359589724,0 73.46745618484901,18.93924491193447,0 73.4674253354176,18.93929315883254,0 73.46738883331255,18.9393376900959,0 73.46734716764882,18.93937790901701,0 73.46730089673257,18.93941327667278,0 73.46725064058101,18.93944331914537,0 73.46719707261288,18.93946763387284,0 73.46714091062601,18.93948589504369,0 73.46708290717812,18.93949785796299,0 73.46374553337573,18.93999577008632,0 73.46375802574863,18.93992074498822,0 73.46707114101764,18.9394264517327,0 73.46712055134167,18.93941626110056,0 73.46716839301614,18.93940070529328,0 73.46721402497387,18.93937999275455,0 73.4672568357589,18.93935440102714,0 73.46729625171828,18.9393242730336,0 73.46733174468984,18.93929001248132,0 73.46736283907927,18.93925207845244,0 73.46738911823316,18.93921097925276,0 73.46741023002131,18.93916726559998,0 73.46742589155602,18.93912152324464,0 73.46743589298171,18.93907436512059,0 73.46744010028682,18.93902642313222,0 73.4674512877903,18.93860745178104,0 73.46717622142042,18.9386182097034,0 73.4671027966663,18.93876076206299,0 73.46685894345217,18.93877406751557,0 73.46685358668157,18.93896757447055,0 73.46685184917392,18.9392766703058,0 73.46681708233974,18.93946891924504,0 73.46672646963889,18.93977022360103,0 73.4665981640514,18.94012728369141,0 73.46651707116484,18.94032030371197,0 73.46645135861904,18.94045903920299,0 73.46645937773145,18.94063703216472,0 73.4665054105821,18.94091761164936,0 73.46651310573166,18.94106615756197,0 73.4664867888511,18.9412086692286,0 73.46641529435969,18.94143394981727,0 73.46635339099582,18.94154528499506,0 73.4663179237711,18.94161129671831,0 73.46618252970394,18.94179523532234,0 73.465527323811,18.94244874883604,0 73.46559918183949,18.94231628905906,0 73.46569928767131,18.94210707640981,0 73.46608678109766,18.94172058314254,0 73.46621191583031,18.94155058240725,0 73.46624388269255,18.94149108563634,0 73.46630059266982,18.94138909105109,0 73.46636649510562,18.94118143158526,0 73.4663891420483,18.94105879391544,0 73.46638244921542,18.94092959472302,0 73.46633635537638,18.94064864222651,0 73.46632678459417,18.94043620478191,0 73.46640344705061,18.94027435156377,0 73.46648238676541,18.94008645688983,0 73.46660866355808,18.93973504336822,0 73.46669657378852,18.93944272591374,0 73.46672847450051,18.93926632637101,0 73.4667301645423,18.93896571367523,0 73.46673528315792,18.93878081471381,0 73.46652757101795,18.93879214779185,0 73.46626766716946,18.93894762052789,0 73.46471397851145,18.93900837004087,0 73.46470147150558,18.93918631704464,0 73.46415206820177,18.93921602661121,0 73.46408844540143,18.93936744247542,0 73.46390775852389,18.93960121643321,0 73.46382446358717,18.93974377272874,0 73.46376252334552,18.94003699224724,0 73.46376534975015,18.94016403458586,0 73.46378289287203,18.940284293248,0 73.46382118905812,18.94048745839451,0 73.46387356255231,18.94066431259479,0 73.46393988224133,18.94087239200737,0 73.46399270249334,18.94101830513279,0 73.46400213940436,18.94118916901248,0 73.46399677217525,18.94135673135404,0 73.4638831546258,18.94154288228759,0 73.46368638114102,18.94171795269568,0 73.46357218548501,18.94186413354199,0 73.4634670535648,18.94209389186891,0 73.46338226754467,18.94231658176384,0 73.46335037079727,18.94261604119233,0 73.46343314413549,18.94289435472447,0 73.46355224504207,18.94319314568357,0 73.46359936230373,18.94350933743575,0 73.46359050345443,18.94369167583669,0 73.46355557210686,18.943959006367,0 73.46336563473331,18.9443068130951,0 73.46322954977413,18.94458298451307,0 73.46304907264364,18.94478458398906,0 73.46284633350409,18.94506398468177,0 73.46279483129803,18.945261935375,0 73.46278507677104,18.94546085805413,0 73.46282415533179,18.94557934870966,0 73.46290042316879,18.94572177997364,0 73.46300327983039,18.94585710147357,0 73.46307472448662,18.94597970863963,0 73.46310227925436,18.94603659982247,0 73.46313526796524,18.94614271973269,0 73.4631708534488,18.9463886599072,0 73.46324005848192,18.94655023073911,0 73.4633464266788,18.94674537484331,0 73.46338985418595,18.94690980148829,0 73.46344657631107,18.94708984087792,0 73.46350318471963,18.94724811460077,0 73.46354746222029,18.94735504154623,0 73.46361807096866,18.94752743831613,0 73.46367848188704,18.94762153986764,0 73.46379090650798,18.94775139769969,0 73.46397679187109,18.94792005654677,0 73.46408931315206,18.94802683632863,0 73.46424880831057,18.94817400817182,0 73.46440739840516,18.9482816449171,0 73.4645454098989,18.94835090292303,0 73.46464037192902,18.94846517972497,0 73.46475431056979,18.94862920825129,0 73.46482843543211,18.94873034603076,0 73.46490451385851,18.94883716366662,0 73.46496137125986,18.94893570855887,0 73.46503938907023,18.94900650943659,0 73.465181551127,18.9492010143253,0 73.46519944535538,18.94922704609061,0 73.46529267924323,18.94957725134976,0 73.46507920824119,18.94926670309137,0 73.46494516973146,18.94908331261804,0 73.46486235755746,18.94900816081962,0 73.46479908944475,18.94889850480839,0 73.46472671449528,18.94879688693047,0 73.46465218137217,18.94869519201914,0 73.46454028908381,18.94853410932056,0 73.46446475858376,18.94844321626056,0 73.46434247425634,18.94838185055225,0 73.46416955377616,18.94826448758131,0 73.46400275907024,18.94811058011122,0 73.46389060558469,18.94800414929946,0 73.46370035161448,18.94783152659652,0 73.46357767774106,18.94768983010155,0 73.46350703074133,18.94757978378173,0 73.46343253416403,18.94739789427088,0 73.46338727051456,18.94728858565976,0 73.46332899007092,18.94712563670171,0 73.46327081788529,18.94694099431105,0 73.46323022219104,18.94678728915832,0 73.46312788297475,18.94659953640554,0 73.46305068794682,18.94641931127684,0 73.46301425714201,18.94616752762107,0 73.46298644277179,18.94607805260828,0 73.46296454419844,18.94603283946896,0 73.46289892016351,18.94592022102307,0 73.46279479040865,18.94578322447317,0 73.46270947886775,18.94562390376031,0 73.46266075617937,18.9454761706791,0 73.46267209601329,18.94524492253886,0 73.46273193792068,18.94501491848746,0 73.46295105162926,18.94471295178733,0 73.46312483073996,18.94451883437563,0 73.46325494414441,18.94425478196613,0 73.46343581722608,18.94392357388009,0 73.46346742202186,18.94368170284545,0 73.46347552530007,18.94351491860907,0 73.46343196229191,18.94322257709196,0 73.46331583370001,18.94293124229539,0 73.46322519352604,18.94262647688316,0 73.46326100590278,18.94229025827145,0 73.46335232831397,18.94205040102906,0 73.46346467109909,18.94180488420183,0 73.46359395543892,18.94163938858111,0 73.46378555895642,18.94146891801396,0 73.46387434863267,18.9413234452086,0 73.46387860827531,18.94119046419216,0 73.4638703507317,18.94104095184147,0 73.46382243057474,18.94090857469294,0 73.46375508888764,18.94069728826351,0 73.46370075596563,18.94051381703854,0 73.46366096912773,18.94030274301588,0 73.46364209853368,18.94017338383371,0 73.4636388316231,18.94002653660138,0 73.46370724201289,18.93970268905975,0 73.46380368545461,18.93953762975213,0 73.46397968216105,18.93930992416223,0 73.46401604606031,18.93922338189871,0 73.45043574983004,18.93995721767534,0 73.4502889667224,18.94003972234287,0 73.45025125444202,18.94005852233711,0 73.45021172718367,18.94007357238576,0 73.45017079545863,18.9400847161864,0 73.45012888436408,18.9400918380051,0 73.45008642916883,18.94009486387785,0 73.45004387079288,18.94009376237996,0 73.45000165122744,18.94008854495119,0 73.4499602089448,18.94007926577752,0 73.44991997434482,18.94006602122811,0 73.44988136528455,18.94004894885491,0 73.44984478273841,18.94002822596354,0 73.44981060663426,18.94000406777202,0 73.44979500380859,18.93999181670114,0 73.44951029978252,18.9402906598395,0 73.45036006087936,18.94103066450832,0 73.44916576643358,18.94234412733398,0 73.4508242131557,18.94314631546558,0 73.44864151305264,18.94547109307296,0 73.44331157012162,18.94487050445409,0 73.44250144358865,18.94289311703724,0 73.44541129617893,18.94052801507788,0 73.44615523019057,18.93960621341915,0 73.44740633665783,18.93905100828077,0 73.44910703237404,18.93830351326417,0 73.44870435944932,18.9375737989874,0 73.4487626778534,18.93754344696475,0 73.44916744688919,18.93827695926804,0 73.44974647267092,18.93802245855422,0 73.44980907901095,18.93799929437916,0 73.44987433048107,18.93798411740944,0 73.4499411070453,18.93797718815711,0 73.45000826249003,18.93797862556315,0 73.45007464409787,18.93798840495512,0 73.45013911243399,18.93800635847128,0 73.45020056090361,18.93803217794168,0 73.45025793474633,18.9380654201774,0 73.45031024914067,18.93810551457808,0 73.45035660610853,18.93815177292571,0 73.45039620992851,18.93820340119753,0 73.45042838079496,18.93825951319574,0 73.45054459047476,18.93849818316568,0 73.45194245327572,18.93844363357432,0 73.45192990656165,18.93815253283936,0 73.45227689539776,18.93757634215392,0 73.45253136725762,18.93723188716631,0 73.45258685473503,18.93726674744401,0 73.45233303294157,18.93761032264498,0 73.45199709793336,18.93816815830209,0 73.45200885958025,18.93844104189953,0 73.45561012843717,18.93830045738126,0 73.4557975169504,18.93815144649415,0 73.45596750439529,18.93810531478706,0 73.45603998064648,18.93808186407256,0 73.45618332383397,18.9379868672042,0 73.45634942692004,18.93792011219631,0 73.45654702129963,18.93784302365768,0 73.45660588659759,18.93781392483425,0 73.45675837179569,18.93764540868118,0 73.45685683714709,18.93743768825244,0 73.45691668824009,18.93715428988619,0 73.45694749339016,18.93669551415398,0 73.48564074453587,18.93833087549409,0 73.48564467473619,18.93789499135059,0 
						</coordinates>
					</LinearRing>
				</outerBoundaryIs>
			</Polygon>
		</Placemark>
		<Placemark>
			<styleUrl>#falseColor6</styleUrl>
			<Polygon>
				<outerBoundaryIs>
					<LinearRing>
						<coordinates>
							73.48608869556006,18.93778715510582,0 73.48609545989956,18.93699491839386,0 73.4862244737438,18.93697486222122,0 73.48623259528524,18.93696920909621,0 73.48623580637532,18.93697310047379,0 73.48633794472489,18.93733525429157,0 73.48622156653232,18.93771661563363,0 73.48633794472489,18.93733525429157,0 73.48571963560822,18.93831602704582,0 73.48564074453587,18.93833087549409,0 73.48583336864597,18.93779716687311,0 73.48608869556006,18.93778715510582,0 
						</coordinates>
					</LinearRing>
				</outerBoundaryIs>
			</Polygon>
		</Placemark>
		<Placemark>
			<styleUrl>#falseColor6</styleUrl>
			<Polygon>
				<outerBoundaryIs>
					<LinearRing>
						<coordinates>
							73.44541129617893,18.94052801507788,0 73.44615523019057,18.93960621341915,0 73.44801230887172,18.93878747127887,0 73.44955888393514,18.94033296905874,0 73.45036006087936,18.94103066450832,0 73.44541129617893,18.94052801507788,0 
						</coordinates>
					</LinearRing>
				</outerBoundaryIs>
			</Polygon>
		</Placemark>
		<Placemark>
			<styleUrl>#falseColor6</styleUrl>
			<Polygon>
				<outerBoundaryIs>
					<LinearRing>
						<coordinates>
							73.44250144358865,18.94289311703724,0 73.44541129617893,18.94052801507788,0 73.44557660406304,18.94060798016111,0 73.44331157012162,18.94487050445409,0 73.44250144358865,18.94289311703724,0 
						</coordinates>
					</LinearRing>
				</outerBoundaryIs>
			</Polygon>
		</Placemark>
		<Placemark>
			<styleUrl>#falseColor6</styleUrl>
			<Polygon>
				<outerBoundaryIs>
					<LinearRing>
						<coordinates>
							73.45036006087936,18.94103066450832,0 73.44916576643358,18.94234412733398,0 73.44826734713064,18.94190955416837,0 73.44876893878005,18.94131835496573,0 73.44752294687696,18.94021486820661,0 73.44951029978252,18.9402906598395,0 73.45036006087936,18.94103066450832,0 
						</coordinates>
					</LinearRing>
				</outerBoundaryIs>
			</Polygon>
		</Placemark>
		<Placemark>
			<styleUrl>#falseColor6</styleUrl>
			<Polygon>
				<outerBoundaryIs>
					<LinearRing>
						<coordinates>
							73.44970782716257,18.94515225597476,0 73.44971438243077,18.94444236377346,0 73.4502081893951,18.94444649165497,0 73.4502016362129,18.9451563840225,0 73.44970782716257,18.94515225597476,0 
						</coordinates>
					</LinearRing>
				</outerBoundaryIs>
			</Polygon>
		</Placemark>
		<Placemark>
			<styleUrl>#falseColor6</styleUrl>
			<Polygon>
				<outerBoundaryIs>
					<LinearRing>
						<coordinates>
							73.44668256242005,18.93582887291485,0 73.44761475740889,18.93461693633388,0 73.44855773165777,18.93532052895113,0 73.45022556055488,18.93567284943727,0 73.44697753212571,18.93627406306647,0 73.44668256242005,18.93582887291485,0 
						</coordinates>
					</LinearRing>
				</outerBoundaryIs>
			</Polygon>
		</Placemark>
		<Placemark>
			<styleUrl>#falseColor6</styleUrl>
			<Polygon>
				<outerBoundaryIs>
					<LinearRing>
						<coordinates>
							73.45026993067894,18.94541391669465,0 73.45029328025574,18.94633980821063,0 73.44738365375063,18.94677625627132,0 73.44702566875044,18.94559281032988,0 73.448639958532,18.9456393139191,0 73.45026993067894,18.94541391669465,0 
						</coordinates>
					</LinearRing>
				</outerBoundaryIs>
			</Polygon>
		</Placemark>
		<Placemark>
			<styleUrl>#falseColor6</styleUrl>
			<Polygon>
				<outerBoundaryIs>
					<LinearRing>
						<coordinates>
							73.44523723620802,18.93964764787674,0 73.44437643419162,18.9403225796397,0 73.4439291804113,18.93991676582419,0 73.44489521322244,18.9391568850018,0 73.44510651210088,18.93889663862651,0 73.4457623844396,18.93830581909306,0 73.44694165698637,18.93707336986166,0 73.44755951402834,18.93751222735641,0 73.44523723620802,18.93964764787674,0 
						</coordinates>
					</LinearRing>
				</outerBoundaryIs>
			</Polygon>
		</Placemark>
		<Placemark>
			<styleUrl>#falseColor6</styleUrl>
			<Polygon>
				<outerBoundaryIs>
					<LinearRing>
						<coordinates>
							73.44945290479407,18.9422308419651,0 73.45054173540315,18.94102471949811,0 73.45002421522719,18.94051442846173,0 73.45189160172418,18.94034028815451,0 73.45222448864997,18.94233982872595,0 73.4516675640421,18.94249781178722,0 73.45165011489354,18.94284551820504,0 73.45203451571639,18.94337728195116,0 73.45092107504009,18.94364807253156,0 73.45059472320385,18.94351433678636,0 73.45097779581133,18.94316065005386,0 73.44945290479407,18.9422308419651,0 
						</coordinates>
					</LinearRing>
				</outerBoundaryIs>
			</Polygon>
		</Placemark>
		<Placemark>
			<styleUrl>#falseColor6</styleUrl>
			<Polygon>
				<outerBoundaryIs>
					<LinearRing>
						<coordinates>
							73.44631142643603,18.94045050081051,0 73.44583542745224,18.94102530335683,0 73.44546254842034,18.94074570961128,0 73.44593854773683,18.94017090804026,0 73.44631142643603,18.94045050081051,0 
						</coordinates>
					</LinearRing>
				</outerBoundaryIs>
			</Polygon>
		</Placemark>
		<Placemark>
			<styleUrl>#falseColor6</styleUrl>
			<Polygon>
				<outerBoundaryIs>
					<LinearRing>
						<coordinates>
							73.44951334548269,18.94028746289059,0 73.44951029978252,18.9402906598395,0 73.44801230887172,18.93878747127887,0 73.44951334548269,18.94028746289059,0 
						</coordinates>
					</LinearRing>
				</outerBoundaryIs>
			</Polygon>
		</Placemark>
		<Placemark>
			<styleUrl>#falseColor6</styleUrl>
			<Polygon>
				<outerBoundaryIs>
					<LinearRing>
						<coordinates>
							73.44812031529632,18.93777654102368,0 73.44845775893684,18.9377793640186,0 73.448455377637,18.93803713547442,0 73.4481179334791,18.93803431243834,0 73.44812031529632,18.93777654102368,0 
						</coordinates>
					</LinearRing>
				</outerBoundaryIs>
			</Polygon>
		</Placemark>
		<Placemark>
			<styleUrl>#falseColor6</styleUrl>
			<Polygon>
				<outerBoundaryIs>
					<LinearRing>
						<coordinates>
							73.45204250797848,18.93735995668862,0 73.45182257563347,18.93830799498896,0 73.45061808514555,18.93840969046784,0 73.45017579266396,18.93788402957231,0 73.44985845688961,18.93783785225549,0 73.44981038003424,18.93744973662426,0 73.45204250797848,18.93735995668862,0 
						</coordinates>
					</LinearRing>
				</outerBoundaryIs>
			</Polygon>
		</Placemark>
		<Placemark>
			<styleUrl>#falseColor6</styleUrl>
			<Polygon>
				<outerBoundaryIs>
					<LinearRing>
						<coordinates>
							73.4466123505682,18.9411090012634,0 73.44751303160875,18.94022460428999,0 73.4466123505682,18.9411090012634,0 
						</coordinates>
					</LinearRing>
				</outerBoundaryIs>
			</Polygon>
		</Placemark>
		<Placemark>
			<styleUrl>#falseColor6</styleUrl>
			<Polygon>
				<outerBoundaryIs>
					<LinearRing>
						<coordinates>
							73.44593854773683,18.94017090804026,0 73.44557660406304,18.94060798016111,0 73.44593854773683,18.94017090804026,0 
						</coordinates>
					</LinearRing>
				</outerBoundaryIs>
			</Polygon>
		</Placemark>
		<Placemark>
			<styleUrl>#falseColor6</styleUrl>
			<Polygon>
				<outerBoundaryIs>
					<LinearRing>
						<coordinates>
							73.44600814797704,18.94081673170365,0 73.44631142643603,18.94045050081051,0 73.4466123505682,18.9411090012634,0 73.44600814797704,18.94081673170365,0 
						</coordinates>
					</LinearRing>
				</outerBoundaryIs>
			</Polygon>
		</Placemark>
		<Placemark>
			<styleUrl>#falseColor6</styleUrl>
			<Polygon>
				<outerBoundaryIs>
					<LinearRing>
						<coordinates>
							73.44557660406304,18.94060798016111,0 73.44546254842034,18.94074570961128,0 73.44541129617893,18.94052801507788,0 73.44557660406304,18.94060798016111,0 
						</coordinates>
					</LinearRing>
				</outerBoundaryIs>
			</Polygon>
		</Placemark>
		<Placemark>
			<styleUrl>#falseColor6</styleUrl>
			<Polygon>
				<outerBoundaryIs>
					<LinearRing>
						<coordinates>
							73.4466123505682,18.9411090012634,0 73.44752294687696,18.94021486820661,0 73.4466123505682,18.9411090012634,0 
						</coordinates>
					</LinearRing>
				</outerBoundaryIs>
			</Polygon>
		</Placemark>
		<Placemark>
			<styleUrl>#falseColor6</styleUrl>
			<Polygon>
				<outerBoundaryIs>
					<LinearRing>
						<coordinates>
							73.44876645703788,18.94131615708422,0 73.44826734713064,18.94190955416829,0 73.44876893623716,18.94131835796282,0 73.44751303160875,18.94022460428999,0 73.4466123505682,18.9411090012634,0 73.44751303160875,18.94022460428999,0 73.44876643674834,18.94131618120668,0 73.44826734713064,18.94190955416829,0 73.44600814797704,18.94081673170365,0 73.44583542745224,18.94102530335683,0 73.44876645703788,18.94131615708422,0 
						</coordinates>
					</LinearRing>
				</outerBoundaryIs>
			</Polygon>
		</Placemark>
		<Placemark>
			<styleUrl>#falseColor6</styleUrl>
			<Polygon>
				<outerBoundaryIs>
					<LinearRing>
						<coordinates>
							73.48583679973227,18.93778072640976,0 73.48567924911595,18.93810552190702,0 73.48564257474978,18.93812789465431,0 73.48583679973227,18.93778072640976,0 
						</coordinates>
					</LinearRing>
				</outerBoundaryIs>
			</Polygon>
		</Placemark>
	</Folder>
</Document>
</kml>
