<?xml version="1.0" encoding="UTF-8"?>
<kml xmlns="http://www.opengis.net/kml/2.2" xmlns:gx="http://www.google.com/kml/ext/2.2" xmlns:kml="http://www.opengis.net/kml/2.2" xmlns:atom="http://www.w3.org/2005/Atom">
<Document>
	<name>CA LAND OVALI  (990.265 Ha).kml</name>
	<StyleMap id="msn_ylw-pushpin">
		<Pair>
			<key>normal</key>
			<styleUrl>#sn_ylw-pushpin</styleUrl>
		</Pair>
		<Pair>
			<key>highlight</key>
			<styleUrl>#sh_ylw-pushpin</styleUrl>
		</Pair>
	</StyleMap>
	<Style id="sh_ylw-pushpin">
		<IconStyle>
			<scale>1.3</scale>
			<Icon>
				<href>http://maps.google.com/mapfiles/kml/pushpin/ylw-pushpin.png</href>
			</Icon>
			<hotSpot x="20" y="2" xunits="pixels" yunits="pixels"/>
		</IconStyle>
		<LineStyle>
			<color>ff0000ff</color>
			<width>2</width>
		</LineStyle>
		<PolyStyle>
			<color>6600ffff</color>
		</PolyStyle>
	</Style>
	<Style id="sn_ylw-pushpin">
		<IconStyle>
			<scale>1.1</scale>
			<Icon>
				<href>http://maps.google.com/mapfiles/kml/pushpin/ylw-pushpin.png</href>
			</Icon>
			<hotSpot x="20" y="2" xunits="pixels" yunits="pixels"/>
		</IconStyle>
		<LineStyle>
			<color>ff0000ff</color>
			<width>2</width>
		</LineStyle>
		<PolyStyle>
			<color>6600ffff</color>
		</PolyStyle>
	</Style>
	<Placemark>
		<name>CA LAND OVALI  (990.265 Ha)</name>
		<description>Viillage: Ovali 
Tahsil: chiplun
District : Ratnagiri
Division : Ratnagiri (Chiplun)
Range: Chiplun 
Round: Chiplun
Beat: Kolkewadi
Total Area: 990.265Ha.
Survey No.:
422, 423, 424,425, 426, 427, 428, 434, 435, 436, 437, 438, 439, 440, 441, 442, 443, 444, 445, 446, 447, 48, 449, 450, 451/1, 451/2, 452, 453, 454, 455, 456, 457, 458, 459, 460, 461, 462, 463, 464, 465, 466, 467, 469, 470, 471, 1243, 1244, 1245, 1246, 1247, 1248, 1249,1250, 1251, 1252, 1253, 1254, 1255, 1256, 1257, 1258, 1259, 1260, 1261/1, 1261/2, 1262, 1263/1, 1263/2, 1264, 1265/1, 1265/2, 1266, 1267, 1268, 1280, 1313, 1314, 1316, 1317, 1318, 1319, 1320, 1321, 1322, 1323, 1324, 1325, 1326, 1327, 1328, 1329, 1330, 1331, 1332, 1333, 1334, 1335, 1336, 1337, 1338, 1339, 1340, 1341, 1342, 1343, 1344, 1353, 1354, 1355, 1356, 1357, 1358, 1359, 1360, 1361, 1362, 1363, 1364, 1365, 1366, 1367, 1368, 1369, 1370, 1371, 1372, 1373, 1374, 1375, 1376, 1377, 1378, 1379, 1380, 1381, 1382, 1383, 1384, 1385, 1386, 1387, 1388, 1389, 1390, 1391, 1392, 1393, 1394, 1395, 1396, 1397, 1398, 1399, 1400, 1401, 1402, 1403/1, 1403/2, 1403/3, 1403/4, 1403/5, 1403/6, 1403/7, 1404, 1405, 1406, 1407, 1408, 1412, 1413, 1414, 1415, 1416, 1417, 1418, 1419, 1420, 1421, 1422, 1423, 1424, 1425, 1426, 1427, 1428, 1429, 1430, 1431, 1432, 1433, 1434, 1435, 1436, 1437, 1438, 1440/1, 1440/2, 1441, 1442, 1443, 1444, 1445, 1446, 1447, 1448, 1419, 1450, 1451, 1452, 1453, 1454, 1455, 1456, 1457, 1458, 1459, 1460, 1461/1, 1461/2, 1462, 1463, 1464, 1465, 1466, 1467, 1468, 1469, 1470, 1471, 1472, 1473, 1474, 1475, 1476, 1477, 1478, 1479, 1480, 1481, 1482, 1483, 1484, 1485, 1486, 1487, 1488, 1489, 1490, 1491, 1492, 1493, 1494, 1495, 1496, 1497, 1498, 1499, 1501, 1502, 1503, 1504, 1505, 1506, 1507, 1508, 1509, 1510, 1511, 1512, 1513, 1514, 1515, 1516, 1517, 1518, 1519, 1520, 1521, 1522, 1523, 1524, 1526, 1527, 1528, 1529, 1530, 1531, 1532, 1533, 1534, 1535, 1536, 1537, 1538, 1539, 1540, 1541, 1542, 1543, 1544, 1545, 1546, 1547, 1548, 1549, 1550, 1551, 1552, 1553, 1554, 1555, 1556, 1557, 1558, 1559, 1560, 1561, 1562, 1563, 1564, 1565, 1566, 1567, 1568, 1569, 1570, 1571, 1572, 1573, 1574, 1575, 1576, 1577, 1578, 1579, 1580, 1581, 1582, 1583, 1584, 1585, 1586, 1587, 1588,1589, 1590, 1591, 1992, 1593,1594, 1595.</description>
		<styleUrl>#msn_ylw-pushpin</styleUrl>
		<Polygon>
			<tessellate>1</tessellate>
			<outerBoundaryIs>
				<LinearRing>
					<coordinates>
						73.6573947278409,17.51137332383939,0 73.65714636652501,17.51083120198081,0 73.65983377060044,17.50831525713306,0 73.66043069934527,17.5070946201386,0 73.66177676223766,17.50738779661445,0 73.66393835809507,17.50586837396141,0 73.66752712156909,17.50468851299731,0 73.6682956501563,17.50406410439181,0 73.67110945282624,17.50335464963729,0 73.67246211036837,17.50165869813328,0 73.67582281952227,17.50107308719861,0 73.68069786643362,17.50241699473932,0 73.6826788479311,17.50199254120651,0 73.68260078099146,17.50163525834361,0 73.68421765762439,17.50163468683694,0 73.69025895690149,17.50315762706187,0 73.69579950743569,17.50468590530325,0 73.7029893407319,17.50857737792906,0 73.70478240573792,17.51088291663643,0 73.70543675697434,17.51031460204121,0 73.70582953044187,17.50975309798604,0 73.7072388755667,17.51096898046715,0 73.70756184443269,17.5113453308601,0 73.70782165528624,17.51180676307408,0 73.70883425432069,17.51259669629271,0 73.71074057679898,17.51398942180914,0 73.71461309861635,17.51780637039714,0 73.71584558758819,17.51887069817187,0 73.7169759591408,17.52002254154926,0 73.71748359031318,17.52006916855873,0 73.71819494768211,17.51979449649538,0 73.71861196326083,17.51948250913851,0 73.71953801590003,17.520179143873,0 73.72025157007741,17.51995327904942,0 73.72092183145369,17.51967023265459,0 73.7211364871911,17.51973521853101,0 73.72119945874849,17.520424385847,0 73.72060785998045,17.52098696541024,0 73.72018364222583,17.52149091408164,0 73.72008685607177,17.52195535754177,0 73.72112699547201,17.52729340629355,0 73.72015323192089,17.52468994780481,0 73.71850576732437,17.52318172728016,0 73.71798750965843,17.52232666115179,0 73.71091930207396,17.52332759090106,0 73.71168928967489,17.5238769986659,0 73.71032982950676,17.52628884513189,0 73.68285390619319,17.52423824972331,0 73.68209822974752,17.52387907876303,0 73.68304542181207,17.522417095299,0 73.68281534313363,17.52226093111587,0 73.68278023895444,17.52196904533136,0 73.6832839007138,17.52023868974606,0 73.6832747991441,17.51956297695147,0 73.68409935535173,17.51917439154202,0 73.68480927000799,17.51905629610335,0 73.68565243193569,17.51873557274493,0 73.68765859914666,17.5185955999112,0 73.68997909538164,17.51871005109315,0 73.690556364627,17.51866243710844,0 73.690539226775,17.51854816903282,0 73.68775203530686,17.51842935467275,0 73.68694003452266,17.51848235134299,0 73.6865384606221,17.5177227801261,0 73.68668468854807,17.51765668046892,0 73.68670619756632,17.51749871917844,0 73.68541844521771,17.51739410371945,0 73.68517476579896,17.51790553120254,0 73.6852057473657,17.51814265323723,0 73.68508910092261,17.5181426829497,0 73.68457641811962,17.51761132556825,0 73.68418067651783,17.51751655500012,0 73.68411565461491,17.5170011974853,0 73.68246687062471,17.51577723305947,0 73.68122745716157,17.51742490183017,0 73.6792854658824,17.51769542860751,0 73.6785929090246,17.51800357761519,0 73.67780324663953,17.51865269390241,0 73.67744088938547,17.5184324182126,0 73.67694241553089,17.51774943495188,0 73.67709900544939,17.51743360302796,0 73.67795136296151,17.51628641131618,0 73.67869438519209,17.51559800912193,0 73.677608788892,17.51434568400194,0 73.67662950949466,17.51366259536782,0 73.67671190896499,17.51333966691939,0 73.67693022261186,17.51322533644334,0 73.6767088133017,17.51255198339358,0 73.67643703344346,17.512774383027,0 73.67614214231124,17.51228843511385,0 73.67536428711526,17.51196337044556,0 73.67399701774889,17.5130453090699,0 73.67393689413409,17.51164335585412,0 73.67349980899456,17.51089244842768,0 73.67303027227324,17.50793208920675,0 73.67238088997125,17.5073710467548,0 73.67212776414956,17.50697728603508,0 73.67119511654379,17.50359969228488,0 73.67201983486204,17.50737120648263,0 73.67276281096419,17.5079856507704,0 73.67318246209065,17.5109823511559,0 73.67346466889606,17.51135607195804,0 73.67349192996565,17.51185274932356,0 73.67106575749757,17.51229677876999,0 73.67106923462639,17.51286528611981,0 73.67122762660705,17.51285932931228,0 73.67119517619133,17.51378408673922,0 73.67157959353059,17.51385708237321,0 73.67153629113646,17.51390399097795,0 73.67029252958761,17.51419155486591,0 73.66955202912456,17.51417103634619,0 73.66836185564257,17.51402031317521,0 73.66603985100492,17.51426450796674,0 73.66565689220317,17.51347622199198,0 73.66401162889008,17.51517179633382,0 73.66449805013647,17.51591913376328,0 73.66351734767557,17.5177335230665,0 73.66328855343941,17.5176679549877,0 73.66107664160923,17.51928669273133,0 73.66130193098653,17.51451486857682,0 73.65972298703882,17.51262261808391,0 73.65946691817039,17.51302663079253,0 73.65826456705796,17.51168940067671,0 73.65794477985087,17.5119957095879,0 73.6573947278409,17.51137332383939,0 
					</coordinates>
				</LinearRing>
			</outerBoundaryIs>
		</Polygon>
	</Placemark>
</Document>
</kml>
