<?xml version="1.0" encoding="UTF-8"?>
<kml xmlns="http://www.opengis.net/kml/2.2" xmlns:gx="http://www.google.com/kml/ext/2.2" xmlns:globalmapper="https://www.bluemarblegeo.com/globalmapper">
<Document>
  <!-- Begin Style Definitions -->
  <Style id="line1">
    <LineStyle>
      <color>FF0000FF</color>
      <width>3</width>
    </LineStyle>
  </Style>
  <Folder>
    <name>Line Features</name>
    <description>Line Features</description>
    <Placemark>
      <description>Bathymetric Contour, Intermediate</description>
      <styleUrl>#line1</styleUrl>
      <LineString>
        <coordinates>
          80.340048773,19.583216017,0
          80.339234436,19.584023922,0
          80.336541731,19.586695275,0
          80.336238911,19.586995684,0
          80.335572484,19.587656803,0
          80.335433536,19.587794643,0
          80.332897662,19.590310237,0
          80.332852738,19.590354800,0
          80.332886275,19.590387763,0
          80.333032967,19.590536123,0
          80.333150816,19.590659809,0
          80.333246235,19.590770882,0
          80.333327277,19.590865220,0
          80.333347785,19.590889093,0
          80.333441369,19.591009716,0
          80.333452402,19.591024441,0
          80.333874905,19.591588354,0
          80.333926296,19.591656945,0
          80.334391539,19.592277897,0
          80.334395064,19.592282601,0
          80.334470846,19.592380133,0
          80.334616579,19.592567689,0
          80.334738327,19.592731893,0
          80.334801802,19.592821678,0
          80.334954560,19.593037752,0
          80.334964791,19.593052222,0
          80.335064830,19.593193725,0
          80.335220529,19.593397049,0
          80.335302885,19.593504595,0
          80.335366286,19.593587387,0
          80.335409533,19.593643861,0
          80.335464035,19.593715034,0
          80.335468776,19.593721235,0
          80.335653185,19.593962907,0
          80.335706161,19.594032334,0
          80.336053269,19.594487224,0
          80.336383584,19.594920103,0
          80.336507361,19.595084240,0
          80.336616938,19.595229549,0
          80.336653726,19.595278330,0
          80.336838751,19.595529994,0
          80.336899257,19.595612290,0
          80.337148946,19.595951904,0
          80.337311056,19.596149989,0
          80.337368358,19.596220007,0
          80.337853197,19.596812433,0
          80.337854001,19.596813415,0
          80.337934994,19.596912381,0
          80.337961330,19.596944863,0
          80.337980983,19.596969506,0
          80.338319907,19.597397519,0
          80.338480993,19.597613874,0
          80.338483741,19.597617983,0
          80.338541742,19.597704705,0
          80.338584354,19.597768419,0
          80.338804958,19.598113525,0
          80.338819377,19.598136730,0
          80.338865318,19.598210664,0
          80.339011320,19.598471958,0
          80.339054184,19.598562544,0
          80.339138978,19.598741741,0
          80.339160687,19.598792845,0
          80.339221327,19.598938143,0
          80.339296389,19.599117997,0
          80.339436576,19.599438610,0
          80.339443859,19.599455360,0
          80.339462354,19.599502482,0
          80.339552627,19.599732478,0
          80.339580172,19.599819749,0
          80.339642036,19.600015744,0
          80.339710749,19.600299307,0
          80.339728581,19.600385535,0
          80.339760232,19.600538583,0
          80.339761188,19.600543221,0
          80.339810819,19.600835124,0
          80.339816777,19.600881209,0
          80.339855856,19.601196958,0
          80.339879279,19.601445226,0
          80.339888281,19.601740771,0
          80.339887272,19.601988152,0
          80.339886253,19.602238080,0
          80.339875395,19.602525857,0
          80.339859341,19.602750547,0
          80.339858785,19.602758240,0
          80.339838380,19.602966717,0
          80.339802992,19.603255390,0
          80.339791616,19.603341042,0
          80.339772029,19.603450827,0
          80.339712331,19.603717438,0
          80.339665439,19.603926860,0
          80.339608335,19.604150247,0
          80.339271656,19.605467291,0
          80.338945844,19.606216835,0
          80.338533592,19.606789765,0
          80.338513470,19.606817728,0
          80.338445869,19.606882925,0
          80.338406875,19.606920532,0
          80.338309884,19.607014074,0
          80.338135675,19.607182087,0
          80.338095512,19.607220821,0
          80.337813338,19.607492955,0
          80.337786317,19.607523572,0
          80.337761287,19.607551933,0
          80.337737420,19.607578975,0
          80.337598551,19.607736323,0
          80.337557260,19.607810877,0
          80.337186061,19.608481096,0
          80.337146303,19.608552881,0
          80.337137002,19.608572748,0
          80.337046756,19.608754498,0
          80.337016798,19.608810162,0
          80.337005173,19.608831762,0
          80.336930590,19.608967114,0
          80.336875238,19.609087591,0
          80.336855240,19.609131118,0
          80.336751676,19.609341583,0
          80.336672885,19.609485025,0
          80.336646971,19.609530209,0
          80.336628749,19.609561982,0
          80.336522738,19.609746826,0
          80.336426844,19.609938740,0
          80.336385575,19.610019262,0
          80.336373823,19.610041471,0
          80.336325237,19.610132668,0
          80.336104303,19.610547358,0
          80.335971286,19.610779852,0
          80.335661393,19.611285589,0
          80.335658012,19.611291096,0
          80.335531072,19.611486051,0
          80.335307707,19.611810394,0
          80.335268856,19.611865912,0
          80.335227242,19.611920492,0
          80.335086130,19.612105572,0
          80.334989833,19.612215884,0
          80.334391529,19.612910764,0
          80.333071301,19.614444067,0
          80.332925841,19.614613001,0
          80.332926923,19.614613889,0
          80.335630392,19.616832258,0
          80.335648223,19.616846890,0
          80.335649162,19.616847661,0
          80.335686999,19.616808322,0
          80.335848765,19.616640138,0
          80.338489011,19.613895075,0
          80.338812612,19.613488311,0
          80.338838679,19.613455545,0
          80.338969221,19.613189993,0
          80.339029084,19.613068219,0
          80.339193685,19.612733384,0
          80.339371056,19.612612329,0
          80.339402735,19.612590709,0
          80.339413504,19.612585260,0
          80.340000068,19.612288443,0
          80.340281019,19.612118234,0
          80.340674163,19.611880053,0
          80.342161749,19.610978805,0
          80.342221726,19.610942468,0
          80.343520686,19.609893912,0
          80.343621364,19.609812641,0
          80.343731707,19.609721672,0
          80.343903586,19.609579971,0
          80.344919652,19.608742295,0
          80.346286897,19.608107272,0
          80.348343463,19.607819630,0
          80.350575674,19.606492752,0
          80.351259957,19.605834725,0
          80.352323257,19.604812207,0
          80.352529323,19.604546950,0
          80.352678504,19.604610835,0
          80.352679301,19.604382859,0
          80.352830735,19.603892547,0
          80.352836093,19.603875197,0
          80.352846414,19.603841778,0
          80.352951141,19.603502687,0
          80.352949354,19.603502230,0
          80.352954499,19.603485453,0
          80.352969699,19.603457509,0
          80.353003769,19.603394872,0
          80.353025987,19.603354026,0
          80.353205765,19.603023512,0
          80.353362210,19.602735894,0
          80.353468530,19.602582004,0
          80.353853719,19.602024471,0
          80.354291338,19.601546591,0
          80.354389639,19.601439246,0
          80.354511236,19.601306460,0
          80.354607070,19.601208406,0
          80.355143016,19.600660038,0
          80.355275909,19.600541781,0
          80.355307599,19.600513581,0
          80.355760583,19.600110484,0
          80.356078525,19.599893994,0
          80.356576210,19.599555113,0
          80.356850629,19.599420078,0
          80.357375430,19.599161834,0
          80.358216558,19.598763392,0
          80.358935619,19.598313977,0
          80.359008369,19.598251095,0
          80.359583760,19.597753746,0
          80.359665277,19.597683286,0
          80.360314077,19.597098809,0
          80.360926451,19.596618908,0
          80.361032131,19.596536089,0
          80.361030209,19.596469702,0
          80.361030986,19.596469027,0
          80.361031232,19.596468813,0
          80.361031270,19.596468780,0
          80.361032482,19.596467730,0
          80.361033475,19.596466868,0
          80.361037288,19.596463559,0
          80.361029429,19.596442740,0
          80.360808624,19.595745424,0
          80.360415835,19.594971347,0
          80.360415784,19.594971235,0
          80.360220772,19.594575725,0
          80.360049840,19.594229050,0
          80.360038413,19.594205873,0
          80.359576697,19.593410540,0
          80.359506585,19.593331655,0
          80.358883825,19.592556085,0
          80.358596360,19.592066624,0
          80.358544362,19.591978087,0
          80.358526727,19.591934474,0
          80.358228382,19.591196606,0
          80.357806132,19.590358725,0
          80.357767012,19.590255563,0
          80.357573919,19.589746348,0
          80.357457546,19.589841962,0
          80.357279952,19.589987879,0
          80.357256101,19.590007475,0
          80.356987663,19.590225062,0
          80.356912980,19.590272704,0
          80.356752386,19.590375150,0
          80.356421127,19.590586466,0
          80.356264728,19.590631688,0
          80.356209863,19.590647552,0
          80.355961927,19.590257350,0
          80.355776443,19.589973876,0
          80.355745930,19.589927243,0
          80.355617332,19.589730705,0
          80.355375927,19.589361764,0
          80.354810504,19.588497615,0
          80.354771812,19.588438479,0
          80.354710492,19.588344762,0
          80.353987774,19.587240196,0
          80.353958621,19.587195640,0
          80.353615980,19.586671959,0
          80.353598484,19.586672149,0
          80.353283559,19.586675567,0
          80.353221306,19.586676243,0
          80.353217133,19.586676683,0
          80.353096772,19.586688189,0
          80.353055247,19.586692158,0
          80.352954701,19.586701770,0
          80.352889567,19.586707996,0
          80.352863981,19.586709620,0
          80.352586880,19.586718351,0
          80.352461169,19.586722312,0
          80.352403754,19.586725814,0
          80.352364034,19.586728238,0
          80.352354128,19.586728842,0
          80.352324174,19.586730670,0
          80.352134001,19.586742273,0
          80.352108055,19.586743017,0
          80.352074144,19.586741463,0
          80.352002649,19.586735154,0
          80.351993828,19.586734376,0
          80.351982770,19.586733400,0
          80.351906910,19.586726705,0
          80.351862310,19.586722770,0
          80.351841960,19.586720450,0
          80.351829966,19.586718586,0
          80.351603259,19.586679827,0
          80.351516929,19.586665067,0
          80.351447322,19.586653167,0
          80.351348095,19.586637786,0
          80.351105611,19.586600197,0
          80.351001129,19.586584000,0
          80.350577664,19.586520006,0
          80.350499471,19.586508189,0
          80.350491344,19.586506961,0
          80.350460400,19.586501031,0
          80.350349403,19.586475183,0
          80.350255129,19.586453231,0
          80.350024690,19.586399570,0
          80.349962764,19.586391056,0
          80.349823393,19.586371893,0
          80.349720338,19.586357724,0
          80.349703161,19.586355248,0
          80.349480941,19.586323230,0
          80.349412610,19.586313385,0
          80.349383541,19.586308094,0
          80.349118892,19.586249757,0
          80.349096447,19.586244121,0
          80.349087806,19.586241576,0
          80.348988422,19.586211077,0
          80.348807898,19.586155678,0
          80.348721204,19.586129073,0
          80.348682468,19.586114935,0
          80.348674592,19.586111583,0
          80.348476712,19.586027362,0
          80.348469214,19.586024039,0
          80.348236239,19.585917696,0
          80.348104464,19.585868407,0
          80.347959151,19.585814055,0
          80.347898158,19.585798403,0
          80.347707056,19.585749363,0
          80.347442887,19.585697214,0
          80.347367508,19.585682335,0
          80.347192638,19.585648791,0
          80.347047274,19.585620908,0
          80.346897068,19.585592096,0
          80.346597067,19.585542307,0
          80.346482269,19.585523255,0
          80.346471223,19.585521262,0
          80.346301306,19.585488139,0
          80.346277568,19.585483512,0
          80.346186267,19.585465714,0
          80.346019787,19.585433260,0
          80.345640205,19.585356277,0
          80.345624802,19.585352835,0
          80.345613630,19.585350106,0
          80.345371523,19.585290947,0
          80.345357886,19.585287358,0
          80.345305553,19.585268521,0
          80.345194244,19.585218801,0
          80.345134157,19.585191961,0
          80.345106275,19.585178145,0
          80.344988630,19.585113862,0
          80.344877578,19.585053181,0
          80.344684017,19.584960574,0
          80.344652872,19.584945672,0
          80.344628148,19.584932733,0
          80.344528751,19.584876061,0
          80.344244125,19.584713780,0
          80.344214987,19.584697167,0
          80.344009799,19.584577489,0
          80.343998378,19.584570828,0
          80.343692121,19.584410806,0
          80.343598563,19.584361922,0
          80.343590838,19.584357773,0
          80.343385251,19.584244359,0
          80.343321371,19.584209119,0
          80.343147314,19.584144077,0
          80.342913776,19.584087056,0
          80.342817016,19.584069708,0
          80.342724114,19.584053052,0
          80.342518228,19.584016139,0
          80.342185055,19.583957466,0
          80.341760530,19.583880421,0
          80.341723402,19.583871836,0
          80.341691107,19.583861205,0
          80.341441747,19.583767047,0
          80.341429078,19.583762011,0
          80.341075409,19.583614264,0
          80.341073372,19.583613413,0
          80.340669416,19.583443047,0
          80.340369786,19.583333443,0
          80.340048773,19.583216017,0
        </coordinates>
      </LineString>
    </Placemark>
    <Placemark>
      <description>Bathymetric Contour, Intermediate</description>
      <styleUrl>#line1</styleUrl>
      <LineString>
        <coordinates>
          80.343714158,19.612001985,0
          80.344142824,19.612402429,0
          80.344601018,19.612830454,0
          80.345064199,19.613263136,0
          80.343812964,19.615128973,0
          80.343065198,19.616244013,0
          80.342428928,19.617192780,0
          80.341065927,19.619163052,0
          80.340222726,19.620381904,0
          80.340155050,19.620479727,0
          80.340326007,19.622553637,0
          80.340331215,19.622616810,0
          80.340376491,19.623166059,0
          80.340378031,19.623166922,0
          80.340425924,19.623721439,0
          80.342888718,19.625173793,0
          80.342946143,19.625207657,0
          80.343231349,19.624763761,0
          80.343488334,19.624385513,0
          80.343608008,19.624209367,0
          80.344763959,19.622507920,0
          80.344988424,19.622177525,0
          80.345462050,19.621480376,0
          80.345979770,19.620700143,0
          80.346320967,19.620185932,0
          80.347219390,19.618831920,0
          80.347598949,19.618259880,0
          80.348172689,19.617395175,0
          80.348173032,19.617394658,0
          80.348559907,19.616811578,0
          80.348731888,19.616552375,0
          80.348797770,19.616453079,0
          80.349013159,19.616128451,0
          80.349574382,19.615282584,0
          80.349708224,19.615080858,0
          80.350465492,19.613939494,0
          80.350545073,19.613819546,0
          80.351255718,19.612748433,0
          80.351394569,19.612539148,0
          80.351820190,19.611897625,0
          80.352147657,19.611388409,0
          80.352232298,19.611256790,0
          80.353032130,19.610013021,0
          80.353097476,19.609911404,0
          80.353676888,19.609010380,0
          80.353704668,19.608967180,0
          80.353841045,19.608755104,0
          80.353879620,19.608695116,0
          80.353433685,19.608162027,0
          80.353389545,19.608150805,0
          80.353244293,19.608113878,0
          80.352812066,19.608003992,0
          80.352794832,19.607999176,0
          80.352792496,19.607998523,0
          80.352047212,19.607790222,0
          80.351715063,19.607761761,0
          80.351473556,19.607786118,0
          80.351172846,19.607816446,0
          80.351162024,19.607818394,0
          80.350117676,19.608819312,0
          80.350108332,19.608819302,0
          80.349974048,19.608819153,0
          80.349811655,19.608818971,0
          80.349831760,19.608859157,0
          80.349895746,19.608987043,0
          80.349958868,19.609113202,0
          80.349750152,19.609650621,0
          80.349064217,19.609780508,0
          80.348189849,19.608438663,0
          80.348111745,19.608318799,0
          80.348074818,19.608323507,0
          80.347967647,19.608337168,0
          80.346914379,19.608471425,0
          80.346745185,19.608489799,0
          80.346307116,19.608537370,0
          80.346234664,19.608579224,0
          80.345914839,19.608763981,0
          80.345663721,19.608847287,0
          80.344815674,19.609441706,0
          80.344622384,19.609613733,0
          80.343972145,19.610062300,0
          80.343630549,19.610367309,0
          80.343714158,19.612001985,0
        </coordinates>
      </LineString>
    </Placemark>
    <Placemark>
      <description>Bathymetric Contour, Intermediate</description>
      <styleUrl>#line1</styleUrl>
      <LineString>
        <coordinates>
          80.353419259,19.604758042,0
          80.353400804,19.605109030,0
          80.353398887,19.605251159,0
          80.353444565,19.605343671,0
          80.353446003,19.605346582,0
          80.353559620,19.605574577,0
          80.353660150,19.605635649,0
          80.353743690,19.605686400,0
          80.353920649,19.605793903,0
          80.353966931,19.605822020,0
          80.354021511,19.605855177,0
          80.354150976,19.605933827,0
          80.354227892,19.605980553,0
          80.354380237,19.606073101,0
          80.354472528,19.606129168,0
          80.354609439,19.606212341,0
          80.354681292,19.606255991,0
          80.354811087,19.606334840,0
          80.354873834,19.606365536,0
          80.354926909,19.606391499,0
          80.355129673,19.606490687,0
          80.355213479,19.606531683,0
          80.355472177,19.606658233,0
          80.355481283,19.606662687,0
          80.355805285,19.606821182,0
          80.355843428,19.606839841,0
          80.356102423,19.606966534,0
          80.356163869,19.606996592,0
          80.356416182,19.607120017,0
          80.356453573,19.607138307,0
          80.356680455,19.607249291,0
          80.356752186,19.607284378,0
          80.356903008,19.607358156,0
          80.357014445,19.607412667,0
          80.357025276,19.607424723,0
          80.357097701,19.607505328,0
          80.357116499,19.607526249,0
          80.357116532,19.607526285,0
          80.357132164,19.607543683,0
          80.357249723,19.607674521,0
          80.357294502,19.607724357,0
          80.357295105,19.607725028,0
          80.357891933,19.608389263,0
          80.357925023,19.608426091,0
          80.358047591,19.608680087,0
          80.358218815,19.608632775,0
          80.358536927,19.608544873,0
          80.358568272,19.608536213,0
          80.358873307,19.608474294,0
          80.358966819,19.608455312,0
          80.359293024,19.608449397,0
          80.359308924,19.608459884,0
          80.359360405,19.608493839,0
          80.359737207,19.608742363,0
          80.360258048,19.609144634,0
          80.360553026,19.609372457,0
          80.360624908,19.609429910,0
          80.360781599,19.609555147,0
          80.361202597,19.609891636,0
          80.361217462,19.609903515,0
          80.361489601,19.610114211,0
          80.361869611,19.610403456,0
          80.361869769,19.610403248,0
          80.361930435,19.610323477,0
          80.361953355,19.610293338,0
          80.361869726,19.610403544,0
          80.362247663,19.610685434,0
          80.362297405,19.610712537,0
          80.363091218,19.610729529,0
          80.363095642,19.610729623,0
          80.363156750,19.610735091,0
          80.363443427,19.610760746,0
          80.363893039,19.610800980,0
          80.364442468,19.610849939,0
          80.364692199,19.610872190,0
          80.364692251,19.610872206,0
          80.365396268,19.611094672,0
          80.365621561,19.611109654,0
          80.365741263,19.611136282,0
          80.365809564,19.611151475,0
          80.365996901,19.611193148,0
          80.366347703,19.611271181,0
          80.366419755,19.611287209,0
          80.366553921,19.611317053,0
          80.367041529,19.611425516,0
          80.367225529,19.611466445,0
          80.367453141,19.611517075,0
          80.367520173,19.611531985,0
          80.367876771,19.611611304,0
          80.368352488,19.611717118,0
          80.368425163,19.611729491,0
          80.368662540,19.611769900,0
          80.369310549,19.611880209,0
          80.369370100,19.611890346,0
          80.369729190,19.611951473,0
          80.369763824,19.611942553,0
          80.370103736,19.611855004,0
          80.370390463,19.611781153,0
          80.371751247,19.611430658,0
          80.372449301,19.611250856,0
          80.372658348,19.611231446,0
          80.373789549,19.611126408,0
          80.374272639,19.610948499,0
          80.375063004,19.610657422,0
          80.375290574,19.610414599,0
          80.375572243,19.610114050,0
          80.376003684,19.609905225,0
          80.376558085,19.609636883,0
          80.377143939,19.609052776,0
          80.377447097,19.608750522,0
          80.377718529,19.608439036,0
          80.378108119,19.607991956,0
          80.378252119,19.607887426,0
          80.378677807,19.607578419,0
          80.379859828,19.607035056,0
          80.380133646,19.606909184,0
          80.380179075,19.606645986,0
          80.380315070,19.605858081,0
          80.380339900,19.605714227,0
          80.380385709,19.605448826,0
          80.380530061,19.604612488,0
          80.380781911,19.603153322,0
          80.380822435,19.602796762,0
          80.380946429,19.601705774,0
          80.382170835,19.600991251,0
          80.382161547,19.600575578,0
          80.382154385,19.600254961,0
          80.382146563,19.599904890,0
          80.382138513,19.599544609,0
          80.382057632,19.598833252,0
          80.382050561,19.598771074,0
          80.381978378,19.598287509,0
          80.381854726,19.597865587,0
          80.381817431,19.597738333,0
          80.381066406,19.596277310,0
          80.380929953,19.596011851,0
          80.380763164,19.596014480,0
          80.380216935,19.596023089,0
          80.371614439,19.596158450,0
          80.371540425,19.596262238,0
          80.371483793,19.596341651,0
          80.371352110,19.596526307,0
          80.371318962,19.596572788,0
          80.371274709,19.596653406,0
          80.371223771,19.596746199,0
          80.371184928,19.596816959,0
          80.371016092,19.597124521,0
          80.370669466,19.597509690,0
          80.370539127,19.597502407,0
          80.369902675,19.597466842,0
          80.369899937,19.597695765,0
          80.369899084,19.597767135,0
          80.370156005,19.597873235,0
          80.370160054,19.597890816,0
          80.370245261,19.598260822,0
          80.370286662,19.598440599,0
          80.370290426,19.598456944,0
          80.370451616,19.599156896,0
          80.370180197,19.599209744,0
          80.370084692,19.599915499,0
          80.369733669,19.600028247,0
          80.369616356,19.600065927,0
          80.368336528,19.600246506,0
          80.368170307,19.600559377,0
          80.367269871,19.600495249,0
          80.367252505,19.600097094,0
          80.367055706,19.600099989,0
          80.365105183,19.600498396,0
          80.364943119,19.600011430,0
          80.364818502,19.599636979,0
          80.364764218,19.599473866,0
          80.364501618,19.599381458,0
          80.363968078,19.599193706,0
          80.363001764,19.599075528,0
          80.362164533,19.598468134,0
          80.361601016,19.598571341,0
          80.361429443,19.598420828,0
          80.360792300,19.598404248,0
          80.360610215,19.598375312,0
          80.360401969,19.598342217,0
          80.360234459,19.598315596,0
          80.360183898,19.598325532,0
          80.360105411,19.598558970,0
          80.359696565,19.599774957,0
          80.360084826,19.599975015,0
          80.360145524,19.600001447,0
          80.360161592,19.600008388,0
          80.360192513,19.600025918,0
          80.360509697,19.600205724,0
          80.360540029,19.600191486,0
          80.360602797,19.600253144,0
          80.360889360,19.600534631,0
          80.361533217,19.600405411,0
          80.361778518,19.600898816,0
          80.362437606,19.601304206,0
          80.362802873,19.601528871,0
          80.363365718,19.601471086,0
          80.363544195,19.601636693,0
          80.363367800,19.602224244,0
          80.364065551,19.602506449,0
          80.364401783,19.602976263,0
          80.364580983,19.603600933,0
          80.364293875,19.603470809,0
          80.363809840,19.603074937,0
          80.363697846,19.602983342,0
          80.363476208,19.602847365,0
          80.363219637,19.602689957,0
          80.362902035,19.602455715,0
          80.362473651,19.602399247,0
          80.362128953,19.603075525,0
          80.361634210,19.602177166,0
          80.361037781,19.602096514,0
          80.360179512,19.603709747,0
          80.360137587,19.603592920,0
          80.360021530,19.603338111,0
          80.360041803,19.603315230,0
          80.359894223,19.603186832,0
          80.359716348,19.603032080,0
          80.359598955,19.602929946,0
          80.359548066,19.602885672,0
          80.359484503,19.602830371,0
          80.359249292,19.602625732,0
          80.358604990,19.602730162,0
          80.358267734,19.602784824,0
          80.358199537,19.602795803,0
          80.357848702,19.602704653,0
          80.357521708,19.602709225,0
          80.357490760,19.602718096,0
          80.357244876,19.602788575,0
          80.357178133,19.602822766,0
          80.356325251,19.603204565,0
          80.356186455,19.603198179,0
          80.355480211,19.603165680,0
          80.355262585,19.603170879,0
          80.355097160,19.603177871,0
          80.355067021,19.603179145,0
          80.354704290,19.603192790,0
          80.354569339,19.603198676,0
          80.354388735,19.603206552,0
          80.354328623,19.603209174,0
          80.353937121,19.603226247,0
          80.353876062,19.603333079,0
          80.353859515,19.603364545,0
          80.353657133,19.603749406,0
          80.353487043,19.604331473,0
          80.353430357,19.604525459,0
          80.353423936,19.604669091,0
          80.353419259,19.604758042,0
        </coordinates>
      </LineString>
    </Placemark>
    <Placemark>
      <description>Bathymetric Contour, Intermediate</description>
      <styleUrl>#line1</styleUrl>
      <LineString>
        <coordinates>
          80.354476030,19.601555729,0
          80.354590691,19.601587819,0
          80.354627325,19.601598071,0
          80.354778065,19.601594420,0
          80.354820462,19.601593393,0
          80.354845421,19.601592789,0
          80.355653302,19.601573218,0
          80.355654422,19.601573207,0
          80.355656132,19.601573249,0
          80.355657840,19.601573365,0
          80.355659540,19.601573553,0
          80.355661230,19.601573812,0
          80.355662905,19.601574143,0
          80.355664563,19.601574546,0
          80.355666201,19.601575018,0
          80.355667815,19.601575559,0
          80.355669369,19.601576156,0
          80.355988017,19.601706254,0
          80.356493981,19.601731119,0
          80.356505855,19.601731702,0
          80.356507460,19.601731814,0
          80.356957042,19.601772165,0
          80.357540382,19.600985719,0
          80.357540813,19.600985149,0
          80.357541855,19.600983862,0
          80.357542957,19.600982621,0
          80.357544116,19.600981428,0
          80.357544419,19.600981134,0
          80.358109188,19.600438010,0
          80.358110101,19.600437161,0
          80.358111368,19.600436071,0
          80.358112686,19.600435036,0
          80.358114052,19.600434058,0
          80.358115462,19.600433140,0
          80.358116915,19.600432282,0
          80.358118407,19.600431487,0
          80.358119935,19.600430756,0
          80.358121496,19.600430090,0
          80.358123087,19.600429492,0
          80.358124704,19.600428962,0
          80.358126346,19.600428501,0
          80.358128007,19.600428110,0
          80.358129685,19.600427791,0
          80.358131377,19.600427544,0
          80.358133079,19.600427369,0
          80.358134787,19.600427265,0
          80.358135345,19.600427255,0
          80.358133775,19.600424911,0
          80.357930532,19.600121337,0
          80.357841436,19.599988258,0
          80.357749303,19.599850642,0
          80.357734612,19.599828700,0
          80.357734002,19.599827758,0
          80.357733163,19.599826343,0
          80.357732392,19.599824895,0
          80.357731690,19.599823416,0
          80.357731059,19.599821909,0
          80.357730500,19.599820375,0
          80.357730013,19.599818820,0
          80.357729601,19.599817245,0
          80.357729264,19.599815655,0
          80.357729003,19.599814052,0
          80.357728818,19.599812439,0
          80.357728709,19.599810820,0
          80.357728677,19.599809199,0
          80.357728721,19.599807577,0
          80.357728843,19.599805959,0
          80.357729041,19.599804348,0
          80.357729316,19.599802746,0
          80.357729665,19.599801159,0
          80.357730089,19.599799587,0
          80.357730588,19.599798036,0
          80.357731160,19.599796507,0
          80.357731803,19.599795004,0
          80.357732516,19.599793529,0
          80.357733299,19.599792087,0
          80.357734149,19.599790679,0
          80.357735065,19.599789309,0
          80.357736045,19.599787978,0
          80.357737088,19.599786692,0
          80.357738189,19.599785450,0
          80.357739349,19.599784257,0
          80.357740563,19.599783115,0
          80.357741831,19.599782025,0
          80.357743149,19.599780989,0
          80.357744516,19.599780012,0
          80.357745926,19.599779093,0
          80.357747379,19.599778236,0
          80.357748870,19.599777440,0
          80.357750399,19.599776709,0
          80.357751959,19.599776043,0
          80.357753550,19.599775445,0
          80.357755168,19.599774915,0
          80.357756809,19.599774455,0
          80.357758470,19.599774064,0
          80.357760149,19.599773745,0
          80.357761172,19.599773587,0
          80.358737172,19.599635141,0
          80.358754868,19.599542796,0
          80.358910478,19.598730754,0
          80.358910502,19.598730625,0
          80.358910565,19.598730316,0
          80.358963231,19.598473536,0
          80.358290150,19.598895682,0
          80.358289992,19.598895779,0
          80.358288540,19.598896637,0
          80.358287048,19.598897433,0
          80.358286342,19.598897781,0
          80.357446725,19.599301000,0
          80.357446016,19.599301345,0
          80.357445965,19.599301369,0
          80.357445197,19.599301732,0
          80.356649279,19.599682543,0
          80.356579113,19.599729804,0
          80.356524305,19.599766851,0
          80.356433693,19.599828100,0
          80.355861373,19.600214955,0
          80.355237856,19.600813520,0
          80.354769835,19.601262079,0
          80.354617484,19.601408092,0
          80.354600483,19.601425869,0
          80.354586779,19.601440371,0
          80.354476030,19.601555729,0
        </coordinates>
      </LineString>
    </Placemark>
    <Placemark>
      <description>Bathymetric Contour, Intermediate</description>
      <styleUrl>#line1</styleUrl>
      <LineString>
        <coordinates>
          80.359115146,19.598316775,0
          80.359771405,19.598088489,0
          80.359935281,19.598031483,0
          80.360068888,19.597985007,0
          80.360265706,19.597829426,0
          80.360331073,19.597777755,0
          80.360619942,19.597549409,0
          80.360633708,19.597538527,0
          80.361080462,19.597185372,0
          80.361196515,19.597108995,0
          80.361270333,19.597060413,0
          80.361520585,19.596895714,0
          80.361771251,19.596667071,0
          80.361825246,19.596648356,0
          80.362208304,19.596515596,0
          80.361887729,19.596263395,0
          80.361769396,19.596170300,0
          80.361700777,19.596219902,0
          80.361427831,19.596417201,0
          80.361334246,19.596479461,0
          80.361134067,19.596585363,0
          80.360961078,19.596751931,0
          80.360900929,19.596809847,0
          80.360718250,19.596918460,0
          80.360630217,19.596970801,0
          80.360462780,19.597120884,0
          80.360401222,19.597176061,0
          80.360300982,19.597267057,0
          80.360271297,19.597294005,0
          80.359832848,19.597692015,0
          80.359743735,19.597772910,0
          80.359115146,19.598316775,0
        </coordinates>
      </LineString>
    </Placemark>
    <Placemark>
      <description>Bathymetric Contour, Intermediate</description>
      <styleUrl>#line1</styleUrl>
      <LineString>
        <coordinates>
          80.343982958,19.585019478,0
          80.343693596,19.585192405,0
          80.342941088,19.585642114,0
          80.343025093,19.586077573,0
          80.343629117,19.586428851,0
          80.344073261,19.586392213,0
          80.343990147,19.585128772,0
          80.343982958,19.585019478,0
        </coordinates>
      </LineString>
    </Placemark>
    <Placemark>
      <description>Bathymetric Contour, Intermediate</description>
      <styleUrl>#line1</styleUrl>
      <LineString>
        <coordinates>
          80.345909750,19.585777236,0
          80.346073311,19.586504678,0
          80.346981395,19.586527096,0
          80.347229927,19.586202827,0
          80.346978605,19.585967604,0
          80.346872807,19.585928966,0
          80.346628153,19.585706989,0
          80.346604751,19.585681194,0
          80.346598596,19.585680172,0
          80.346470648,19.585564084,0
          80.346343224,19.585612507,0
          80.346304631,19.585627173,0
          80.345909750,19.585777236,0
        </coordinates>
      </LineString>
    </Placemark>
    <Placemark>
      <description>Bathymetric Contour, Intermediate</description>
      <styleUrl>#line1</styleUrl>
      <LineString>
        <coordinates>
          80.344328503,19.586675873,0
          80.344118326,19.587183186,0
          80.344599231,19.587195918,0
          80.344610436,19.588697251,0
          80.344749354,19.588655914,0
          80.345040214,19.588471672,0
          80.345476538,19.588186343,0
          80.345672700,19.588025666,0
          80.345647841,19.587892659,0
          80.345611263,19.587696939,0
          80.345617273,19.587630305,0
          80.345637673,19.587404144,0
          80.345629745,19.587403946,0
          80.345921945,19.587213646,0
          80.344722248,19.587213374,0
          80.344598167,19.587053428,0
          80.344396666,19.586771307,0
          80.344328503,19.586675873,0
        </coordinates>
      </LineString>
    </Placemark>
    <Placemark>
      <description>Bathymetric Contour, Intermediate</description>
      <styleUrl>#line1</styleUrl>
      <LineString>
        <coordinates>
          80.346119365,19.587826704,0
          80.346503485,19.588287159,0
          80.346243593,19.588924601,0
          80.346235649,19.589017820,0
          80.346120794,19.589347354,0
          80.347423353,19.589144060,0
          80.347607212,19.588592416,0
          80.347857855,19.588370965,0
          80.348207229,19.588063794,0
          80.348117394,19.587819593,0
          80.347657677,19.587337349,0
          80.347589708,19.587301239,0
          80.347484218,19.587186092,0
          80.346968464,19.587463966,0
          80.346468191,19.587655821,0
          80.346288668,19.587743766,0
          80.346119365,19.587826704,0
        </coordinates>
      </LineString>
    </Placemark>
    <Placemark>
      <description>Bathymetric Contour, Intermediate</description>
      <styleUrl>#line1</styleUrl>
      <LineString>
        <coordinates>
          80.340618061,19.589517014,0
          80.340061660,19.589859275,0
          80.339959427,19.590184069,0
          80.339766686,19.590432022,0
          80.339685413,19.590565617,0
          80.339563698,19.590718192,0
          80.339168513,19.591118424,0
          80.341166404,19.591154427,0
          80.341914961,19.590707662,0
          80.341948304,19.589952244,0
          80.341090073,19.590073439,0
          80.340919384,19.589862412,0
          80.340618061,19.589517014,0
        </coordinates>
      </LineString>
    </Placemark>
    <Placemark>
      <description>Bathymetric Contour, Intermediate</description>
      <styleUrl>#line1</styleUrl>
      <LineString>
        <coordinates>
          80.336933516,19.593717306,0
          80.336918596,19.595139468,0
          80.336916961,19.595295270,0
          80.337354526,19.595264714,0
          80.338087894,19.595213500,0
          80.338414642,19.594277448,0
          80.338415775,19.594000103,0
          80.336933516,19.593717306,0
        </coordinates>
      </LineString>
    </Placemark>
    <Placemark>
      <description>Bathymetric Contour, Intermediate</description>
      <styleUrl>#line1</styleUrl>
      <LineString>
        <coordinates>
          80.344530542,19.594149936,0
          80.344544895,19.594343655,0
          80.345399309,19.594547599,0
          80.345731970,19.594634880,0
          80.345652402,19.595595753,0
          80.345902015,19.595632523,0
          80.346329186,19.595822360,0
          80.347114280,19.596327305,0
          80.348370588,19.596346196,0
          80.348484750,19.596188806,0
          80.348221268,19.595836384,0
          80.348246226,19.595276992,0
          80.348013685,19.594759706,0
          80.348086143,19.594542990,0
          80.348171272,19.594077062,0
          80.348386275,19.593310345,0
          80.347213011,19.593349137,0
          80.345939794,19.593774893,0
          80.345457572,19.593903228,0
          80.344530542,19.594149936,0
        </coordinates>
      </LineString>
    </Placemark>
    <Placemark>
      <description>Bathymetric Contour, Intermediate</description>
      <styleUrl>#line1</styleUrl>
      <LineString>
        <coordinates>
          80.353396861,19.588620302,0
          80.353251836,19.588928215,0
          80.353220991,19.589071562,0
          80.352984602,19.589515431,0
          80.352989591,19.590161006,0
          80.353002377,19.590749225,0
          80.353206060,19.590914932,0
          80.353702747,19.589726019,0
          80.354137083,19.588723624,0
          80.353396861,19.588620302,0
        </coordinates>
      </LineString>
    </Placemark>
    <Placemark>
      <description>Bathymetric Contour, Intermediate</description>
      <styleUrl>#line1</styleUrl>
      <LineString>
        <coordinates>
          80.337854001,19.596813415,0
          80.337934994,19.596912381,0
          80.337961330,19.596944863,0
          80.337980983,19.596969506,0
          80.338319907,19.597397519,0
          80.338480993,19.597613874,0
          80.338483741,19.597617983,0
          80.338541742,19.597704705,0
          80.338718813,19.597717158,0
          80.339323927,19.597759711,0
          80.339845746,19.597862043,0
          80.340186067,19.597927845,0
          80.340461661,19.597161359,0
          80.340000099,19.597130978,0
          80.339341728,19.597107048,0
          80.339339184,19.597200338,0
          80.337943787,19.596556783,0
          80.337908207,19.596658480,0
          80.337854001,19.596813415,0
        </coordinates>
      </LineString>
    </Placemark>
    <Placemark>
      <description>Bathymetric Contour, Intermediate</description>
      <styleUrl>#line1</styleUrl>
      <LineString>
        <coordinates>
          80.345725498,19.604945608,0
          80.345194298,19.605284388,0
          80.344979677,19.605325449,0
          80.344594877,19.605336005,0
          80.344357628,19.606291520,0
          80.345618222,19.606517265,0
          80.345732409,19.606356291,0
          80.345691254,19.605614949,0
          80.345975836,19.605430683,0
          80.345854800,19.605196154,0
          80.345725498,19.604945608,0
        </coordinates>
      </LineString>
    </Placemark>
    <Placemark>
      <description>Bathymetric Contour, Intermediate</description>
      <styleUrl>#line1</styleUrl>
      <LineString>
        <coordinates>
          80.347877017,19.598076037,0
          80.347814471,19.598322754,0
          80.348056462,19.598373840,0
          80.348140684,19.598133854,0
          80.348314732,19.598141657,0
          80.348493878,19.597823112,0
          80.349088527,19.597696150,0
          80.349216399,19.597893865,0
          80.349364105,19.597832114,0
          80.349300903,19.597672551,0
          80.351019688,19.598008129,0
          80.351860043,19.597634578,0
          80.351653800,19.597161624,0
          80.351276764,19.596813580,0
          80.349264901,19.596440633,0
          80.348998935,19.596910182,0
          80.348575762,19.597349930,0
          80.348255616,19.597682614,0
          80.347877017,19.598076037,0
        </coordinates>
      </LineString>
    </Placemark>
    <Placemark>
      <description>Bathymetric Contour, Intermediate</description>
      <styleUrl>#line1</styleUrl>
      <LineString>
        <coordinates>
          80.360893528,19.607144775,0
          80.360897054,19.607447203,0
          80.360905307,19.608154993,0
          80.361826702,19.608032735,0
          80.361971138,19.608194636,0
          80.362208543,19.607974313,0
          80.362430590,19.607649332,0
          80.362345264,19.606892892,0
          80.361814740,19.607067346,0
          80.361214986,19.607202700,0
          80.360893528,19.607144775,0
        </coordinates>
      </LineString>
    </Placemark>
    <Placemark>
      <description>Bathymetric Contour, Intermediate</description>
      <styleUrl>#line1</styleUrl>
      <LineString>
        <coordinates>
          80.363724581,19.606738756,0
          80.363904488,19.607184109,0
          80.364924617,19.606936668,0
          80.364921264,19.606950208,0
          80.364780979,19.607337048,0
          80.365707268,19.607251846,0
          80.365913132,19.607513184,0
          80.366049628,19.607449109,0
          80.366181475,19.607423288,0
          80.366574556,19.607865307,0
          80.367357829,19.608221920,0
          80.367643276,19.608134457,0
          80.367384928,19.606895557,0
          80.367409229,19.606884841,0
          80.367407176,19.606848188,0
          80.367501773,19.606897838,0
          80.368202270,19.607129827,0
          80.368986025,19.608010054,0
          80.369266753,19.607190940,0
          80.370302967,19.606607059,0
          80.370099726,19.606105637,0
          80.370433758,19.606063048,0
          80.370691718,19.606165326,0
          80.371508399,19.606441187,0
          80.372153967,19.606449691,0
          80.372719435,19.606556543,0
          80.372977348,19.606736763,0
          80.373257359,19.606911081,0
          80.373438831,19.607285300,0
          80.373545352,19.607467980,0
          80.374065997,19.608213975,0
          80.374131360,19.608438353,0
          80.374468260,19.608582981,0
          80.374724594,19.608356730,0
          80.374430092,19.607850619,0
          80.373931919,19.606187174,0
          80.372781175,19.606087533,0
          80.372106869,19.606073922,0
          80.371631230,19.605996897,0
          80.371386114,19.605824691,0
          80.370877615,19.605594058,0
          80.370218950,19.605245547,0
          80.369914170,19.605375554,0
          80.369580843,19.605449703,0
          80.368679162,19.605697596,0
          80.368260295,19.605838915,0
          80.367362060,19.606043060,0
          80.367066665,19.606094623,0
          80.366908119,19.605991255,0
          80.366177807,19.606287557,0
          80.365493974,19.606311450,0
          80.365067486,19.606336248,0
          80.364282056,19.606446637,0
          80.364111021,19.606632529,0
          80.363724581,19.606738756,0
        </coordinates>
      </LineString>
    </Placemark>
    <Placemark>
      <description>Bathymetric Contour, Intermediate</description>
      <styleUrl>#line1</styleUrl>
      <LineString>
        <coordinates>
          80.370123006,19.601549811,0
          80.369275916,19.601881716,0
          80.369691879,19.602463870,0
          80.369761460,19.602561251,0
          80.369832834,19.602697785,0
          80.370043514,19.603269600,0
          80.370111430,19.603646412,0
          80.370135565,19.603927434,0
          80.370077706,19.604208169,0
          80.369975879,19.604440932,0
          80.370448888,19.604454539,0
          80.370418468,19.604167518,0
          80.370313010,19.603712869,0
          80.370257523,19.603383918,0
          80.370101793,19.602881273,0
          80.370021907,19.602609020,0
          80.370022161,19.602608901,0
          80.370196805,19.602526909,0
          80.370588566,19.602760288,0
          80.370809527,19.602754496,0
          80.371176157,19.602752807,0
          80.371178517,19.602752796,0
          80.371386370,19.602828239,0
          80.371546974,19.602888573,0
          80.371786352,19.602967113,0
          80.371997370,19.603039577,0
          80.372109756,19.603222959,0
          80.372125859,19.603249234,0
          80.372186322,19.603223226,0
          80.372429122,19.603118788,0
          80.373045316,19.602804131,0
          80.373153234,19.602670657,0
          80.373276645,19.602518021,0
          80.373576567,19.602435381,0
          80.373627629,19.602420752,0
          80.373927017,19.602334982,0
          80.373951597,19.602366671,0
          80.373989778,19.602415895,0
          80.373990356,19.602420094,0
          80.373993991,19.602420088,0
          80.374137433,19.602562854,0
          80.374127718,19.602628572,0
          80.374224662,19.602841106,0
          80.374230263,19.602850743,0
          80.374302983,19.602975869,0
          80.374334208,19.603056672,0
          80.374371787,19.603125543,0
          80.374391319,19.603151993,0
          80.374792186,19.603694854,0
          80.375347500,19.603628040,0
          80.375453267,19.603189068,0
          80.375891316,19.603157195,0
          80.376002169,19.603149128,0
          80.376014243,19.602943872,0
          80.376035918,19.602575416,0
          80.375972335,19.602416492,0
          80.376129413,19.602416205,0
          80.378160350,19.602412489,0
          80.378228280,19.602436547,0
          80.378438692,19.602667403,0
          80.378694036,19.602695182,0
          80.378757798,19.602516080,0
          80.378941626,19.602411054,0
          80.379241375,19.602239797,0
          80.379320766,19.602096613,0
          80.378647031,19.601795421,0
          80.379258219,19.601137025,0
          80.379354616,19.600671121,0
          80.379134126,19.600601621,0
          80.378905173,19.601093967,0
          80.378317539,19.601366901,0
          80.378228927,19.601447290,0
          80.377802851,19.601532492,0
          80.377494207,19.601423833,0
          80.377257995,19.601342322,0
          80.377248936,19.601237686,0
          80.377350382,19.601100556,0
          80.377117817,19.600890544,0
          80.376260637,19.601548081,0
          80.376132561,19.601599321,0
          80.375831072,19.601719938,0
          80.375556382,19.601802671,0
          80.375440504,19.601593060,0
          80.375290156,19.601326545,0
          80.375236948,19.601221756,0
          80.374807464,19.601372690,0
          80.375140211,19.600955426,0
          80.375182293,19.600674635,0
          80.375324421,19.600359619,0
          80.375471753,19.600033068,0
          80.374967198,19.600025342,0
          80.374776722,19.600350449,0
          80.373827495,19.601467941,0
          80.373794612,19.601506654,0
          80.373121752,19.601797206,0
          80.372714722,19.601849586,0
          80.372119366,19.601671180,0
          80.372120931,19.602080637,0
          80.372023223,19.602436610,0
          80.372021765,19.602441924,0
          80.371693375,19.602553700,0
          80.371640802,19.602441084,0
          80.371630792,19.602419640,0
          80.371549377,19.602269921,0
          80.371401770,19.602111005,0
          80.371321320,19.601713228,0
          80.371426248,19.601492431,0
          80.371575595,19.601203048,0
          80.371593882,19.600554566,0
          80.371356376,19.600627688,0
          80.371113950,19.600702325,0
          80.370253231,19.600642535,0
          80.370358233,19.601213743,0
          80.370637922,19.601588229,0
          80.370621697,19.601585261,0
          80.370672365,19.601883012,0
          80.370672819,19.601886392,0
          80.370407600,19.601910482,0
          80.370411174,19.601900032,0
          80.370123006,19.601549811,0
        </coordinates>
      </LineString>
    </Placemark>
    <Placemark>
      <description>Bathymetric Contour, Intermediate</description>
      <styleUrl>#line1</styleUrl>
      <LineString>
        <coordinates>
          80.380991631,19.598985138,0
          80.380957952,19.599248223,0
          80.380775608,19.599429310,0
          80.380602661,19.599792141,0
          80.381096783,19.599889478,0
          80.381642678,19.599642692,0
          80.381785933,19.599126736,0
          80.381922565,19.598979148,0
          80.382057631,19.598833252,0
          80.382050561,19.598771074,0
          80.381978377,19.598287509,0
          80.381846408,19.598380811,0
          80.381452208,19.598659512,0
          80.380991631,19.598985138,0
        </coordinates>
      </LineString>
    </Placemark>
  </Folder>
</Document>
</kml>
