<?xml version="1.0" encoding="UTF-8"?>
<kml xmlns="http://www.opengis.net/kml/2.2" xmlns:gx="http://www.google.com/kml/ext/2.2" xmlns:kml="http://www.opengis.net/kml/2.2" xmlns:atom="http://www.w3.org/2005/Atom">
<Document>
	<name>Ovali KML FINAL 2.kmz</name>
	<Style id="area1">
		<LineStyle>
			<color>ff0000ff</color>
			<width>2.2</width>
		</LineStyle>
		<PolyStyle>
			<color>bf2cffee</color>
		</PolyStyle>
	</Style>
	<Style id="area10">
		<LineStyle>
			<color>ff0000ff</color>
			<width>2.2</width>
		</LineStyle>
		<PolyStyle>
			<color>bf2cffee</color>
		</PolyStyle>
	</Style>
	<StyleMap id="area11">
		<Pair>
			<key>normal</key>
			<styleUrl>#area10</styleUrl>
		</Pair>
		<Pair>
			<key>highlight</key>
			<styleUrl>#area1</styleUrl>
		</Pair>
	</StyleMap>
	<Style id="line1">
		<LineStyle>
			<color>ff000000</color>
		</LineStyle>
	</Style>
	<Folder>
		<name>Area Features</name>
		<open>1</open>
		<description>Area Features</description>
		<Placemark>
			<name>CA LAND OVALI PATCH 978.2864  Ha</name>
			<description>Ovali CA PATCH 978.2864  Ha

Division- Ratnagiri
Range- Chiplun
Round-Chiplun 
Beat- Ovali
village- Ovali
Taluka- Chiplun
District-Ratnagiri
Survey No-1200,1200/2,1201,1202,1203,1204,1205,1206,
1207,1208/1,1208/2,1209,1210,1211,1212,1213,1215,
1216,1217,1218,1219,1220,1221,1222,1223,1224,1225/1
,1225/2,1226,1227,1228,1229,1230,1231,1232,1233,
1234,1235,1236,1237,1238,1239,1240,1241,1242,1243
1244,1245,1246,1247,1248,1249,1250,1251,1252,1253
,1225/2,1226,1227,1228,1229,1230,1231,1232,1233,
1234,1235,1236,1237,1238,1239,1240,1241,1242,1243,
1244,1245,1246,1247,1248,1249,1250,1251,1252,1253
1254,1255,1256,1257,1258,1259,1260,1261/1,1261/2
1262,1263/1,1263/2,1264,1265/1,1265/2,1266,1267,
1268,1269,1270,1300,1301,1302,1303,1304,1305,1306,
1307,1308,1309,1310,1311,1312,1313,1314,1315,1316
1317,1318,1319,1321,1322,1323,1324,1325,1326,1327
1328,1329,1330,1331,1332,1333,1334,1335,1336,1337
1338,1339,1340,1341,1342,1343,1344,1345,1346,1347
1348,1349,1350,1351,1352,1353,1354,1355,1356,1357,
1358,1359,1360,1361,1362,1363,1364,1365,1366,1367,
1368,1369,1370,1371,1372,1373,1374,1375,1376,1377
1378,1379,1380,1381,1382,1383,1384,1385,1386,1387
1388,1389,1390,1391,1392,1393,1394,1395,1396,1397
1398,1399,1400,1401,1402,1403/1,1403/2,1403/3,1403/4,
1403/5,1403/6,1403/7,1404,1405,1406,1407,1408,
1409/1,1409/2,1410,1411,1412,1413,1415,1416,1417,
,1418,1419,1420,1421,1422,1423,1424,1425,1426,1427,1428
,1430,1431,1432,1433,1434,1436,1437,1438,1439,1440/1
1440/2,1441,1442,1443,1444,1445,1446,1447,1448,1449,
,1450,1451,1452,1453,1454,1455,1456,1457,1458,1459,1460,
1461/1,1461/2,1462,1463,1464,1465,1466,1467,1468,
,1469,1470,1471,1472,1473,1474,1475,1476,1477,1478,
1479,1480,1481,1482,1483,1484,1485,1486,1487,1488,1489
1490,1491,1492,1493,1494,1495,1496,1497,1498
1499,1500,1501,1502,1503,1504,1505,1506,1507,1508
1509,1510,1511,1512,1513,1514,1515,1516,
,1517,1518,1519,1520,1521,1522,1523,1524,1525,1526,
1527,1528,1529,1530,1531,1532,1533,1534,1535,1536,1537
1538,1539,1540,1541,1542,1543,1544,1545,1546,1547
1548,1549,1550,1551,1552,1553,1554,1555,1556,1557,
,1558,1559,1560,1561,1562,1563,1564,1565,1566
1567,1568,1569,1570,1571,1572,1573,1574,1575,1576
,1577,1578,1579,1580,1581,1582,1583,1584,1585,
,1586,1587,1588,1589,1590,1591,1592,1593,
1594,1595,1596,
437,438,441,442,443,444,445,446,447,448,449,450,451/1,451/2,452
AREA=978.2864 Hector</description>
			<styleUrl>#area11</styleUrl>
			<Polygon>
				<tessellate>1</tessellate>
				<outerBoundaryIs>
					<LinearRing>
						<coordinates>
							73.6911373256,17.5233806438,0 73.69089129370001,17.5233723319,0 73.69046538000001,17.5233421891,0 73.690012099,17.5233254688,0 73.68925902629999,17.5234308165,0 73.6884987036,17.5232940402,0 73.68839845620001,17.5233151761,0 73.68783915589999,17.5233596263,0 73.6874945089,17.5233844224,0 73.687077518,17.5234059636,0 73.6864411726,17.5234652617,0 73.6856734716,17.5234014137,0 73.6847986234,17.5233437322,0 73.6842398041,17.5233002685,0 73.68359739749999,17.5232493779,0 73.682878304,17.5232060244,0 73.68237243439999,17.5231722655,0 73.68264273689999,17.5230170186,0 73.6826208562,17.5228353515,0 73.6825195979,17.5228707526,0 73.68235764240001,17.522667145,0 73.6822040213,17.5227001891,0 73.6821136974,17.5225119667,0 73.68157358249999,17.5226405401,0 73.6817927617,17.5215628377,0 73.6818768366,17.5215457741,0 73.6818963927,17.5214788984,0 73.68180160270001,17.5214190373,0 73.6819091407,17.5211441677,0 73.6829930964,17.5198482614,0 73.6825339917,17.5195044551,0 73.6820359388,17.519402121,0 73.68217979729999,17.518939517,0 73.68244084459999,17.5181156106,0 73.6826714675,17.5174327957,0 73.6828624149,17.517302403,0 73.6827841898,17.5171998545,0 73.6828888606,17.5171315975,0 73.68282883480001,17.5169899094,0 73.6826126174,17.5170079755,0 73.6825148029,17.5167843094,0 73.6821654832,17.5165133918,0 73.6819362289,17.5159951956,0 73.68189484209999,17.5156266833,0 73.6817943545,17.5153098293,0 73.68189615110001,17.5151949107,0 73.6818964232,17.5147466331,0 73.6818909535,17.514748,0 73.6817285127,17.5150286343,0 73.6814625872,17.5150122099,0 73.6812312966,17.5149979244,0 73.6806905837,17.5150647647,0 73.67965069509999,17.5157528746,0 73.67961968,17.5157872045,0 73.67952392559999,17.5158931928,0 73.6793318373,17.5160060444,0 73.6788218762,17.5161148479,0 73.6787329031,17.5159885443,0 73.6785771997,17.5160538657,0 73.6785817602,17.5160909696,0 73.6783982772,17.5162018388,0 73.6784229324,17.516292791,0 73.6784686988,17.5163180942,0 73.6785904086,17.5165624243,0 73.67846085639999,17.5166220592,0 73.6786242666,17.5169751723,0 73.6783742061,17.5170747932,0 73.6781691236,17.5170456773,0 73.6781664566,17.5170990875,0 73.6782704994,17.5171867241,0 73.67826901399999,17.5173300356,0 73.6784680537,17.5175249573,0 73.67843795669999,17.517826576,0 73.67831586370001,17.5178847498,0 73.6782417997,17.5177405896,0 73.6782635582,17.5177259013,0 73.6779195199,17.51709977,0 73.6778206939,17.5171504078,0 73.67768230199999,17.5171536707,0 73.6776375587,17.5170745342,0 73.6774912346,17.5172126873,0 73.6773465407,17.517257302,0 73.6771653727,17.5168774044,0 73.6770623896,17.5166668072,0 73.6770427097,17.5165601743,0 73.6763812807,17.5151806432,0 73.6762886594,17.5149351482,0 73.6762048845,17.5147131003,0 73.6760617595,17.5141971496,0 73.67602568140001,17.5140670912,0 73.6759994984,17.5138540426,0 73.6760153829,17.513786131,0 73.6760324097,17.5137133361,0 73.6759990613,17.5136778805,0 73.6755568497,17.5132077249,0 73.67552920999999,17.5131587796,0 73.6752312233,17.5126310943,0 73.67568051809999,17.511467622,0 73.676225133,17.5112840555,0 73.676366956,17.5108392067,0 73.6764757569,17.510497935,0 73.67675472419999,17.5103412114,0 73.6768324255,17.5100057244,0 73.67683151990001,17.509808704,0 73.67676224500001,17.509619478,0 73.6765840194,17.5098496118,0 73.67659995450001,17.510172378,0 73.67624354100001,17.5104658913,0 73.67601666980001,17.5111612099,0 73.6755237909,17.5113721302,0 73.67510491180001,17.5123860609,0 73.6745966483,17.5114637079,0 73.6740325225,17.5104034548,0 73.674042843,17.5103607531,0 73.67445157749999,17.5086695777,0 73.67445845,17.508641142,0 73.67395314949999,17.5080386918,0 73.6737848952,17.5068437548,0 73.6737848952,17.5068437548,0 73.67378440269999,17.5068438145,0 73.6737839092,17.5068438659,0 73.6737834148,17.506843909,0 73.6737829197,17.5068439439,0 73.673782424,17.5068439704,0 73.6737819279,17.5068439886,0 73.67378143160001,17.5068439986,0 73.6737809352,17.5068440002,0 73.67378043879999,17.5068439935,0 73.67377994260001,17.5068439785,0 73.6737794468,17.5068439552,0 73.6737789515,17.5068439236,0 73.67377845679999,17.5068438836,0 73.6737779629,17.5068438355,0 73.67377747,17.506843779,0 73.67377697809999,17.5068437143,0 73.67377648759999,17.5068436414,0 73.6737759984,17.5068435603,0 73.6737755108,17.506843471,0 73.67377502479999,17.5068433735,0 73.67377454069999,17.5068432679,0 73.6737740587,17.5068431543,0 73.67377357869999,17.5068430326,0 73.67377310099999,17.5068429028,0 73.6737726258,17.5068427651,0 73.67377215320001,17.5068426194,0 73.6737716832,17.5068424659,0 73.6737712162,17.5068423045,0 73.6737707521,17.5068421353,0 73.6737702912,17.5068419584,0 73.67376983360001,17.5068417737,0 73.6737693794,17.5068415815,0 73.6737689288,17.5068413816,0 73.6737684818,17.5068411743,0 73.67376803880001,17.5068409594,0 73.6737675996,17.5068407372,0 73.67376716459999,17.5068405077,0 73.6737667339,17.506840271,0 73.6737663075,17.506840027,0 73.67376588560001,17.506839776,0 73.6737654683,17.5068395179,0 73.6737650558,17.5068392529,0 73.67376464820001,17.506838981,0 73.6737642456,17.5068387023,0 73.67376384809999,17.5068384169,0 73.6737634559,17.5068381249,0 73.6737630691,17.5068378264,0 73.67376268770001,17.5068375215,0 73.67376231190001,17.5068372102,0 73.6737619419,17.5068368927,0 73.67376157770001,17.506836569,0 73.67376121940001,17.5068362393,0 73.6737608672,17.5068359036,0 73.67376052109999,17.5068355621,0 73.6737601813,17.5068352148,0 73.6737598479,17.5068348619,0 73.67375952099999,17.5068345035,0 73.6737592006,17.5068341396,0 73.6737588868,17.5068337704,0 73.6737585799,17.5068333961,0 73.6737582798,17.5068330166,0 73.67375798659999,17.5068326322,0 73.6737577005,17.506832243,0 73.6737574215,17.506831849,0 73.67375714969999,17.5068314504,0 73.67375688520001,17.5068310473,0 73.67375662809999,17.5068306398,0 73.6737563784,17.5068302281,0 73.6737561363,17.5068298123,0 73.67375590170001,17.5068293924,0 73.67375567489999,17.5068289688,0 73.6737554557,17.5068285413,0 73.6737552444,17.5068281103,0 73.67375504100001,17.5068276758,0 73.6737548454,17.506827238,0 73.67375465790001,17.5068267969,0 73.6737544784,17.5068263528,0 73.6737543071,17.5068259058,0 73.6737541439,17.5068254559,0 73.6737539888,17.5068250034,0 73.6737538421,17.5068245483,0 73.6737537036,17.5068240909,0 73.67375357349999,17.5068236312,0 73.6737534518,17.5068231694,0 73.67375333850001,17.5068227057,0 73.6737532336,17.5068222401,0 73.67375313719999,17.5068217728,0 73.67375304940001,17.506821304,0 73.6737529701,17.5068208338,0 73.6737528993,17.5068203623,0 73.6737528371,17.5068198897,0 73.67375278359999,17.5068194161,0 73.6737527386,17.5068189418,0 73.67375270230001,17.5068184667,0 73.6737526747,17.5068179911,0 73.6737526556,17.5068175151,0 73.6737526453,17.5068170389,0 73.6737526436,17.5068165625,0 73.67375265059999,17.5068160862,0 73.6737526662,17.5068156101,0 73.6737526905,17.5068151344,0 73.6737527235,17.5068146591,0 73.67375276510001,17.5068141844,0 73.67375281530001,17.5068137105,0 73.6737528741,17.5068132376,0 73.6737529415,17.5068127656,0 73.6737530175,17.5068122949,0 73.67375310209999,17.5068118255,0 73.67375319510001,17.5068113576,0 73.6737532967,17.5068108914,0 73.6737534067,17.5068104269,0 73.6737535252,17.5068099643,0 73.6737536521,17.5068095038,0 73.6737537873,17.5068090455,0 73.6737539308,17.5068085895,0 73.6737540826,17.5068081359,0 73.6737542426,17.506807685,0 73.6737544108,17.5068072369,0 73.67375458719999,17.5068067916,0 73.6737547716,17.5068063493,0 73.673754964,17.5068059102,0 73.67375516440001,17.5068054744,0 73.6737553726,17.506805042,0 73.6737555887,17.5068046132,0 73.67375581260001,17.5068041881,0 73.6737560442,17.5068037667,0 73.6737562834,17.5068033493,0 73.67375653009999,17.506802936,0 73.6737567844,17.5068025269,0 73.67375704600001,17.5068021221,0 73.673757315,17.5068017217,0 73.6737575912,17.5068013259,0 73.6737578745,17.5068009348,0 73.673758165,17.5068005484,0 73.6737584624,17.5068001671,0 73.6737587667,17.5067997907,0 73.6737590778,17.5067994195,0 73.6737593956,17.5067990536,0 73.67375972000001,17.506798693,0 73.6737600509,17.506798338,0 73.67376038819999,17.5067979885,0 73.6737607319,17.5067976447,0 73.67376108169999,17.5067973067,0 73.67376143760001,17.5067969747,0 73.6737617996,17.5067966487,0 73.6737621674,17.5067963287,0 73.6737625409,17.506796015,0 73.6737629201,17.5067957076,0 73.6737633048,17.5067954066,0 73.67376369500001,17.506795112,0 73.6737640904,17.5067948241,0 73.6737644911,17.5067945428,0 73.67376489679999,17.5067942682,0 73.6737653074,17.5067940005,0 73.6737657228,17.5067937397,0 73.67376614290001,17.506793486,0 73.6737665675,17.5067932392,0 73.67376699659999,17.5067929997,0 73.67376743,17.5067927673,0 73.6737678675,17.5067925423,0 73.6737683091,17.5067923246,0 73.6737687545,17.5067921143,0 73.6737692037,17.5067919115,0 73.6737696565,17.5067917163,0 73.6737701129,17.5067915287,0 73.6737705725,17.5067913488,0 73.67377103530001,17.5067911766,0 73.6737715013,17.5067910121,0 73.67377197010001,17.5067908555,0 73.6737724417,17.5067907068,0 73.6737729159,17.506790566,0 73.6737733927,17.5067904331,0 73.67377387179999,17.5067903083,0 73.673774353,17.5067901915,0 73.6737748364,17.5067900828,0 73.6737753216,17.5067899821,0 73.6737758086,17.5067898897,0 73.67377629720001,17.5067898054,0 73.6737767872,17.5067897292,0 73.6737772786,17.5067896613,0 73.6737772786,17.5067896613,0 73.673744329,17.506555653,0 73.6735375956,17.5050277763,0 73.6728869467,17.5044065473,0 73.67267040980001,17.5040735198,0 73.6722425765,17.5028088641,0 73.6725536205,17.5044518235,0 73.6728389086,17.5047140888,0 73.6731363249,17.5049875024,0 73.67329042590001,17.5050750652,0 73.6733416454,17.5054342165,0 73.67353513809999,17.5067909766,0 73.6735408424,17.5068309745,0 73.6713942951,17.5064293734,0 73.66862082820001,17.505926986,0 73.6671569949,17.505654193,0 73.6669821908,17.5054912548,0 73.6655958147,17.504711149,0 73.66613877269999,17.5041130574,0 73.6660566841,17.5038291967,0 73.66683213029999,17.5040595332,0 73.66752244680001,17.5045112803,0 73.66751417890001,17.5034338597,0 73.667290587,17.5033416097,0 73.6663382256,17.5021471163,0 73.66817273869999,17.5016479821,0 73.6682185161,17.5016097441,0 73.6689036744,17.5010374266,0 73.6703383111,17.5008086869,0 73.6717813291,17.5005785998,0 73.6725198125,17.499689343,0 73.6731881462,17.4989238855,0 73.6752635699,17.4986655748,0 73.67657430209999,17.4984972105,0 73.6766257364,17.4985162443,0 73.67739552499999,17.4988011105,0 73.67775172269999,17.4988835433,0 73.6793340008,17.4994079966,0 73.6800666884,17.499615083,0 73.6802224656,17.4997014355,0 73.6813495096,17.5000840292,0 73.6819093979,17.4999906731,0 73.6822804088,17.4999304501,0 73.6826299449,17.4998737122,0 73.6830240094,17.4998097455,0 73.68348919029999,17.4997342337,0 73.6849743847,17.4998046097,0 73.68497878460001,17.4997923422,0 73.6853850354,17.4998928693,0 73.6870008487,17.5002833237,0 73.6881163692,17.5005507745,0 73.6892359237,17.5008341381,0 73.6922695355,17.5015964411,0 73.69594096519999,17.5025172568,0 73.69935501569999,17.5029128239,0 73.7006568016,17.5031809488,0 73.7016863745,17.5033881563,0 73.7024653726,17.5035763533,0 73.70285161060001,17.5035225066,0 73.70310678529999,17.5037103933,0 73.7037248975,17.5041900518,0 73.70410399399999,17.5044810012,0 73.70410970019999,17.5044887762,0 73.70469474950001,17.5052859345,0 73.70474550660001,17.505373374,0 73.70485636239999,17.5055129938,0 73.70515885170001,17.5059537163,0 73.705323138,17.506154544,0 73.70538267800001,17.5062028245,0 73.7053848204,17.5062055022,0 73.7059138123,17.5068666547,0 73.70620379810001,17.5072140647,0 73.706520994,17.5076302445,0 73.706782582,17.5079580317,0 73.7067935665,17.5079972153,0 73.7070881458,17.5084019849,0 73.7073717346,17.5086685224,0 73.7073713389,17.509106481,0 73.7073709167,17.5098756289,0 73.7082385316,17.5100321858,0 73.7087941746,17.510140692,0 73.709033694,17.5103217579,0 73.7093382832,17.5105520127,0 73.7093555518,17.5105147769,0 73.71007100990001,17.5114851948,0 73.71028468110001,17.5118052157,0 73.7104692609,17.512071182,0 73.71063087109999,17.5123010907,0 73.7108468191,17.512634743,0 73.71108203510001,17.5129952397,0 73.7112534482,17.5132174116,0 73.7116530134,17.51370381,0 73.7120830937,17.5141069127,0 73.71225848810001,17.5142474205,0 73.712413352,17.5143870073,0 73.7130687435,17.514992119,0 73.7134427252,17.5152798174,0 73.7140903697,17.5158027367,0 73.7145933737,17.516217571,0 73.71461939530001,17.5161880435,0 73.7154304677,17.5166530294,0 73.7154361396,17.5166561875,0 73.71503834879999,17.5171465103,0 73.71553546680001,17.5175832185,0 73.716110188,17.5181209147,0 73.71700658730001,17.5167011213,0 73.7181662216,17.5167305314,0 73.7190002927,17.516745342,0 73.7189881763,17.5167212227,0 73.7193115492,17.516691562,0 73.72019141929999,17.5165250951,0 73.7202193275,17.5165198149,0 73.7202284369,17.5165456705,0 73.7202652884,17.5166502672,0 73.7202830287,17.5167021291,0 73.72051612520001,17.5174044875,0 73.7207715787,17.5181974894,0 73.7201747606,17.5190061791,0 73.7201640121,17.5190109852,0 73.720138276,17.5190224928,0 73.72020740000001,17.5197321222,0 73.7202321868,17.5198164503,0 73.72032148389999,17.5207750041,0 73.720353972,17.5209804243,0 73.72038631620001,17.5212935308,0 73.7204429048,17.5219813859,0 73.7205176873,17.5227842762,0 73.7206622596,17.524492631,0 73.71970041110001,17.5244971494,0 73.7179004775,17.5244972491,0 73.7174063035,17.5245115464,0 73.7160276396,17.5245339952,0 73.71471459679999,17.5245410596,0 73.7133094583,17.5245586384,0 73.7121296848,17.5245716627,0 73.7111787274,17.5245876186,0 73.710159054,17.5246041501,0 73.70913176560001,17.5246203347,0 73.70817372819999,17.5246249676,0 73.7077893336,17.5246040522,0 73.70670159399999,17.5245295855,0 73.7056934596,17.5244660136,0 73.7045749047,17.5243974791,0 73.70404147879999,17.5243808561,0 73.70291168120001,17.5243081438,0 73.7018232338,17.5242482729,0 73.7007155093,17.5241142588,0 73.700181667,17.5240279988,0 73.69947267489999,17.5239338696,0 73.6988811846,17.5238560073,0 73.6984713897,17.5238082879,0 73.6978802572,17.5237231116,0 73.6972276684,17.5236461626,0 73.6965852539,17.5235953137,0 73.696149938,17.5236013961,0 73.6951594264,17.5235678711,0 73.69464956509999,17.5235376277,0 73.6940476078,17.5235178978,0 73.6935029432,17.5234970778,0 73.6927912804,17.523457758,0 73.6915465557,17.5233944684,0 73.6911391249,17.5233807046,0 73.6911373256,17.5233806438,0 
						</coordinates>
					</LinearRing>
				</outerBoundaryIs>
			</Polygon>
		</Placemark>
	</Folder>
	<Folder>
		<name>Line Features</name>
		<description>Line Features</description>
		<Placemark>
			<description><![CDATA[0<BR><BR><B>ELEVATION</B> = 0]]></description>
			<styleUrl>#line1</styleUrl>
			<LineString>
				<tessellate>1</tessellate>
				<coordinates>
					73.6738057327,17.5068030832,0 73.6738070058,17.5068054667,0 73.67380802930001,17.5068079585,0 73.6738087934,17.5068105346,0 73.6738092906,17.5068131701,0 73.6738095162,17.5068158397,0 73.673809468,17.5068185177,0 73.67380914650001,17.5068211782,0 73.6738085547,17.5068237957,0 73.6738076985,17.5068263449,0 73.6738065859,17.5068288013,0 73.6738052278,17.5068311413,0 73.6738036372,17.5068333422,0 73.67380182940001,17.506835383,0 73.6737998218,17.5068372439,0 73.67379763389999,17.506838907,0 73.6737952865,17.5068403564,0 73.6737928024,17.506841578,0 73.6737902055,17.5068425601,0 73.6737875208,17.5068432932,0 73.6737847741,17.5068437703,0 73.6737819919,17.5068439868,0 73.673779201,17.5068439405,0 73.6737764282,17.506843632,0 73.67377370040001,17.5068430642,0 73.6737710436,17.5068422426,0 73.6737684836,17.5068411751,0 73.67376604490001,17.5068398719,0 73.6737637511,17.5068383457,0 73.6737616243,17.5068366111,0 73.67375968490001,17.5068346848,0 73.6737579516,17.5068325853,0 73.6737564411,17.506830333,0 73.673755168,17.5068279495,0 73.67375414449999,17.5068254577,0 73.6737533804,17.5068228816,0 73.6737528832,17.5068202461,0 73.67375265760001,17.5068175765,0 73.6737527058,17.5068148985,0 73.67375302729999,17.506812238,0 73.6737536191,17.5068096205,0 73.6737544753,17.5068070713,0 73.6737555879,17.5068046149,0 73.673756946,17.5068022749,0 73.6737585366,17.506800074,0 73.67376034439999,17.5067980332,0 73.673762352,17.5067961723,0 73.67376453990001,17.5067945092,0 73.6737668873,17.5067930598,0 73.6737693713,17.5067918382,0 73.6737719683,17.5067908561,0 73.673774653,17.506790123,0 73.6737773997,17.5067896459,0 73.6737801819,17.5067894294,0 73.6737829728,17.5067894757,0 73.6737857455,17.5067897842,0 73.67378847339999,17.506790352,0 73.6737911302,17.5067911736,0 73.6737936902,17.5067922411,0 73.67379612889999,17.5067935443,0 73.6737984226,17.5067950705,0 73.6738005495,17.5067968051,0 73.67380248889999,17.5067987314,0 73.6738042222,17.5068008308,0 73.6738057327,17.5068030832,0 
				</coordinates>
			</LineString>
		</Placemark>
		<Placemark>
			<description><![CDATA[0<BR><BR><B>ELEVATION</B> = 0.0]]></description>
			<styleUrl>#line1</styleUrl>
			<LineString>
				<tessellate>1</tessellate>
				<coordinates>
					73.7853300478,17.5239812627,0 73.7853284963,17.5239800216,0 
				</coordinates>
			</LineString>
		</Placemark>
	</Folder>
</Document>
</kml>
