<?xml version="1.0" encoding="UTF-8"?>
<kml xmlns="http://www.opengis.net/kml/2.2" xmlns:gx="http://www.google.com/kml/ext/2.2" xmlns:kml="http://www.opengis.net/kml/2.2" xmlns:atom="http://www.w3.org/2005/Atom">
<Document>
	<name>OWALI KML.kmz</name>
	<open>1</open>
	<StyleMap id="area1">
		<Pair>
			<key>normal</key>
			<styleUrl>#area11</styleUrl>
		</Pair>
		<Pair>
			<key>highlight</key>
			<styleUrl>#area10</styleUrl>
		</Pair>
	</StyleMap>
	<Style id="area10">
		<LineStyle>
			<color>ff7fffff</color>
		</LineStyle>
		<PolyStyle>
			<color>ab7fffff</color>
		</PolyStyle>
	</Style>
	<Style id="area11">
		<LineStyle>
			<color>ff7fffff</color>
		</LineStyle>
		<PolyStyle>
			<color>ab7fffff</color>
		</PolyStyle>
	</Style>
	<Folder>
		<name>Area Features</name>
		<open>1</open>
		<description>Area Features</description>
		<Placemark>
			<description>0_BR_BR_B_ELEVATION_B__0</description>
			<styleUrl>#area1</styleUrl>
			<Polygon>
				<outerBoundaryIs>
					<LinearRing>
						<coordinates>
							73.71456779718403,17.51716719387514,0 73.71460675711501,17.51710582630736,0 73.71650629889345,17.51822741267295,0 73.7168819434,17.5176978088,0 73.71910669133253,17.51782127483342,0 73.71923556835074,17.51781657647742,0 73.71945971019045,17.51779787146685,0 73.7203427051879,17.51762976852101,0 73.720856025,17.5192783579,0 73.7202661784,17.5201150148,0 73.7202283769,17.5201328454,0 73.72030788790001,17.5208834479,0 73.72033551059999,17.5209739984,0 73.72044290220001,17.5219813836,0 73.72047766,17.5221949406,0 73.7207416681,17.5248445497,0 73.7179004796,17.5244972449,0 73.7174063068,17.5245115451,0 73.71602763929999,17.5245339909,0 73.7147146013,17.5245410555,0 73.7133094627,17.5245586386,0 73.71212968570001,17.5245716658,0 73.7111787305,17.5245876192,0 73.71015905749999,17.5246041514,0 73.709131767,17.5246203305,0 73.7082283547,17.5245732738,0 73.7077953507,17.5245464407,0 73.7067016206,17.5244651059,0 73.70568426059999,17.5244107425,0 73.70457490370001,17.5243974795,0 73.70404147559999,17.5243808539,0 73.7029116783,17.5243081461,0 73.7018374411,17.5242030992,0 73.7007155134,17.524114263,0 73.7001816694,17.5240280021,0 73.6994726747,17.5239338674,0 73.6988811829,17.5238560091,0 73.69847139060001,17.5238082877,0 73.6978802534,17.5237231086,0 73.6972276731,17.5236461637,0 73.6965852495,17.5235953104,0 73.6961499344,17.5236013954,0 73.69515942290001,17.5235678681,0 73.69464956039999,17.523537627,0 73.6940476067,17.5235178937,0 73.6935029392,17.5234970812,0 73.6927912796,17.5234577608,0 73.6915465526,17.5233944703,0 73.6911373217,17.5233806449,0 73.69089129549999,17.5233723334,0 73.6904653781,17.5233421929,0 73.690012096,17.5233254716,0 73.6892534043,17.5233208558,0 73.6884987059,17.5232940413,0 73.68839845639999,17.5233151758,0 73.6878391556,17.5233596255,0 73.68749450839999,17.5233844199,0 73.68707751700001,17.5234059603,0 73.68638636519999,17.5234021061,0 73.6856412249,17.5233430272,0 73.68473338450001,17.5232582856,0 73.6842412534,17.5232463181,0 73.6835973938,17.5232493741,0 73.6828783086,17.5232060288,0 73.68237243270001,17.5231722673,0 73.68264273370001,17.5230170163,0 73.68262085480001,17.5228353515,0 73.6825195979,17.522870755,0 73.6823576454,17.5226671483,0 73.6822040258,17.5227001884,0 73.68211369879999,17.5225119687,0 73.6815735822,17.5226405372,0 73.68179275759999,17.521562837,0 73.681876833,17.5215457735,0 73.68189638939999,17.5214789023,0 73.68180160439999,17.5214190341,0 73.6819091389,17.5211441712,0 73.6829930973,17.5198482569,0 73.68253399130001,17.5195044544,0 73.68203593920001,17.5194021168,0 73.68217979950001,17.5189395141,0 73.6824408472,17.5181156086,0 73.68267146869999,17.5174327959,0 73.6828624159,17.5173024021,0 73.6827841879,17.5171998537,0 73.6828888621,17.5171315955,0 73.6828288312,17.5169899106,0 73.68261261390001,17.5170079769,0 73.68251480230001,17.5167843094,0 73.68216548229999,17.5165133879,0 73.68193622920001,17.5159951949,0 73.68189484680001,17.5156266846,0 73.6817943563,17.5153098264,0 73.68172851449999,17.5150286328,0 73.6814625916,17.5150122074,0 73.68123129529999,17.5149979276,0 73.6806905824,17.5150647677,0 73.6796506964,17.5157528752,0 73.67961967700001,17.5157872086,0 73.6795239225,17.515893191,0 73.67933183940001,17.516006042,0 73.67882187319999,17.5161148509,0 73.67873290359999,17.5159885432,0 73.6785772002,17.5160538655,0 73.67858176350001,17.5160909661,0 73.6783982745,17.51620184,0 73.678422934,17.516292791,0 73.67846869580001,17.5163180925,0 73.67859040810001,17.5165624261,0 73.6784608542,17.5166220574,0 73.67862426790001,17.5169751683,0 73.67837420239999,17.5170747902,0 73.6781691204,17.5170456798,0 73.6781664544,17.5170990894,0 73.678270501,17.5171867196,0 73.67826901150001,17.5173300381,0 73.6784680527,17.5175249571,0 73.6784379523,17.5178265777,0 73.67831586769999,17.5178847494,0 73.6782417957,17.517740593,0 73.678263556,17.5177258991,0 73.6779195161,17.5170997662,0 73.6778206944,17.5171504112,0 73.67768229870001,17.5171536728,0 73.6776375578,17.5170745349,0 73.67749123420001,17.5172126856,0 73.6773465392,17.5172573039,0 73.6771653696,17.5168774053,0 73.67706239349999,17.5166668048,0 73.67704270839999,17.5165601713,0 73.6763812786,17.5151806471,0 73.6762886635,17.5149351509,0 73.676204883,17.5147131017,0 73.6760617573,17.5141971495,0 73.67602568469999,17.5140670909,0 73.6759995006,17.5138540382,0 73.6760153829,17.513786131,0 73.6760324121,17.5137133334,0 73.6759990633,17.5136778842,0 73.6755568482,17.5132077237,0 73.675529211,17.5131587841,0 73.6752312186,17.5126310976,0 73.6756805191,17.5114676246,0 73.6762251291,17.5112840552,0 73.6763669554,17.5108392102,0 73.6764757533,17.5104979359,0 73.6767547244,17.5103412134,0 73.6768324267,17.510005723,0 73.6768315179,17.509808708,0 73.6767622407,17.5096194791,0 73.6765840156,17.5098496132,0 73.67659995859999,17.5101723803,0 73.6762435374,17.5104658957,0 73.676016674,17.5111612058,0 73.6755237902,17.5113721317,0 73.6751049125,17.5123860628,0 73.6745966444,17.511463704,0 73.6740325227,17.5104034535,0 73.67404284449999,17.5103607499,0 73.674451576,17.5086695763,0 73.6744584505,17.5086411463,0 73.6739531474,17.5080386923,0 73.6737848969,17.5068437585,0 73.6737772746,17.5067896657,0 73.67374433259999,17.5065556558,0 73.6735375977,17.5050277729,0 73.67288694200001,17.5044065513,0 73.67267040749999,17.5040735233,0 73.67224257469999,17.5028088664,0 73.6725536248,17.5044518214,0 73.6728389081,17.5047140878,0 73.6731363266,17.5049875055,0 73.6732904224,17.5050750658,0 73.6733416494,17.5054342171,0 73.67354083950001,17.5068309756,0 73.6713942912,17.5064293689,0 73.66862082910001,17.5059269829,0 73.6671569952,17.505654197,0 73.66698219520001,17.5054912593,0 73.66559581689999,17.5047111531,0 73.66613876860001,17.5041130599,0 73.6660566802,17.5038291959,0 73.6668321257,17.5040595373,0 73.66752244830001,17.5045112823,0 73.66751418,17.5034338622,0 73.66729058919999,17.5033416107,0 73.6665145953,17.5024187019,0 73.6681856041,17.5018378103,0 73.66844029569999,17.501665817,0 73.6689512297,17.5012147413,0 73.6705244261,17.5009288937,0 73.6718879287,17.5006778693,0 73.6726279052,17.499753443,0 73.6732655424,17.4989804421,0 73.67526356739999,17.4986655739,0 73.6765743035,17.4984972149,0 73.6766257379,17.4985162465,0 73.67775171860001,17.498883543,0 73.6800562901,17.4994856037,0 73.6802353419,17.4995889045,0 73.68133416889999,17.4999402493,0 73.6831964381,17.4996591291,0 73.6834588007,17.4995849391,0 73.6833141271,17.4991396961,0 73.6848874945,17.4992339437,0 73.6958996986,17.5023179297,0 73.6990837412,17.5027704372,0 73.7024644194,17.5035754824,0 73.70285823330001,17.5035235982,0 73.70310678209999,17.5037103943,0 73.7038746043,17.5045188426,0 73.704480741,17.5053722957,0 73.70453660760001,17.5054630322,0 73.7046485331,17.5056173949,0 73.70495605710001,17.5060802985,0 73.70513346049999,17.5062983486,0 73.70518958380001,17.5063529379,0 73.7060389997,17.5074339036,0 73.70662676729999,17.5082239708,0 73.7066358655,17.5082692161,0 73.7069342365,17.5086959086,0 73.7072241499,17.5089869877,0 73.70719352222788,17.51035886275552,0 73.70866788572938,17.5106116303497,0 73.7092348608,17.5110063347,0 73.7092633069,17.5109794082,0 73.7105684563,17.5128857062,0 73.71102485030001,17.513611648,0 73.71161284980001,17.5143745923,0 73.7120525177,17.5148021957,0 73.7130630171,17.5157576601,0 73.71456779718403,17.51716719387514,0 
						</coordinates>
					</LinearRing>
				</outerBoundaryIs>
			</Polygon>
		</Placemark>
	</Folder>
</Document>
</kml>
