<?xml version="1.0" encoding="UTF-8"?>
<kml xmlns="http://www.opengis.net/kml/2.2" xmlns:gx="http://www.google.com/kml/ext/2.2" xmlns:kml="http://www.opengis.net/kml/2.2" xmlns:atom="http://www.w3.org/2005/Atom">
<Document>
	<name>Proposed Land.kml</name>
	<Schema name="Land" id="S_Land_DDDS">
		<SimpleField type="long" name="OID_"><displayName>&lt;b&gt;OID_&lt;/b&gt;</displayName>
</SimpleField>
		<SimpleField type="double" name="Shape_Leng"><displayName>&lt;b&gt;Shape_Leng&lt;/b&gt;</displayName>
</SimpleField>
		<SimpleField type="double" name="Shape_Area"><displayName>&lt;b&gt;Shape_Area&lt;/b&gt;</displayName>
</SimpleField>
		<SimpleField type="double" name="Area_ha"><displayName>&lt;b&gt;Area_ha&lt;/b&gt;</displayName>
</SimpleField>
		<SimpleField type="string" name="Details"><displayName>&lt;b&gt;Details&lt;/b&gt;</displayName>
</SimpleField>
	</Schema>
	<Style id="falseColor">
		<IconStyle>
		</IconStyle>
		<BalloonStyle>
			<text><![CDATA[<table border="0">
  <tr><td><b>OID_</b></td><td>$[Land/OID_]</td></tr>
  <tr><td><b>Shape_Leng</b></td><td>$[Land/Shape_Leng]</td></tr>
  <tr><td><b>Shape_Area</b></td><td>$[Land/Shape_Area]</td></tr>
  <tr><td><b>Area_ha</b></td><td>$[Land/Area_ha]</td></tr>
  <tr><td><b>Details</b></td><td>$[Land/Details]</td></tr>
</table>
]]></text>
		</BalloonStyle>
		<ListStyle>
		</ListStyle>
		<LineStyle>
			<color>ff00ffff</color>
		</LineStyle>
		<PolyStyle>
			<color>8000ffff</color>
		</PolyStyle>
		<gx:IconStackStyle>
		</gx:IconStackStyle>
	</Style>
	<StyleMap id="falseColor0">
		<Pair>
			<key>normal</key>
			<styleUrl>#falseColor1</styleUrl>
		</Pair>
		<Pair>
			<key>highlight</key>
			<styleUrl>#falseColor</styleUrl>
		</Pair>
	</StyleMap>
	<Style id="falseColor1">
		<IconStyle>
		</IconStyle>
		<BalloonStyle>
			<text><![CDATA[<table border="0">
  <tr><td><b>OID_</b></td><td>$[Land/OID_]</td></tr>
  <tr><td><b>Shape_Leng</b></td><td>$[Land/Shape_Leng]</td></tr>
  <tr><td><b>Shape_Area</b></td><td>$[Land/Shape_Area]</td></tr>
  <tr><td><b>Area_ha</b></td><td>$[Land/Area_ha]</td></tr>
  <tr><td><b>Details</b></td><td>$[Land/Details]</td></tr>
</table>
]]></text>
		</BalloonStyle>
		<ListStyle>
		</ListStyle>
		<LineStyle>
			<color>ff00ffff</color>
		</LineStyle>
		<PolyStyle>
			<color>8000ffff</color>
		</PolyStyle>
	</Style>
	<StyleMap id="falseColor2">
		<Pair>
			<key>normal</key>
			<styleUrl>#falseColor4</styleUrl>
		</Pair>
		<Pair>
			<key>highlight</key>
			<styleUrl>#falseColor3</styleUrl>
		</Pair>
	</StyleMap>
	<Style id="falseColor3">
		<IconStyle>
		</IconStyle>
		<BalloonStyle>
			<text><![CDATA[<table border="0">
  <tr><td><b>OID_</b></td><td>$[Land/OID_]</td></tr>
  <tr><td><b>Shape_Leng</b></td><td>$[Land/Shape_Leng]</td></tr>
  <tr><td><b>Shape_Area</b></td><td>$[Land/Shape_Area]</td></tr>
  <tr><td><b>Area_ha</b></td><td>$[Land/Area_ha]</td></tr>
  <tr><td><b>Details</b></td><td>$[Land/Details]</td></tr>
</table>
]]></text>
		</BalloonStyle>
		<ListStyle>
		</ListStyle>
		<LineStyle>
		</LineStyle>
		<PolyStyle>
			<color>8000ff00</color>
		</PolyStyle>
		<gx:IconStackStyle>
		</gx:IconStackStyle>
	</Style>
	<Style id="falseColor4">
		<IconStyle>
		</IconStyle>
		<BalloonStyle>
			<text><![CDATA[<table border="0">
  <tr><td><b>OID_</b></td><td>$[Land/OID_]</td></tr>
  <tr><td><b>Shape_Leng</b></td><td>$[Land/Shape_Leng]</td></tr>
  <tr><td><b>Shape_Area</b></td><td>$[Land/Shape_Area]</td></tr>
  <tr><td><b>Area_ha</b></td><td>$[Land/Area_ha]</td></tr>
  <tr><td><b>Details</b></td><td>$[Land/Details]</td></tr>
</table>
]]></text>
		</BalloonStyle>
		<ListStyle>
		</ListStyle>
		<LineStyle>
		</LineStyle>
		<PolyStyle>
			<color>8000ff00</color>
		</PolyStyle>
	</Style>
	<Folder id="layer 0">
		<name>Land</name>
		<open>1</open>
		<Placemark>
			<name>Non-Forest Land</name>
			<styleUrl>#falseColor0</styleUrl>
			<ExtendedData>
				<SchemaData schemaUrl="#S_Land_DDDS">
					<SimpleData name="OID_">0</SimpleData>
					<SimpleData name="Shape_Leng">16207.8</SimpleData>
					<SimpleData name="Shape_Area">608048</SimpleData>
					<SimpleData name="Area_ha">60.8048</SimpleData>
					<SimpleData name="Details">Non-Forest Land</SimpleData>
				</SchemaData>
			</ExtendedData>
			<MultiGeometry>
				<Polygon>
					<outerBoundaryIs>
						<LinearRing>
							<coordinates>
								80.34362911664822,19.58642885130528,0 80.34302509279513,19.58607757342394,0 80.34294108788849,19.58564211414438,0 80.34398295768413,19.58501947803911,0 80.34407326219696,19.58639221168131,0 80.34362911664822,19.58642885130528,0 
							</coordinates>
						</LinearRing>
					</outerBoundaryIs>
				</Polygon>
				<Polygon>
					<outerBoundaryIs>
						<LinearRing>
							<coordinates>
								80.34687280842792,19.58592896483794,0 80.34697860477736,19.58596760282903,0 80.34722992677597,19.58620282673287,0 80.34698139495133,19.58652709622145,0 80.34607331207195,19.58650467759081,0 80.34590975027857,19.58577723525137,0 80.3462628842139,19.58564303835785,0 80.34647064822038,19.58556408276279,0 80.34662815295444,19.58570698793444,0 80.34687280842792,19.58592896483794,0 
							</coordinates>
						</LinearRing>
					</outerBoundaryIs>
				</Polygon>
				<Polygon>
					<outerBoundaryIs>
						<LinearRing>
							<coordinates>
								80.33614817419199,19.58746165196811,0 80.33565527077991,19.58769893143171,0 80.3355724843279,19.58765680306568,0 80.33623891143635,19.58699568404035,0 80.33626316364968,19.58710343303632,0 80.33614817419199,19.58746165196811,0 
							</coordinates>
						</LinearRing>
					</outerBoundaryIs>
				</Polygon>
				<Polygon>
					<outerBoundaryIs>
						<LinearRing>
							<coordinates>
								80.34567269972263,19.58802566506922,0 80.34547653936858,19.58818634217452,0 80.34504021354424,19.58847167214161,0 80.34474935395554,19.58865591355442,0 80.34461043617186,19.58869725103274,0 80.34459923053184,19.5871959184339,0 80.3441183264481,19.58718318583352,0 80.34432850434349,19.58667587303088,0 80.3445981671282,19.58705342838126,0 80.34472224945297,19.58721337429445,0 80.34592194470451,19.58721364630363,0 80.34562944117393,19.58740369384365,0 80.34562974335336,19.58740394706262,0 80.34563767254595,19.5874041430152,0 80.34561126278321,19.58769693929657,0 80.34561098302255,19.5876968009243,0 80.34564772909238,19.58789260384238,0 80.34567269972263,19.58802566506922,0 
							</coordinates>
						</LinearRing>
					</outerBoundaryIs>
				</Polygon>
				<Polygon>
					<outerBoundaryIs>
						<LinearRing>
							<coordinates>
								80.34765767653191,19.58733734897981,0 80.34811739381911,19.58781959313526,0 80.34820722909392,19.58806379533656,0 80.3478578561585,19.58837096371537,0 80.34760721335795,19.58859241637331,0 80.34742335287295,19.58914406001124,0 80.34612079529167,19.58934735367278,0 80.34623564855622,19.58901781878041,0 80.3462435925767,19.5889246011609,0 80.34650348484996,19.58828715943214,0 80.34611936581878,19.58782670439612,0 80.3464681908647,19.58765581999993,0 80.34696846365949,19.58746396628733,0 80.34748421906971,19.58718609130087,0 80.3475897091688,19.58730123933582,0 80.34765767653191,19.58733734897981,0 
							</coordinates>
						</LinearRing>
					</outerBoundaryIs>
				</Polygon>
				<Polygon>
					<outerBoundaryIs>
						<LinearRing>
							<coordinates>
								80.35320606005932,19.59091493211679,0 80.35300237802629,19.59074922636739,0 80.3529895905353,19.59016100465225,0 80.35298460188109,19.5895154299458,0 80.3532209907461,19.58907156083937,0 80.35325183608933,19.58892821459693,0 80.35339686210857,19.58862030196586,0 80.35403370570963,19.58858842695703,0 80.35403378159371,19.58858852572842,0 80.35419924540861,19.58858024443717,0 80.35413710573596,19.58872365408764,0 80.35413708297177,19.58872362418508,0 80.3537027467933,19.58972601942022,0 80.35320606005932,19.59091493211679,0 
							</coordinates>
						</LinearRing>
					</outerBoundaryIs>
				</Polygon>
				<Polygon>
					<outerBoundaryIs>
						<LinearRing>
							<coordinates>
								80.34116640497371,19.59115442596878,0 80.33916851266588,19.59111842267312,0 80.33956369795976,19.59071819240543,0 80.33968541273407,19.59056561729104,0 80.33976668607157,19.5904320218387,0 80.33995942699211,19.59018406919121,0 80.34006166138118,19.5898592736826,0 80.34061806066363,19.58951701264825,0 80.34091938545072,19.58986241111468,0 80.34109007425057,19.59007343859868,0 80.34194830481083,19.58995224424717,0 80.34191496208165,19.59070766221663,0 80.34116640497371,19.59115442596878,0 
							</coordinates>
						</LinearRing>
					</outerBoundaryIs>
				</Polygon>
				<Polygon>
					<outerBoundaryIs>
						<LinearRing>
							<coordinates>
								80.34808614252563,19.59454298882329,0 80.34801368512255,19.59475970556525,0 80.34824622740247,19.59527699235121,0 80.34822126938538,19.5958363840321,0 80.34848474959858,19.59618880585147,0 80.34837058821076,19.59634619641366,0 80.34711427991452,19.59632730372564,0 80.34632918728653,19.59582236014358,0 80.34590201507933,19.59563252316727,0 80.34565240178257,19.59559575260856,0 80.34573197002193,19.59463488025112,0 80.34539930877031,19.59454759766404,0 80.34454489605029,19.59434365371215,0 80.34453054335187,19.59414993464916,0 80.34593979446866,19.59377489277612,0 80.34721301117621,19.59334913686835,0 80.34838627538795,19.59331034365092,0 80.34817127298423,19.59407706197883,0 80.34808614252563,19.59454298882329,0 
							</coordinates>
						</LinearRing>
					</outerBoundaryIs>
				</Polygon>
				<Polygon>
					<outerBoundaryIs>
						<LinearRing>
							<coordinates>
								80.33984574608506,19.59786204172597,0 80.33932392810424,19.59775971111283,0 80.33854174209587,19.59770470455048,0 80.3384809931743,19.59761387407094,0 80.33831990682029,19.59739751890012,0 80.33798098281902,19.59696950620948,0 80.33796133138539,19.5969448634478,0 80.33793499541066,19.59691238125771,0 80.3378540009072,19.59681341463649,0 80.33786017272877,19.59679577522571,0 80.33787313578136,19.59675872298184,0 80.33788628985803,19.59672112472269,0 80.33794378700243,19.59655678259291,0 80.33933918369995,19.59720033841514,0 80.33934172891746,19.597107048189,0 80.34000010012205,19.59713097817467,0 80.34046166092719,19.5971613589825,0 80.34018606746866,19.59792784375172,0 80.33984574608506,19.59786204172597,0 
							</coordinates>
						</LinearRing>
					</outerBoundaryIs>
				</Polygon>
				<Polygon>
					<outerBoundaryIs>
						<LinearRing>
							<coordinates>
								80.34781447146234,19.59832275437744,0 80.34787701678103,19.59807603739643,0 80.34899893457202,19.59691018176312,0 80.34926490218795,19.59644063319178,0 80.35127676405317,19.59681357919593,0 80.35165379967601,19.59716162392961,0 80.35186004445283,19.59763457822881,0 80.35101968824193,19.59800812932167,0 80.34930090426519,19.59767255127895,0 80.34936410640671,19.59783211438268,0 80.34921639968758,19.59789386525702,0 80.34908852736676,19.59769614992427,0 80.34849387787364,19.59782311241987,0 80.34831473188247,19.59814165601297,0 80.34814068390597,19.59813385423755,0 80.34805646273081,19.59837384014054,0 80.34781447146234,19.59832275437744,0 
							</coordinates>
						</LinearRing>
					</outerBoundaryIs>
				</Polygon>
				<Polygon>
					<outerBoundaryIs>
						<LinearRing>
							<coordinates>
								80.3820277337681,19.59861815278761,0 80.38203818892173,19.59868819311355,0 80.38205056221584,19.59877107391337,0 80.38205763087086,19.59883325155565,0 80.38178593269505,19.59912673494044,0 80.38164267928512,19.59964269081195,0 80.38109678328836,19.59988947665199,0 80.3806026623099,19.59979214121356,0 80.38077560928896,19.59942931002359,0 80.38095795174046,19.59924822321564,0 80.38099163187366,19.59898513830542,0 80.38197837660186,19.59828750930662,0 80.38198807212849,19.59835245486083,0 80.3820277337681,19.59861815278761,0 
							</coordinates>
						</LinearRing>
					</outerBoundaryIs>
				</Polygon>
				<Polygon>
					<outerBoundaryIs>
						<LinearRing>
							<coordinates>
								80.37002190704595,19.60260902029763,0 80.37010179318922,19.60288127331584,0 80.37025752296562,19.60338391813321,0 80.37031300966061,19.60371286765307,0 80.37041846845642,19.6041675182333,0 80.37044888923468,19.60445453855989,0 80.36997588045034,19.60444093071139,0 80.37007770577783,19.60420816884385,0 80.37013556637031,19.60392743392374,0 80.37011142975656,19.60364641235948,0 80.37004351510858,19.60326959912475,0 80.36983283376897,19.6026977851244,0 80.36976146128676,19.60256125088772,0 80.369275915625,19.60188171560144,0 80.37012300646956,19.60154981034632,0 80.3704111735376,19.60190003202414,0 80.37040759996064,19.60191048218984,0 80.37067282033559,19.6018863923976,0 80.37067236623778,19.60188301200259,0 80.37062169836089,19.60158526127292,0 80.37063792203698,19.60158822773931,0 80.37035823397986,19.60121374186688,0 80.37025323147481,19.60064253512094,0 80.37111394953747,19.60070232535006,0 80.37159388182266,19.6005545646306,0 80.37157559610097,19.60120304804177,0 80.3714262492508,19.60149243069257,0 80.37132131978792,19.60171322804466,0 80.37140177101928,19.60211100543472,0 80.37154937678118,19.60226992126782,0 80.37163079195157,19.60241963910598,0 80.37169337612231,19.60255370029198,0 80.37202176486238,19.60244192279116,0 80.3721209320873,19.60208063720012,0 80.37211936717817,19.60167118035133,0 80.37271472280609,19.60184958619942,0 80.37312175175499,19.60179720637395,0 80.37379461304124,19.60150665282825,0 80.37477672218002,19.60035044909621,0 80.37496719764447,19.60002534226255,0 80.37547175266072,19.60003306827391,0 80.3751822940954,19.60067463477167,0 80.37514021220618,19.60095542636217,0 80.37480746362701,19.60137269009146,0 80.37523694791658,19.60122175619752,0 80.37529015599317,19.60132654465071,0 80.37544050505709,19.6015930602236,0 80.37555638187746,19.60180266978083,0 80.37583107334696,19.60171993820968,0 80.37626063735955,19.60154808135457,0 80.3771178180109,19.60089054386911,0 80.377350382141,19.60110055560356,0 80.37724893721942,19.60123768633748,0 80.37725799481741,19.60134232166629,0 80.37749420837389,19.601423831667,0 80.37780285184283,19.60153249092123,0 80.37822892707669,19.60144728982925,0 80.37831753880816,19.60136690073251,0 80.3789051734541,19.60109396708155,0 80.37913412578895,19.60060161998226,0 80.3793546174379,19.60067111966515,0 80.37925822032356,19.60113702511313,0 80.37864703146128,19.60179542128035,0 80.37932076742474,19.60209661305723,0 80.37924137516937,19.60223979683171,0 80.37875779846193,19.60251607865329,0 80.37869403569806,19.60269518080204,0 80.37843869178198,19.60266740166909,0 80.37822827996332,19.60243654691705,0 80.37779366116921,19.60228262339413,0 80.37737721613316,19.60232302572513,0 80.37698708227198,19.60208258233417,0 80.37668430770168,19.60208751307974,0 80.37628128462154,19.60191875129751,0 80.37595163357615,19.60235097088084,0 80.3759640751871,19.60239584399194,0 80.3760359182313,19.60257541467774,0 80.37600216902514,19.60314912826702,0 80.37545326836234,19.60318906826361,0 80.37534750006665,19.60362804015373,0 80.37479218599589,19.60369485440798,0 80.37437178698444,19.60312554276095,0 80.37433420916432,19.60305667215637,0 80.37430298437475,19.60297586899401,0 80.37422466203782,19.60284110608274,0 80.37412771907805,19.60262857214785,0 80.37413743445335,19.6025628541811,0 80.3739897776785,19.60241589483821,0 80.37392701654505,19.60233498205541,0 80.37357656692325,19.60243537970041,0 80.3732766451818,19.60251802092851,0 80.37304531596278,19.60280413135074,0 80.37242912200053,19.60311878666179,0 80.37212585858191,19.60324923361075,0 80.37199736983219,19.60303957710596,0 80.37178635209467,19.60296711303901,0 80.37154697537966,19.602888572074,0 80.37138636959322,19.6028282379575,0 80.37117851837263,19.60275279581113,0 80.37080952656504,19.6027544962396,0 80.37058856587102,19.60276028792553,0 80.37019680626371,19.60252690912657,0 80.3700221611608,19.6026089000947,0 80.37002190704595,19.60260902029763,0 
							</coordinates>
						</LinearRing>
					</outerBoundaryIs>
				</Polygon>
				<Polygon>
					<outerBoundaryIs>
						<LinearRing>
							<coordinates>
								80.34569125423451,19.60561494781733,0 80.34573240900518,19.60635629134497,0 80.34561822205212,19.60651726538124,0 80.34435762944123,19.60629151924677,0 80.3445948784434,19.60533600472606,0 80.34497967810692,19.60532544856544,0 80.34519429888223,19.60528438817507,0 80.34572549820301,19.60494560807134,0 80.34597583705282,19.60543068318306,0 80.34569125423451,19.60561494781733,0 
							</coordinates>
						</LinearRing>
					</outerBoundaryIs>
				</Polygon>
				<Polygon>
					<outerBoundaryIs>
						<LinearRing>
							<coordinates>
								80.36182670177664,19.60803273396849,0 80.36090530669344,19.60815499312985,0 80.36089352769147,19.60714477537568,0 80.36121498628762,19.60720269988439,0 80.36181474113256,19.60706734628834,0 80.36234526537243,19.60689289078022,0 80.362430590271,19.60764933162118,0 80.36220854291763,19.60797431323728,0 80.36197113879682,19.60819463464368,0 80.36182670177664,19.60803273396849,0 
							</coordinates>
						</LinearRing>
					</outerBoundaryIs>
				</Polygon>
				<Polygon>
					<outerBoundaryIs>
						<LinearRing>
							<coordinates>
								80.372781176451,19.60608753317497,0 80.37393191860457,19.60618717406451,0 80.37443009208859,19.6078506179545,0 80.37472459530325,19.60835673022088,0 80.37446826016996,19.60858298144048,0 80.37413136021955,19.60843835341672,0 80.37406599828959,19.60821397370439,0 80.37354535341383,19.60746798036797,0 80.37343883071337,19.60728529886928,0 80.37325736017281,19.60691108115926,0 80.3729773477245,19.60673676288749,0 80.37271943613338,19.60655654338584,0 80.37215396658291,19.6064496897483,0 80.37150840014725,19.60644118561898,0 80.37069171767672,19.60616532477214,0 80.37043375809486,19.60606304762159,0 80.3700997256849,19.60610563565025,0 80.37030296672278,19.60660705929734,0 80.36926675431414,19.6071909386552,0 80.36898602487447,19.60801005399843,0 80.36820227128817,19.60712982706657,0 80.36750177441134,19.6068978381877,0 80.36740717647238,19.60684818671125,0 80.36740923022275,19.60688484117696,0 80.36738492817186,19.60689555736325,0 80.36764327740259,19.60813445721372,0 80.36735783039173,19.60822192030685,0 80.36657455713994,19.60786530717419,0 80.36618147463416,19.60742328754696,0 80.36604962767365,19.60744910857628,0 80.36591313267438,19.6075131842799,0 80.36570726764876,19.60725184525428,0 80.36478097852971,19.60733704698803,0 80.36492126389328,19.6069502071304,0 80.36492461739455,19.60693666758704,0 80.36390448758264,19.60718410881966,0 80.36372458079374,19.60673875556215,0 80.36411102221872,19.60663252769421,0 80.36428205580769,19.60644663734629,0 80.36506748615885,19.60633624815918,0 80.36549397442047,19.60631145032728,0 80.36617780674401,19.60628755605863,0 80.36690812002378,19.60599125528459,0 80.36706666499209,19.60609462324447,0 80.3673620597328,19.60604305921366,0 80.36826029468193,19.60583891537287,0 80.36867916201815,19.60569759618352,0 80.36958084430283,19.60544970313687,0 80.36991416970604,19.60537555302738,0 80.37021895140714,19.60524554723049,0 80.37087761473266,19.6055940581128,0 80.37138611522789,19.60582468999587,0 80.37163122960118,19.60599689729389,0 80.37210687023446,19.6060739221517,0 80.372781176451,19.60608753317497,0 
							</coordinates>
						</LinearRing>
					</outerBoundaryIs>
				</Polygon>
			</MultiGeometry>
		</Placemark>
		<Placemark>
			<name>Forest Land</name>
			<styleUrl>#falseColor2</styleUrl>
			<ExtendedData>
				<SchemaData schemaUrl="#S_Land_DDDS">
					<SimpleData name="OID_">0</SimpleData>
					<SimpleData name="Shape_Leng">44566.3</SimpleData>
					<SimpleData name="Shape_Area">9.36701e+06</SimpleData>
					<SimpleData name="Area_ha">936.701</SimpleData>
					<SimpleData name="Details">Proposed Forest Land</SimpleData>
				</SchemaData>
			</ExtendedData>
			<MultiGeometry>
				<Polygon>
					<outerBoundaryIs>
						<LinearRing>
							<coordinates>
								80.36177125090511,19.59666707065667,0 80.36152058503812,19.59689571402471,0 80.36127033190182,19.59706041328922,0 80.36119651368529,19.5971089948177,0 80.36108046177264,19.59718537337682,0 80.36006888717804,19.59798500694094,0 80.3591151456534,19.59831677498462,0 80.3597437346744,19.59777290957199,0 80.36030098084711,19.5972670579759,0 80.36040122233739,19.59717606125574,0 80.36063021670122,19.59697080088568,0 80.36090092866334,19.59680984665678,0 80.36096107676121,19.59675193071273,0 80.3611340673758,19.59658536306762,0 80.36136204713324,19.59646475443142,0 80.36176939713964,19.59617029998999,0 80.362208304126,19.59651559720629,0 80.36177125090511,19.59666707065667,0 
							</coordinates>
						</LinearRing>
					</outerBoundaryIs>
				</Polygon>
				<Polygon>
					<outerBoundaryIs>
						<LinearRing>
							<coordinates>
								80.35695704162025,19.60177216503123,0 80.35650745966298,19.60173181287945,0 80.35650585622659,19.60173170232872,0 80.35649398109253,19.60173111862911,0 80.35598801809191,19.60170625417465,0 80.35566936861095,19.601576155883,0 80.35566781478927,19.60157555933079,0 80.35566620067527,19.60157501768654,0 80.35566456435647,19.60157454464134,0 80.35566290582211,19.60157414290625,0 80.35566122984336,19.60157381159455,0 80.35565954118447,19.60157355162703,0 80.3556578398418,19.60157336390731,0 80.35565613343998,19.60157324936629,0 80.35565442198633,19.6015732061967,0 80.3556533034248,19.60157321755953,0 80.35484542116632,19.60159278771083,0 80.35482046334734,19.60159339327739,0 80.3547780662475,19.60159441986209,0 80.35462732470442,19.60159807127905,0 80.35459069005974,19.60158782355535,0 80.3544760285598,19.60155572768242,0 80.35458678016585,19.60144037128823,0 80.35460048426471,19.60142586866061,0 80.35461748544493,19.60140809211589,0 80.35476983468256,19.60126207774518,0 80.35523785600218,19.60081352007173,0 80.35525594627399,19.60079615310407,0 80.35575063546662,19.60032126083664,0 80.35575889635652,19.60032021862128,0 80.35582137266613,19.60025335388394,0 80.35586137313858,19.60021495375182,0 80.35643369314101,19.59982809905271,0 80.35652430472568,19.59976685139712,0 80.35657911279401,19.59972980433902,0 80.35664927912092,19.59968254193807,0 80.35744519813649,19.59930173223938,0 80.35744596527,19.5993013689901,0 80.35744601685722,19.59930134477503,0 80.35744672479689,19.59930100029167,0 80.35828634182519,19.59889778074768,0 80.35828704882577,19.59889743173921,0 80.3582885404456,19.5988966373065,0 80.3582899932253,19.59889577857525,0 80.35829014999354,19.59889568063392,0 80.35896323062741,19.59847353575178,0 80.35895421828161,19.5985174832788,0 80.35892102458638,19.59868824198825,0 80.35875193522259,19.59955810408353,0 80.35873717244903,19.59963513961428,0 80.35776117187139,19.59977358572218,0 80.35776014904388,19.59977374473694,0 80.35775847145078,19.59977406407809,0 80.35775680978442,19.59977445486554,0 80.35775516881949,19.59977491530894,0 80.35775355141676,19.59977544541846,0 80.35775196044381,19.59977604339704,0 80.35775039876138,19.59977670925489,0 80.35774887114775,19.59977744029796,0 80.35774737856366,19.59977823472244,0 80.35774592577309,19.59977909344893,0 80.3577445156547,19.59978001196935,0 80.35774315011906,19.5997809893869,0 80.35774183203385,19.59978202390437,0 80.35774056426692,19.59978311372477,0 80.35773934873249,19.59978425704748,0 80.35773819021249,19.59978545027496,0 80.35773708776416,19.59978669069285,0 80.3577360461552,19.59978797831809,0 80.35773506636063,19.59978930773223,0 80.35773415029105,19.59979067803838,0 80.35773329891437,19.59979208562531,0 80.35773251700535,19.59979352870277,0 80.35773180267488,19.59979500274569,0 80.35773115974433,19.59979650596029,0 80.35773058822797,19.59979803473204,0 80.35773009004004,19.59979958726034,0 80.35772966520203,19.59980115812338,0 80.35772931562467,19.59980274642427,0 80.35772904227936,19.59980434764815,0 80.35772884422327,19.59980595908065,0 80.35772872242438,19.59980757711052,0 80.35772867689695,19.59980919812325,0 80.35772870860175,19.59981082031487,0 80.35772881755672,19.59981243916712,0 80.35772900281904,19.59981405196566,0 80.35772926535655,19.59981565509928,0 80.35772960232309,19.59981724494318,0 80.35773001372941,19.5998188187864,0 80.3577304995826,19.59982037482161,0 80.35773105895079,19.5998219076235,0 80.35773168993035,19.59982341628166,0 80.35773239158935,19.59982489537075,0 80.3577331629815,19.59982634308006,0 80.3577340031639,19.59982775669529,0 80.35773461160001,19.59982869867514,0 80.35774930347544,19.59985064231637,0 80.35793053261466,19.6001213365948,0 80.35813377614039,19.6004249112403,0 80.35813534496513,19.60042725460908,0 80.35813478709879,19.60042726527351,0 80.358133078893,19.60042736762935,0 80.35813137707164,19.60042754320479,0 80.35812968640596,19.60042779111312,0 80.35812800785673,19.60042810955052,0 80.35812634618078,19.60042850124479,0 80.3581247052101,19.60042896169135,0 80.35812308684829,19.60042949180063,0 80.35812149587019,19.60043008978229,0 80.35811993513988,19.6004307547429,0 80.35811840656801,19.60043148578557,0 80.35811691492944,19.60043228111993,0 80.35811546309191,19.60043313894897,0 80.35811405201258,19.60043405837239,0 80.35811268647342,19.60043503579254,0 80.3581113683815,19.6004360712162,0 80.35811010061525,19.6004371601354,0 80.35810918756628,19.60043800903943,0 80.35754441891881,19.60098113422929,0 80.35754411738584,19.6009814277491,0 80.35754295790206,19.6009826209715,0 80.35754185639381,19.60098386229478,0 80.35754081382538,19.60098514901144,0 80.35754038342471,19.60098571768958,0 80.35717330024973,19.601480611893,0 80.35706876035259,19.601621550432,0 80.35695704162025,19.60177216503123,0 
							</coordinates>
						</LinearRing>
					</outerBoundaryIs>
				</Polygon>
				<Polygon>
					<outerBoundaryIs>
						<LinearRing>
							<coordinates>
								80.37655808585883,19.60963688203264,0 80.3755722428062,19.61011405005277,0 80.37506300413736,19.61065742176756,0 80.37378955033647,19.61112640930316,0 80.37244930083114,19.61125085554811,0 80.36972919126119,19.61195147173258,0 80.36835248659736,19.61171711844361,0 80.36562156059063,19.61110965410349,0 80.36539626809656,19.61109467211724,0 80.36469219858371,19.61087218955579,0 80.36309121786779,19.61072952792692,0 80.36228366208627,19.61071224207361,0 80.36205513865673,19.6105420536678,0 80.36190455087268,19.61042990690908,0 80.36147166994338,19.61009810085445,0 80.36120259844239,19.60989163464676,0 80.36078159882413,19.60955514656465,0 80.3605530260029,19.60937245664889,0 80.36025804914601,19.60914463299231,0 80.35973720728146,19.60874236266186,0 80.35929302354405,19.60844939694062,0 80.3589668188972,19.60845531222676,0 80.35856827205528,19.60853621206651,0 80.35804759137454,19.60868008686914,0 80.35792502411441,19.60842609005572,0 80.35747162191142,19.60792148057096,0 80.35701444490525,19.60741266712834,0 80.35481108665088,19.60633484036738,0 80.35355962127163,19.6055745771916,0 80.35344600313952,19.60534658178609,0 80.35344456629025,19.60534367135092,0 80.35339888789042,19.60525115931588,0 80.35340080418324,19.60510902981044,0 80.35342393638543,19.60466909086632,0 80.35343035661909,19.60452545935716,0 80.35348704320172,19.60433147260925,0 80.35365713303649,19.60374940478543,0 80.35385951608754,19.60336454528557,0 80.35387606301144,19.60333307939283,0 80.35393712079228,19.60322624665118,0 80.35432862394225,19.60320917266819,0 80.35438873545654,19.60320655234815,0 80.35470429134472,19.60319279026204,0 80.3550670222627,19.60317914496055,0 80.35526258483247,19.60317087862366,0 80.3554802120176,19.60316568031639,0 80.35632525209923,19.60320456455902,0 80.35717813419689,19.60282276635656,0 80.35724487612339,19.60278857390534,0 80.35752170805718,19.6027092253351,0 80.35784870247619,19.60270465261566,0 80.35819953672605,19.60279580176265,0 80.35826773400926,19.60278482383576,0 80.35924929333669,19.60262573203083,0 80.36004180416644,19.60331522881378,0 80.36002152961817,19.60333810989805,0 80.36013758817369,19.60359291999806,0 80.36017951221025,19.60370974736872,0 80.3610377805652,19.6020965127424,0 80.36104478485855,19.60209737075698,0 80.3616342100197,19.60217716589555,0 80.36212895291368,19.60307552458419,0 80.36247365098257,19.60239924664458,0 80.36290203476661,19.60245571538039,0 80.36321963679717,19.60268995563938,0 80.36369784719182,19.60298334085858,0 80.36429387633193,19.60347080779552,0 80.36458098422959,19.60360093256623,0 80.36440178255053,19.60297626166435,0 80.36406555113091,19.60250644889698,0 80.36336780108068,19.60222424378602,0 80.36354419489193,19.60163669173841,0 80.36336571845477,19.60147108631931,0 80.3628028731632,19.60152887001725,0 80.36177851888196,19.60089881615237,0 80.36153321670156,19.60040541075271,0 80.36088935962378,19.60053463087288,0 80.36054002857429,19.60019148630931,0 80.36050969728625,19.6002057243718,0 80.36019251443311,19.60002591687008,0 80.36016159165813,19.60000838803589,0 80.36014552424054,19.60000144686909,0 80.36008735256705,19.59997631633648,0 80.36008482700805,19.59997501512762,0 80.35969656617749,19.59977495717373,0 80.36018389783055,19.59832553234193,0 80.36023445911177,19.59831559619139,0 80.36079229984121,19.59840424782207,0 80.36142944304186,19.59842082674011,0 80.3616010157503,19.59857134092346,0 80.36216453445087,19.59846813401972,0 80.36300176382554,19.59907552811418,0 80.36396807759989,19.59919370641605,0 80.36476421881166,19.5994738647246,0 80.36510518262104,19.60049839469642,0 80.36635942562901,19.60024221061072,0 80.3670557058072,19.60009998941174,0 80.36725250493868,19.60009709381977,0 80.36726987063253,19.60049524868149,0 80.3681703066818,19.60055937724831,0 80.36833652767938,19.6002465051777,0 80.36834179414979,19.6002457627493,0 80.36961441410541,19.60006620055558,0 80.36961635563402,19.60006592721008,0 80.37008469206738,19.59991549935346,0 80.37018019800378,19.59920974412913,0 80.37045161702552,19.59915689623107,0 80.37015600640302,19.59787323399172,0 80.3698990839539,19.59776713380996,0 80.36990267475028,19.59746684340882,0 80.37066946553431,19.59750969036044,0 80.37101609322985,19.59712452120663,0 80.37131896326491,19.5965727884097,0 80.37135210996438,19.59652630732444,0 80.37147650985617,19.59635186528103,0 80.37148379438042,19.59634165122871,0 80.37154042536901,19.59626223831718,0 80.37155564539025,19.59624089615746,0 80.37161444018081,19.5961584499239,0 80.37308014470104,19.59613541614901,0 80.37454901410602,19.596112319976,0 80.38021693492067,19.59602308890375,0 80.38076316376363,19.59601448006531,0 80.38092995256268,19.59601185127308,0 80.38106640707622,19.596277308907,0 80.38179557394574,19.5976958109549,0 80.38181743054322,19.59773833303344,0 80.38189264363179,19.59799497075431,0 80.38197837660186,19.59828750930662,0 80.38099163187366,19.59898513830542,0 80.38095795174046,19.59924822321564,0 80.38077560928896,19.59942931002359,0 80.3806026623099,19.59979214121356,0 80.38109678328836,19.59988947665199,0 80.38164267928512,19.59964269081195,0 80.38178593269505,19.59912673494044,0 80.38205763087086,19.59883325155565,0 80.38206035430397,19.59885719816446,0 80.38206752999047,19.59892031508431,0 80.3820758007913,19.59899305711515,0 80.38208167200922,19.59904469297338,0 80.38209369581892,19.59915044441562,0 80.3820971305579,19.5991806477505,0 80.38211115637273,19.59930400318752,0 80.38211553486758,19.59934251718012,0 80.38212382970779,19.59941546622888,0 80.38213069453529,19.59947584757748,0 80.38213076743585,19.59947648400991,0 80.38213292809519,19.59949548742879,0 80.38213389495058,19.59950399064752,0 80.38213587292377,19.5995213921398,0 80.38213595596478,19.59952211987747,0 80.38213663773411,19.59952811895763,0 80.38213777803804,19.5995381463557,0 80.38213795886611,19.59953973562453,0 80.38213851334278,19.59954460920124,0 80.3821386494061,19.59955068141501,0 80.3821708347006,19.60099125066698,0 80.38094642984858,19.60170577306938,0 80.38078191066218,19.60315332199307,0 80.38055118436388,19.60449351940328,0 80.38022056781246,19.60641389491369,0 80.38013364690288,19.60690918422669,0 80.37867780797286,19.60757841907787,0 80.37810811975714,19.60799195506736,0 80.37744709682495,19.60875052067876,0 80.37655808585883,19.60963688203264,0 
							</coordinates>
						</LinearRing>
					</outerBoundaryIs>
					<innerBoundaryIs>
						<LinearRing>
							<coordinates>
								80.37472459530325,19.60835673022088,0 80.37443009208859,19.6078506179545,0 80.37393191860457,19.60618717406451,0 80.372781176451,19.60608753317497,0 80.37210687023446,19.6060739221517,0 80.37163122960118,19.60599689729389,0 80.37138611522789,19.60582468999587,0 80.37087761473266,19.6055940581128,0 80.37021895140714,19.60524554723049,0 80.36991416970604,19.60537555302738,0 80.36958084430283,19.60544970313687,0 80.36867916201815,19.60569759618352,0 80.36826029468193,19.60583891537287,0 80.3673620597328,19.60604305921366,0 80.36706666499209,19.60609462324447,0 80.36690812002378,19.60599125528459,0 80.36617780674401,19.60628755605863,0 80.36549397442047,19.60631145032728,0 80.36506748615885,19.60633624815918,0 80.36428205580769,19.60644663734629,0 80.36411102221872,19.60663252769421,0 80.36372458079374,19.60673875556215,0 80.36390448758264,19.60718410881966,0 80.36492461739455,19.60693666758704,0 80.36492126389328,19.6069502071304,0 80.36478097852971,19.60733704698803,0 80.36570726764876,19.60725184525428,0 80.36591313267438,19.6075131842799,0 80.36604962767365,19.60744910857628,0 80.36618147463416,19.60742328754696,0 80.36657455713994,19.60786530717419,0 80.36735783039173,19.60822192030685,0 80.36764327740259,19.60813445721372,0 80.36738492817186,19.60689555736325,0 80.36740923022275,19.60688484117696,0 80.36740717647238,19.60684818671125,0 80.36750177441134,19.6068978381877,0 80.36820227128817,19.60712982706657,0 80.36898602487447,19.60801005399843,0 80.36926675431414,19.6071909386552,0 80.37030296672278,19.60660705929734,0 80.3700997256849,19.60610563565025,0 80.37043375809486,19.60606304762159,0 80.37069171767672,19.60616532477214,0 80.37150840014725,19.60644118561898,0 80.37215396658291,19.6064496897483,0 80.37271943613338,19.60655654338584,0 80.3729773477245,19.60673676288749,0 80.37325736017281,19.60691108115926,0 80.37343883071337,19.60728529886928,0 80.37354535341383,19.60746798036797,0 80.37406599828959,19.60821397370439,0 80.37413136021955,19.60843835341672,0 80.37446826016996,19.60858298144048,0 80.37472459530325,19.60835673022088,0 
							</coordinates>
						</LinearRing>
						<LinearRing>
							<coordinates>
								80.36181474113256,19.60706734628834,0 80.36121498628762,19.60720269988439,0 80.36089352769147,19.60714477537568,0 80.36090530669344,19.60815499312985,0 80.36182670177664,19.60803273396849,0 80.36197113879682,19.60819463464368,0 80.36220854291763,19.60797431323728,0 80.362430590271,19.60764933162118,0 80.36234526537243,19.60689289078022,0 80.36181474113256,19.60706734628834,0 
							</coordinates>
						</LinearRing>
						<LinearRing>
							<coordinates>
								80.37007770577783,19.60420816884385,0 80.36997588045034,19.60444093071139,0 80.37044888923468,19.60445453855989,0 80.37041846845642,19.6041675182333,0 80.37031300966061,19.60371286765307,0 80.37025752296562,19.60338391813321,0 80.37010179318922,19.60288127331584,0 80.37002190704595,19.60260902029763,0 80.3700221611608,19.6026089000947,0 80.37019680626371,19.60252690912657,0 80.37058856587102,19.60276028792553,0 80.37080952656504,19.6027544962396,0 80.37117851837263,19.60275279581113,0 80.37138636959322,19.6028282379575,0 80.37154697537966,19.602888572074,0 80.37178635209467,19.60296711303901,0 80.37199736983219,19.60303957710596,0 80.37212585858191,19.60324923361075,0 80.37242912200053,19.60311878666179,0 80.37304531596278,19.60280413135074,0 80.3732766451818,19.60251802092851,0 80.37357656692325,19.60243537970041,0 80.37392701654505,19.60233498205541,0 80.3739897776785,19.60241589483821,0 80.37413743445335,19.6025628541811,0 80.37412771907805,19.60262857214785,0 80.37422466203782,19.60284110608274,0 80.37430298437475,19.60297586899401,0 80.37433420916432,19.60305667215637,0 80.37437178698444,19.60312554276095,0 80.37479218599589,19.60369485440798,0 80.37534750006665,19.60362804015373,0 80.37545326836234,19.60318906826361,0 80.37600216902514,19.60314912826702,0 80.3760359182313,19.60257541467774,0 80.3759640751871,19.60239584399194,0 80.37595163357615,19.60235097088084,0 80.37628128462154,19.60191875129751,0 80.37668430770168,19.60208751307974,0 80.37698708227198,19.60208258233417,0 80.37737721613316,19.60232302572513,0 80.37779366116921,19.60228262339413,0 80.37822827996332,19.60243654691705,0 80.37843869178198,19.60266740166909,0 80.37869403569806,19.60269518080204,0 80.37875779846193,19.60251607865329,0 80.37924137516937,19.60223979683171,0 80.37932076742474,19.60209661305723,0 80.37864703146128,19.60179542128035,0 80.37925822032356,19.60113702511313,0 80.3793546174379,19.60067111966515,0 80.37913412578895,19.60060161998226,0 80.3789051734541,19.60109396708155,0 80.37831753880816,19.60136690073251,0 80.37822892707669,19.60144728982925,0 80.37780285184283,19.60153249092123,0 80.37749420837389,19.601423831667,0 80.37725799481741,19.60134232166629,0 80.37724893721942,19.60123768633748,0 80.377350382141,19.60110055560356,0 80.3771178180109,19.60089054386911,0 80.37626063735955,19.60154808135457,0 80.37583107334696,19.60171993820968,0 80.37555638187746,19.60180266978083,0 80.37544050505709,19.6015930602236,0 80.37529015599317,19.60132654465071,0 80.37523694791658,19.60122175619752,0 80.37480746362701,19.60137269009146,0 80.37514021220618,19.60095542636217,0 80.3751822940954,19.60067463477167,0 80.37547175266072,19.60003306827391,0 80.37496719764447,19.60002534226255,0 80.37477672218002,19.60035044909621,0 80.37379461304124,19.60150665282825,0 80.37312175175499,19.60179720637395,0 80.37271472280609,19.60184958619942,0 80.37211936717817,19.60167118035133,0 80.3721209320873,19.60208063720012,0 80.37202176486238,19.60244192279116,0 80.37169337612231,19.60255370029198,0 80.37163079195157,19.60241963910598,0 80.37154937678118,19.60226992126782,0 80.37140177101928,19.60211100543472,0 80.37132131978792,19.60171322804466,0 80.3714262492508,19.60149243069257,0 80.37157559610097,19.60120304804177,0 80.37159388182266,19.6005545646306,0 80.37111394953747,19.60070232535006,0 80.37025323147481,19.60064253512094,0 80.37035823397986,19.60121374186688,0 80.37063792203698,19.60158822773931,0 80.37062169836089,19.60158526127292,0 80.37067236623778,19.60188301200259,0 80.37067282033559,19.6018863923976,0 80.37040759996064,19.60191048218984,0 80.3704111735376,19.60190003202414,0 80.37012300646956,19.60154981034632,0 80.369275915625,19.60188171560144,0 80.36976146128676,19.60256125088772,0 80.36983283376897,19.6026977851244,0 80.37004351510858,19.60326959912475,0 80.37011142975656,19.60364641235948,0 80.37013556637031,19.60392743392374,0 80.37007770577783,19.60420816884385,0 
							</coordinates>
						</LinearRing>
					</innerBoundaryIs>
				</Polygon>
				<Polygon>
					<outerBoundaryIs>
						<LinearRing>
							<coordinates>
								80.34628689689531,19.60810727168993,0 80.34491965224025,19.60874229534207,0 80.3436213647427,19.60981264120521,0 80.34222172563517,19.61094246835369,0 80.3400000693274,19.61228844343904,0 80.33986488446671,19.61235685042132,0 80.33941350394207,19.61258525870932,0 80.33940273635612,19.61259070896149,0 80.3393710557569,19.61261233034042,0 80.33919368478576,19.61273338389644,0 80.33883868001361,19.61345554494436,0 80.33882369795749,19.6134743773669,0 80.33848901056837,19.6138950749914,0 80.33637010056823,19.61609811733295,0 80.33568700036427,19.61680832207593,0 80.33564916334963,19.61684765980004,0 80.33564822431681,19.61684689003215,0 80.33563039321086,19.61683225815436,0 80.33292692252702,19.6146138878406,0 80.33292584096318,19.61461300005528,0 80.33318601224251,19.6143108442547,0 80.33366840888094,19.61375059539235,0 80.33455512909184,19.61272075844132,0 80.33498983395383,19.61221588384518,0 80.3352688561061,19.6118659111831,0 80.335307708288,19.6118103935777,0 80.33534266159337,19.61175963832682,0 80.3355254554457,19.61149420814023,0 80.33553107328306,19.61148604983024,0 80.33565801331758,19.61129109598322,0 80.33566139262869,19.6112855888864,0 80.33578687458636,19.61108080676614,0 80.33581321227143,19.61103782365818,0 80.33595339774047,19.61080904378274,0 80.33597128606249,19.61077985189707,0 80.33602757869808,19.61068145915256,0 80.33610430284097,19.61054735671728,0 80.33626733792028,19.61024134444708,0 80.33637382437597,19.6100414710371,0 80.33638557609045,19.61001926167707,0 80.33642684533224,19.60993874026944,0 80.33642939232237,19.60993364306319,0 80.33652273765108,19.6097468260343,0 80.33656004404214,19.60968177693787,0 80.33667288506126,19.60948502537611,0 80.33671616666197,19.60940622825616,0 80.33678730985447,19.60926916713071,0 80.33685523954777,19.60913111818903,0 80.33693058956045,19.60896711355907,0 80.33700517259672,19.60883176206774,0 80.33704675685851,19.608754496639,0 80.33713700180162,19.60857274820638,0 80.3371463034655,19.60855288109954,0 80.33735001497217,19.60818506864489,0 80.3373910538151,19.60811097206414,0 80.33747108128294,19.6079664781491,0 80.33759855216748,19.60773632164921,0 80.33781333923548,19.60749295456772,0 80.33851347116807,19.60681772794474,0 80.33851831330445,19.60681099898508,0 80.33894584496164,19.60621683369558,0 80.33918710085898,19.60566181399007,0 80.33927165610699,19.60546729097841,0 80.33963920024247,19.60402950343203,0 80.33966543874105,19.60392685863753,0 80.33968917417866,19.60383401030175,0 80.33968958519397,19.60383236714294,0 80.33973960420745,19.60363257182141,0 80.33979161552492,19.60334104219317,0 80.33980299191954,19.60325538869152,0 80.33983838130423,19.60296671605796,0 80.33985878535884,19.60275823913312,0 80.33985934214367,19.60275054739304,0 80.33987539635335,19.6025258572836,0 80.33988625255216,19.60223807882665,0 80.33988735418315,19.6019682231076,0 80.33988828094186,19.60174077018918,0 80.33988822638499,19.60173895001349,0 80.33987927861894,19.60144522608563,0 80.3398558556152,19.60119695665618,0 80.33981677701831,19.60088120942654,0 80.33981082035056,19.60083512431993,0 80.33976118903934,19.60054322130544,0 80.33976023153178,19.60053858291313,0 80.33974674460957,19.60047336679267,0 80.33971074994976,19.60029930701608,0 80.33964203605206,19.60001574443135,0 80.33961991192757,19.59994565031024,0 80.33955262556829,19.59973247828305,0 80.33944385923918,19.5994553601532,0 80.33943657677811,19.59943861028431,0 80.33929638916538,19.59911799658344,0 80.33922132687212,19.59893814197576,0 80.33916068696986,19.5987928438603,0 80.33913897769885,19.59874173986107,0 80.33910610793653,19.5986722740819,0 80.33901132094631,19.59847195681896,0 80.33886531835094,19.59821066407812,0 80.33880495812697,19.59811352485401,0 80.33858435518185,19.59776841912921,0 80.33854174209587,19.59770470455048,0 80.33932392810424,19.59775971111283,0 80.33984574608506,19.59786204172597,0 80.34018606746866,19.59792784375172,0 80.34046166092719,19.5971613589825,0 80.34000010012205,19.59713097817467,0 80.33934172891746,19.597107048189,0 80.33933918369995,19.59720033841514,0 80.33794378700243,19.59655678259291,0 80.33788628985803,19.59672112472269,0 80.33787313578136,19.59675872298184,0 80.33786017272877,19.59679577522571,0 80.3378540009072,19.59681341463649,0 80.33714894576933,19.59595190289222,0 80.33709845510135,19.59588322773131,0 80.33659294101356,19.59519565261494,0 80.33654449022039,19.59513096996399,0 80.33546877645972,19.59372123506613,0 80.33546403630486,19.59371503383021,0 80.33506482978578,19.59319372544958,0 80.33473832773313,19.59273189339734,0 80.33461657923694,19.59256768779339,0 80.33439506408472,19.5922826013706,0 80.33344137001636,19.59100971498339,0 80.33334778607819,19.59088909330526,0 80.33315081713964,19.59065980786966,0 80.33303296672744,19.59053612322937,0 80.3328862761277,19.59038776303144,0 80.33285357630609,19.59035562437243,0 80.33285273777788,19.59035479984051,0 80.33285389431335,19.59035365195044,0 80.33285581198645,19.59035174689673,0 80.3328567693779,19.59035079797918,0 80.33285769135323,19.59034988236604,0 80.3328594453132,19.59034813936574,0 80.33286238841249,19.59034520341282,0 80.33286802545094,19.59033963602279,0 80.33287159175147,19.59033609692193,0 80.33288214510718,19.59032562908813,0 80.3328822159541,19.59032555886459,0 80.33289180042743,19.59031605165305,0 80.33289621976189,19.59031166716887,0 80.33290403114199,19.59030391824877,0 80.33290484588555,19.59030310977448,0 80.33290668790964,19.5903012830589,0 80.33291669937601,19.59029135270444,0 80.33292310147323,19.59028500105324,0 80.33292779940399,19.59028034107835,0 80.33293655285657,19.59027165764066,0 80.33295950924139,19.59024888533614,0 80.33298449145957,19.59022410445228,0 80.33301873932147,19.59019013144819,0 80.33307278701,19.59013651466749,0 80.33313178819162,19.59007798761576,0 80.33320535699092,19.59000500882887,0 80.33324975214306,19.58996096855081,0 80.3333702309795,19.58984145555603,0 80.3334232463601,19.58978886502074,0 80.33345180332601,19.58976053685269,0 80.33348702561226,19.58972559682162,0 80.33358503425198,19.58962837257968,0 80.33408840527385,19.58912903125395,0 80.33413676158189,19.58908106088272,0 80.33447140913223,19.58874908883983,0 80.33500706197196,19.5882177151975,0 80.33513655853926,19.58808925087664,0 80.33543469768232,19.5877934912281,0 80.3355724843279,19.58765680306568,0 80.33565527077991,19.58769893143171,0 80.33614817419199,19.58746165196811,0 80.33626316364968,19.58710343303632,0 80.33623891143635,19.58699568404035,0 80.33634222624642,19.58689319219126,0 80.33638574275186,19.58685002169089,0 80.33656409172856,19.58667309094695,0 80.3372160203718,19.58602634529272,0 80.33725083607992,19.58599180510641,0 80.33734448237307,19.58589890202482,0 80.3374656875269,19.58577865859421,0 80.33757019362564,19.58567498295102,0 80.33774555790158,19.58550101032783,0 80.33783624354534,19.58541104294577,0 80.33804944204019,19.58519953609086,0 80.33812054318832,19.58512899772751,0 80.33829566120386,19.58495526761409,0 80.33839475636937,19.58485695834201,0 80.33855803069862,19.58469497641142,0 80.33865264047051,19.58460111644186,0 80.33883000131317,19.58442515923458,0 80.33891340434941,19.58434241466498,0 80.33904326901899,19.58421357726895,0 80.33918761391023,19.58407037396921,0 80.33932787653906,19.58393122027093,0 80.33942292482929,19.58383692319606,0 80.33962526035464,19.58363618598329,0 80.33969281231533,19.58356916818705,0 80.33970014342782,19.58356189523006,0 80.33971168002445,19.58355044918691,0 80.33976743110848,19.58349513940235,0 80.33976756992648,19.58349499984263,0 80.33977074820297,19.58349184774992,0 80.33978671523573,19.58347600623274,0 80.33978819045348,19.58347454317903,0 80.33978941677437,19.58347332591446,0 80.33980699496011,19.58345588628959,0 80.33980862526256,19.58345426927687,0 80.33982338798485,19.58343962341355,0 80.33982798404578,19.583435063179,0 80.33984238490309,19.58342077564768,0 80.33984650326171,19.58341668989502,0 80.33986261578622,19.58340070522056,0 80.33986379136445,19.58339953927858,0 80.33988483500548,19.583378661237,0 80.33988522080551,19.58337827768821,0 80.33990295500898,19.58336068409778,0 80.33990539041194,19.58335826757712,0 80.33991974817464,19.58334402325732,0 80.33992294942311,19.58334084775054,0 80.33993209558126,19.58333177319451,0 80.33993969567892,19.58332423282327,0 80.33995285870907,19.58331117425364,0 80.33995314302581,19.58331089335098,0 80.33996846479873,19.58329569105647,0 80.33997529329746,19.58328891687794,0 80.33998734392935,19.58327696122315,0 80.33998987984467,19.58327444566603,0 80.3399991963938,19.58326520274472,0 80.34000283130517,19.58326159596832,0 80.34000292895239,19.58326149872995,0 80.34001045915976,19.5832540276818,0 80.34001065062201,19.58325383770937,0 80.34001218040191,19.5832523206335,0 80.34001743125067,19.5832471112481,0 80.34001751453752,19.58324702841576,0 80.3400182382626,19.58324631084388,0 80.34001885860143,19.58324569500773,0 80.3400190366641,19.58324551763749,0 80.34002032137253,19.58324424365406,0 80.34002059611788,19.58324397175288,0 80.34002208569534,19.58324249338741,0 80.34002212686208,19.5832424519695,0 80.34002368918708,19.58324090338436,0 80.34002374567126,19.58324084666025,0 80.3400253386385,19.58323926565532,0 80.34002539511891,19.58323920983482,0 80.34002701105669,19.58323760722601,0 80.34002713359604,19.58323748477612,0 80.34002858678856,19.58323604423128,0 80.34002888355845,19.58323574891542,0 80.34003019603018,19.58323444701995,0 80.34003040568108,19.58323423904072,0 80.34003189717261,19.58323275887481,0 80.34003198620211,19.58323267064151,0 80.34003341260654,19.58323125259019,0 80.34003357055148,19.58323109864162,0 80.34003494343142,19.58322971292635,0 80.34003510705652,19.58322956893881,0 80.34003647512147,19.58322819495361,0 80.34003667799898,19.58322801134852,0 80.34003794454041,19.58322674994973,0 80.3400382221571,19.58322647534807,0 80.34003946283087,19.58322524457922,0 80.34003961791554,19.58322509062018,0 80.34004113045954,19.58322359155427,0 80.34004116875127,19.58322355374047,0 80.3400426075832,19.58322212760159,0 80.34004279138111,19.58322194663766,0 80.34004427999741,19.58322047007579,0 80.34004438721193,19.58322036473941,0 80.34004544982292,19.58321931134076,0 80.34004592177672,19.58321884316243,0 80.34004665890468,19.58321811208451,0 80.34004712894057,19.58321764661013,0 80.34004759419453,19.58321718473291,0 80.34004787564692,19.5832169047233,0 80.34004877263772,19.58321601699281,0 80.34004916582892,19.58321615940317,0 80.34025594246816,19.58329085192997,0 80.3406694172039,19.58344304729708,0 80.34107337306718,19.58361341307853,0 80.34127883162398,19.58369924362588,0 80.34142907862714,19.58376201143714,0 80.34144174660197,19.58376704682681,0 80.34164052563692,19.58384210529953,0 80.34169110839542,19.58386120364079,0 80.34172340225409,19.58387183474951,0 80.3417605298124,19.58388042133311,0 80.3418910079929,19.58390410090458,0 80.34218505517718,19.58395746603609,0 80.34220207917866,19.5839604641365,0 80.34231257610088,19.5839799218011,0 80.34238949664325,19.58399346809443,0 80.3425182276364,19.58401613777792,0 80.34291377571445,19.58408705492443,0 80.34314731541519,19.58414407655988,0 80.34332137054717,19.58420911820887,0 80.343590838016,19.58435777336014,0 80.34359856416216,19.58436192219186,0 80.34399837930495,19.58457082673864,0 80.34421498654966,19.58469716607739,0 80.34427955300616,19.58473398029398,0 80.3446281486804,19.58493273342993,0 80.34465287179508,19.58494567157913,0 80.34487757761515,19.58505318099514,0 80.34510627488606,19.58517814536039,0 80.34513415714166,19.58519195972472,0 80.34530555331143,19.585268520605,0 80.34535788571236,19.585287356804,0 80.34537152276461,19.58529094686625,0 80.34562480297573,19.58535283456553,0 80.34564020452621,19.58535627738752,0 80.34601978829586,19.5854332603598,0 80.34647122333409,19.58552126197867,0 80.34648226871275,19.58552325392292,0 80.34689706773348,19.58559209595583,0 80.34695893640043,19.58560396283083,0 80.34710606208479,19.58563218385232,0 80.34736750762636,19.58568233388009,0 80.34770705553103,19.58574936186773,0 80.34782568609241,19.58577980526705,0 80.34795915243798,19.58581405515401,0 80.34823624031391,19.58591769511103,0 80.34836932281848,19.58597844238524,0 80.34846921447064,19.5860240389867,0 80.34847671245774,19.58602736174328,0 80.34853160353747,19.58605072460465,0 80.34868246771634,19.58611493457519,0 80.34872120524149,19.58612907316045,0 80.34908780566138,19.58624157563503,0 80.34909644808864,19.58624412082701,0 80.34911889183822,19.58624975576353,0 80.3493835412781,19.58630809444637,0 80.34941261108327,19.58631338365432,0 80.34963107613123,19.58634486198163,0 80.34972033903038,19.58635772315451,0 80.34974907574843,19.58636167458673,0 80.35002469046532,19.5863995703057,0 80.35046040079942,19.58650102962412,0 80.3504913435694,19.58650695977929,0 80.35054294133471,19.58651475809664,0 80.35100112868645,19.58658400007519,0 80.35144732314642,19.58665316704087,0 80.35182996558831,19.58671858470931,0 80.3518419612851,19.58672044871302,0 80.35186231131213,19.5867227692742,0 80.35207414387179,19.58674146287687,0 80.35210805522858,19.58674301703127,0 80.35213400100736,19.58674227255308,0 80.3522378012298,19.58673597007889,0 80.35246437924975,19.58672221043987,0 80.35286398242499,19.58670961916177,0 80.35288956843925,19.58670799582422,0 80.35321713299446,19.58667668334058,0 80.35322130711414,19.586676241961,0 80.35330587443009,19.58667532441097,0 80.3536157740686,19.58667195967664,0 80.35361598002466,19.58667195770389,0 80.35361610891135,19.58667215426139,0 80.35361663676288,19.58667296312696,0 80.35361690400954,19.58667337163818,0 80.35361729255131,19.58667396764299,0 80.35361776734499,19.58667469227742,0 80.35361817863252,19.58667532270305,0 80.35361875576422,19.58667620674953,0 80.35361902111832,19.58667661163929,0 80.35361975746322,19.58667773843887,0 80.35361996879169,19.58667806270871,0 80.35362080274696,19.58667933896302,0 80.35362098469874,19.58667961794426,0 80.35362183760759,19.58668092318385,0 80.353622051782,19.58668125107856,0 80.35362284309166,19.58668246211607,0 80.35362304684298,19.58668277370743,0 80.35362394713594,19.5866841514101,0 80.35362413572221,19.58668444035545,0 80.35362496493919,19.58668570936343,0 80.35362512975047,19.58668598286125,0 80.35362590038723,19.5866871179167,0 80.35362619320756,19.58668756899188,0 80.35362699306222,19.58668878909666,0 80.35362710583409,19.58668896210103,0 80.35362806014923,19.58669042132721,0 80.35362816534757,19.58669058074948,0 80.35362915472403,19.58669209432127,0 80.35362937174794,19.58669242493716,0 80.3536301933915,19.58669368036301,0 80.35363043410383,19.58669404811411,0 80.35363118087548,19.58669519031333,0 80.35363134482357,19.58669544121643,0 80.35363226881589,19.58669685334328,0 80.35363242139465,19.58669708613227,0 80.35363339656315,19.58669857615781,0 80.35363362116065,19.58669892035589,0 80.35363459539019,19.5867004067634,0 80.35363471005451,19.5867005833892,0 80.35363575155719,19.58670217576675,0 80.35363590602843,19.58670241217716,0 80.35363695796133,19.58670401905071,0 80.35363706694467,19.58670418571587,0 80.35363817289249,19.58670587592029,0 80.35363831788334,19.58670609874177,0 80.35363923619481,19.58670750090791,0 80.35363944847312,19.5867078260848,0 80.35364028243954,19.58670909962807,0 80.35364047481441,19.58670939491263,0 80.35364133720765,19.58671071283744,0 80.35364157128913,19.58671106972076,0 80.35364244315917,19.58671240213818,0 80.35364259004616,19.58671262767744,0 80.35364354815376,19.58671409233915,0 80.35364373200525,19.5867143731345,0 80.35364470812029,19.58671586497072,0 80.35364484269532,19.58671606968156,0 80.35364563779746,19.58671728615457,0 80.35364607088842,19.58671794828656,0 80.35364662528899,19.58671879429754,0 80.35364695413506,19.58671929701069,0 80.35364760898119,19.58672029881221,0 80.35364782789763,19.58672063304953,0 80.35364857372336,19.58672177343799,0 80.35364862679562,19.58672185405447,0 80.35364942379761,19.58672307234158,0 80.35364977918157,19.58672361491116,0 80.35365016962329,19.58672421273,0 80.35365070695919,19.58672503428083,0 80.35365111447288,19.58672565475254,0 80.35365155134879,19.58672632412742,0 80.35365211616886,19.58672718734535,0 80.35365245828751,19.58672770908309,0 80.35365329035085,19.58672898171581,0 80.3536533851226,19.58672912573836,0 80.35365433943814,19.58673058496442,0 80.35365440956441,19.586730692752,0 80.35365547855163,19.58673232679654,0 80.35365572116376,19.58673269636176,0 80.35365665083754,19.5867341184492,0 80.35365679867799,19.58673434399187,0 80.3536577056132,19.58673572985118,0 80.35365798992122,19.58673616372611,0 80.35365869120528,19.58673723617996,0 80.35365889116459,19.58673754233566,0 80.3536596682704,19.58673872892313,0 80.35365989192174,19.5867390713104,0 80.35366064817784,19.58674022619483,0 80.3536608983635,19.58674060934219,0 80.35366182519867,19.58674202599742,0 80.35366199388523,19.58674228414676,0 80.35366284585575,19.58674358576813,0 80.35366296146999,19.586743763301,0 80.35366369308429,19.58674488104678,0 80.35366384566311,19.58674511383577,0 80.3536647260605,19.58674645983864,0 80.35366494497343,19.58674679497959,0 80.35366580547458,19.58674810928286,0 80.35366595141896,19.5867483321077,0 80.35366669345994,19.58674946525319,0 80.35366705736742,19.58675002231195,0 80.35366778234369,19.5867511309973,0 80.3536680363252,19.58675151867654,0 80.35366894704555,19.5867529117787,0 80.35366908446655,19.58675312011433,0 80.35366980470441,19.58675422155338,0 80.35367007195127,19.58675463006449,0 80.35367019989189,19.58675482481119,0 80.35367085284582,19.58675582299117,0 80.35367116368106,19.58675629943341,0 80.35367461515204,19.5867615738498,0 80.35367596845133,19.58676364086552,0 80.35367648872635,19.58676443705243,0 80.35367718621853,19.58676550407063,0 80.35369053057299,19.58678589883646,0 80.35369188291922,19.58678796584863,0 80.35369609822897,19.58679440692374,0 80.35370213498082,19.58680363420268,0 80.35370778034508,19.58681226185199,0 80.35372389857412,19.5868368984237,0 80.35373630473077,19.58685585932099,0 80.35375377058854,19.58688255294474,0 80.35376318964347,19.5868969486598,0 80.35379093411935,19.58693935229405,0 80.3537922684643,19.58694139122735,0 80.35382254612112,19.58698766710576,0 80.35382874115486,19.58699713532292,0 80.35383402830477,19.58700521587072,0 80.35384964241349,19.5870290788946,0 80.3538572912001,19.5870407699157,0 80.35387664394379,19.58707034756084,0 80.3538833346188,19.58708057482404,0 80.35390537501739,19.58711426022039,0 80.35390736232199,19.58711729733203,0 80.3539139478163,19.58712736155744,0 80.3539404802742,19.58716791283054,0 80.35394326837856,19.58717217366331,0 80.35395489937184,19.58718995067777,0 80.35396326273053,19.58720273407555,0 80.35410357789006,19.58741718591276,0 80.35419608791459,19.58755857405179,0 80.35435431325389,19.58780039771916,0 80.35439759174129,19.58786654286628,0 80.35445910682552,19.58796055998989,0 80.35446426610575,19.587968443063,0 80.35496304418615,19.58873074406437,0 80.35516838721753,19.58904457611647,0 80.3555670765751,19.58965390014874,0 80.35574793658263,19.5899303091097,0 80.35596192681533,19.59025735025115,0 80.35620986267941,19.59064755117736,0 80.35642112654205,19.59058646487646,0 80.35688397855644,19.59029120443613,0 80.35698766289376,19.59022506173245,0 80.3572561020559,19.59000747363147,0 80.35757391863295,19.58974634711407,0 80.3578061318686,19.59035872486825,0 80.35822838181616,19.59119660644661,0 80.35852672684065,19.59193447400814,0 80.35854436155977,19.59197808712282,0 80.35901347575502,19.59277683594035,0 80.35957669746797,19.5934105398475,0 80.36003841309838,19.59420587287593,0 80.36041578359779,19.59497123455401,0 80.36041583464771,19.59497134588603,0 80.36080862406602,19.59574542401479,0 80.3610294290297,19.5964427398083,0 80.36103021035119,19.59646969983127,0 80.36103213093456,19.59653608902233,0 80.36031407680808,19.59709880938952,0 80.35966527706898,19.59768328635374,0 80.3589356188409,19.59831397676744,0 80.35821655800771,19.59876339221426,0 80.35737543006258,19.59916183380985,0 80.35657621045188,19.59955511285446,0 80.35576058266953,19.60011048408151,0 80.35514301646795,19.60066003761311,0 80.3546070698677,19.60120840643282,0 80.35451123612535,19.60130646140637,0 80.3538537193299,19.60202447098823,0 80.3533622098419,19.60273589414094,0 80.35295449894546,19.60348545312359,0 80.35267930215024,19.60438285933589,0 80.35267850367187,19.60461083367717,0 80.35252932257843,19.60454694994515,0 80.35245403670042,19.6046438621148,0 80.35232325693045,19.60481220730559,0 80.35057567414549,19.60649275215163,0 80.34834346436463,19.60781963026453,0 80.34628689689531,19.60810727168993,0 
							</coordinates>
						</LinearRing>
					</outerBoundaryIs>
					<innerBoundaryIs>
						<LinearRing>
							<coordinates>
								80.34497967810692,19.60532544856544,0 80.3445948784434,19.60533600472606,0 80.34435762944123,19.60629151924677,0 80.34561822205212,19.60651726538124,0 80.34573240900518,19.60635629134497,0 80.34569125423451,19.60561494781733,0 80.34597583705282,19.60543068318306,0 80.34572549820301,19.60494560807134,0 80.34519429888223,19.60528438817507,0 80.34497967810692,19.60532544856544,0 
							</coordinates>
						</LinearRing>
						<LinearRing>
							<coordinates>
								80.34781447146234,19.59832275437744,0 80.34805646273081,19.59837384014054,0 80.34814068390597,19.59813385423755,0 80.34831473188247,19.59814165601297,0 80.34849387787364,19.59782311241987,0 80.34908852736676,19.59769614992427,0 80.34921639968758,19.59789386525702,0 80.34936410640671,19.59783211438268,0 80.34930090426519,19.59767255127895,0 80.35101968824193,19.59800812932167,0 80.35186004445283,19.59763457822881,0 80.35165379967601,19.59716162392961,0 80.35127676405317,19.59681357919593,0 80.34926490218795,19.59644063319178,0 80.34899893457202,19.59691018176312,0 80.34787701678103,19.59807603739643,0 80.34781447146234,19.59832275437744,0 
							</coordinates>
						</LinearRing>
						<LinearRing>
							<coordinates>
								80.34593979446866,19.59377489277612,0 80.34453054335187,19.59414993464916,0 80.34454489605029,19.59434365371215,0 80.34539930877031,19.59454759766404,0 80.34573197002193,19.59463488025112,0 80.34565240178257,19.59559575260856,0 80.34590201507933,19.59563252316727,0 80.34632918728653,19.59582236014358,0 80.34711427991452,19.59632730372564,0 80.34837058821076,19.59634619641366,0 80.34848474959858,19.59618880585147,0 80.34822126938538,19.5958363840321,0 80.34824622740247,19.59527699235121,0 80.34801368512255,19.59475970556525,0 80.34808614252563,19.59454298882329,0 80.34817127298423,19.59407706197883,0 80.34838627538795,19.59331034365092,0 80.34721301117621,19.59334913686835,0 80.34593979446866,19.59377489277612,0 
							</coordinates>
						</LinearRing>
						<LinearRing>
							<coordinates>
								80.33995942699211,19.59018406919121,0 80.33976668607157,19.5904320218387,0 80.33968541273407,19.59056561729104,0 80.33956369795976,19.59071819240543,0 80.33916851266588,19.59111842267312,0 80.34116640497371,19.59115442596878,0 80.34191496208165,19.59070766221663,0 80.34194830481083,19.58995224424717,0 80.34109007425057,19.59007343859868,0 80.34091938545072,19.58986241111468,0 80.34061806066363,19.58951701264825,0 80.34006166138118,19.5898592736826,0 80.33995942699211,19.59018406919121,0 
							</coordinates>
						</LinearRing>
						<LinearRing>
							<coordinates>
								80.35300237802629,19.59074922636739,0 80.35320606005932,19.59091493211679,0 80.3537027467933,19.58972601942022,0 80.35413708297177,19.58872362418508,0 80.35413710573596,19.58872365408764,0 80.35419924540861,19.58858024443717,0 80.35403378159371,19.58858852572842,0 80.35403370570963,19.58858842695703,0 80.35339686210857,19.58862030196586,0 80.35325183608933,19.58892821459693,0 80.3532209907461,19.58907156083937,0 80.35298460188109,19.5895154299458,0 80.3529895905353,19.59016100465225,0 80.35300237802629,19.59074922636739,0 
							</coordinates>
						</LinearRing>
						<LinearRing>
							<coordinates>
								80.34820722909392,19.58806379533656,0 80.34811739381911,19.58781959313526,0 80.34765767653191,19.58733734897981,0 80.3475897091688,19.58730123933582,0 80.34748421906971,19.58718609130087,0 80.34696846365949,19.58746396628733,0 80.3464681908647,19.58765581999993,0 80.34611936581878,19.58782670439612,0 80.34650348484996,19.58828715943214,0 80.3462435925767,19.5889246011609,0 80.34623564855622,19.58901781878041,0 80.34612079529167,19.58934735367278,0 80.34742335287295,19.58914406001124,0 80.34760721335795,19.58859241637331,0 80.3478578561585,19.58837096371537,0 80.34820722909392,19.58806379533656,0 
							</coordinates>
						</LinearRing>
						<LinearRing>
							<coordinates>
								80.34504021354424,19.58847167214161,0 80.34547653936858,19.58818634217452,0 80.34567269972263,19.58802566506922,0 80.34564784233096,19.58789265937684,0 80.34561126278321,19.58769693929657,0 80.34561727282863,19.58763030500769,0 80.34563767254595,19.5874041430152,0 80.34562974335336,19.58740394706262,0 80.34592194470451,19.58721364630363,0 80.34472224945297,19.58721337429445,0 80.3445981671282,19.58705342838126,0 80.34432850434349,19.58667587303088,0 80.3441183264481,19.58718318583352,0 80.34459923053184,19.5871959184339,0 80.34461043617186,19.58869725103274,0 80.34474935395554,19.58865591355442,0 80.34504021354424,19.58847167214161,0 
							</coordinates>
						</LinearRing>
						<LinearRing>
							<coordinates>
								80.34698139495133,19.58652709622145,0 80.34722992677597,19.58620282673287,0 80.34697860477736,19.58596760282903,0 80.34687280842792,19.58592896483794,0 80.34662815295444,19.58570698793444,0 80.34647064822038,19.58556408276279,0 80.3462628842139,19.58564303835785,0 80.34590975027857,19.58577723525137,0 80.34607331207195,19.58650467759081,0 80.34698139495133,19.58652709622145,0 
							</coordinates>
						</LinearRing>
						<LinearRing>
							<coordinates>
								80.34398295768413,19.58501947803911,0 80.34294108788849,19.58564211414438,0 80.34302509279513,19.58607757342394,0 80.34362911664822,19.58642885130528,0 80.34407326219696,19.58639221168131,0 80.34398295768413,19.58501947803911,0 
							</coordinates>
						</LinearRing>
					</innerBoundaryIs>
				</Polygon>
				<Polygon>
					<outerBoundaryIs>
						<LinearRing>
							<coordinates>
								80.35049116144796,19.61390080462788,0 80.34989406195332,19.61480076311242,0 80.34650302387303,19.61991155608233,0 80.34571304733356,19.62110211034222,0 80.34546205129688,19.62148037613639,0 80.34348833386127,19.62438551271214,0 80.34323134971999,19.62476376129687,0 80.34294614297345,19.62520765589315,0 80.34042592496796,19.62372143927738,0 80.34037803175744,19.62316692068697,0 80.34037649126951,19.62316605927683,0 80.34036117154574,19.62298022325426,0 80.34027847446679,19.62197700191529,0 80.3401550504304,19.62047972655704,0 80.34115044768306,19.61904087596928,0 80.34186757584,19.61800424310965,0 80.3424289278159,19.61719278010026,0 80.3450642003682,19.61326313482412,0 80.34371415799906,19.61200198371566,0 80.34363054978144,19.61036730896609,0 80.34397214534727,19.61006229861492,0 80.34462238498328,19.60961373257313,0 80.34472999255841,19.60951796170909,0 80.3448156750319,19.6094417051463,0 80.34550638411814,19.60895756929693,0 80.34566372115169,19.60884728676011,0 80.34591483868103,19.6087639809463,0 80.34630711738798,19.60853737004982,0 80.34691437990413,19.60847142365907,0 80.34796764666827,19.60833716815044,0 80.348074817594,19.60832350675039,0 80.34811174528558,19.60831879854944,0 80.34906421677262,19.60978050763909,0 80.34975015169668,19.6096506208516,0 80.34995886820808,19.60911320215198,0 80.34983176123706,19.60885915575646,0 80.34981165504989,19.60881897140025,0 80.35010833198255,19.60881930178581,0 80.35011665690774,19.60881810193184,0 80.3509854294112,19.60798613518498,0 80.3511602557431,19.60781871335431,0 80.3511620240207,19.60781839440388,0 80.35116302340447,19.60781743740899,0 80.35117284742843,19.60781644622774,0 80.35171506309011,19.60776176102849,0 80.35204721245721,19.60779022214703,0 80.35281206562337,19.60800399211228,0 80.35343368544738,19.60816202742755,0 80.35387961996973,19.60869511611215,0 80.3538410449645,19.60875510391791,0 80.35182018982847,19.61189762362129,0 80.35049116144796,19.61390080462788,0 
							</coordinates>
						</LinearRing>
					</outerBoundaryIs>
				</Polygon>
			</MultiGeometry>
		</Placemark>
	</Folder>
</Document>
</kml>
