{"type": "FeatureCollection", "features": [{"type": "Feature", "geometry": {"type": "Point", "coordinates": [78.921803, 21.147499]}, "properties": {"hotspot_id": "MH-001-HS-0036", "project_id": "MH-001", "number_of_patches": 711, "mean_probability": 0.1779, "max_probability": 0.3777, "candidate_priority_score": 2.4808}}, {"type": "Feature", "geometry": {"type": "Point", "coordinates": [78.924706, 21.138469]}, "properties": {"hotspot_id": "MH-001-HS-0061", "project_id": "MH-001", "number_of_patches": 154, "mean_probability": 0.2328, "max_probability": 0.4636, "candidate_priority_score": 2.3383}}, {"type": "Feature", "geometry": {"type": "Point", "coordinates": [78.920888, 21.176833]}, "properties": {"hotspot_id": "MH-001-HS-0000", "project_id": "MH-001", "number_of_patches": 493, "mean_probability": 0.166, "max_probability": 0.3321, "candidate_priority_score": 2.0601}}, {"type": "Feature", "geometry": {"type": "Point", "coordinates": [78.931726, 21.140382]}, "properties": {"hotspot_id": "MH-001-HS-0059", "project_id": "MH-001", "number_of_patches": 37, "mean_probability": 0.214, "max_probability": 0.4306, "candidate_priority_score": 1.5663}}, {"type": "Feature", "geometry": {"type": "Point", "coordinates": [78.917198, 21.164506]}, "properties": {"hotspot_id": "MH-001-HS-0011", "project_id": "MH-001", "number_of_patches": 106, "mean_probability": 0.1829, "max_probability": 0.3034, "candidate_priority_score": 1.4178}}, {"type": "Feature", "geometry": {"type": "Point", "coordinates": [78.937899, 21.150134]}, "properties": {"hotspot_id": "MH-001-HS-0031", "project_id": "MH-001", "number_of_patches": 113, "mean_probability": 0.1757, "max_probability": 0.2972, "candidate_priority_score": 1.4075}}, {"type": "Feature", "geometry": {"type": "Point", "coordinates": [78.931545, 21.142909]}, "properties": {"hotspot_id": "MH-001-HS-0057", "project_id": "MH-001", "number_of_patches": 91, "mean_probability": 0.2001, "max_probability": 0.3083, "candidate_priority_score": 1.3942}}, {"type": "Feature", "geometry": {"type": "Point", "coordinates": [78.932343, 21.137355]}, "properties": {"hotspot_id": "MH-001-HS-0065", "project_id": "MH-001", "number_of_patches": 44, "mean_probability": 0.2147, "max_probability": 0.364, "candidate_priority_score": 1.3857}}, {"type": "Feature", "geometry": {"type": "Point", "coordinates": [78.917271, 21.161942]}, "properties": {"hotspot_id": "MH-001-HS-0025", "project_id": "MH-001", "number_of_patches": 39, "mean_probability": 0.2341, "max_probability": 0.3452, "candidate_priority_score": 1.2735}}, {"type": "Feature", "geometry": {"type": "Point", "coordinates": [78.937717, 21.13648]}, "properties": {"hotspot_id": "MH-001-HS-0066", "project_id": "MH-001", "number_of_patches": 49, "mean_probability": 0.2201, "max_probability": 0.3252, "candidate_priority_score": 1.272}}, {"type": "Feature", "geometry": {"type": "Point", "coordinates": [78.931466, 21.147668]}, "properties": {"hotspot_id": "MH-001-HS-0043", "project_id": "MH-001", "number_of_patches": 69, "mean_probability": 0.1668, "max_probability": 0.2523, "candidate_priority_score": 1.072}}, {"type": "Feature", "geometry": {"type": "Point", "coordinates": [78.926183, 21.135899]}, "properties": {"hotspot_id": "MH-001-HS-0068", "project_id": "MH-001", "number_of_patches": 24, "mean_probability": 0.208, "max_probability": 0.3263, "candidate_priority_score": 1.0502}}, {"type": "Feature", "geometry": {"type": "Point", "coordinates": [78.930766, 21.137694]}, "properties": {"hotspot_id": "MH-001-HS-0064", "project_id": "MH-001", "number_of_patches": 26, "mean_probability": 0.2236, "max_probability": 0.3172, "candidate_priority_score": 1.0453}}, {"type": "Feature", "geometry": {"type": "Point", "coordinates": [78.930681, 21.151638]}, "properties": {"hotspot_id": "MH-001-HS-0040", "project_id": "MH-001", "number_of_patches": 33, "mean_probability": 0.1776, "max_probability": 0.2865, "candidate_priority_score": 1.0104}}, {"type": "Feature", "geometry": {"type": "Point", "coordinates": [78.925795, 21.152842]}, "properties": {"hotspot_id": "MH-001-HS-0032", "project_id": "MH-001", "number_of_patches": 21, "mean_probability": 0.1929, "max_probability": 0.3128, "candidate_priority_score": 0.9669}}, {"type": "Feature", "geometry": {"type": "Point", "coordinates": [78.92534, 21.164394]}, "properties": {"hotspot_id": "MH-001-HS-0014", "project_id": "MH-001", "number_of_patches": 33, "mean_probability": 0.1871, "max_probability": 0.2563, "candidate_priority_score": 0.9037}}, {"type": "Feature", "geometry": {"type": "Point", "coordinates": [78.932784, 21.161928]}, "properties": {"hotspot_id": "MH-001-HS-0027", "project_id": "MH-001", "number_of_patches": 17, "mean_probability": 0.239, "max_probability": 0.3093, "candidate_priority_score": 0.8939}}, {"type": "Feature", "geometry": {"type": "Point", "coordinates": [78.919558, 21.177163]}, "properties": {"hotspot_id": "MH-001-HS-0005", "project_id": "MH-001", "number_of_patches": 15, "mean_probability": 0.1881, "max_probability": 0.3175, "candidate_priority_score": 0.8802}}, {"type": "Feature", "geometry": {"type": "Point", "coordinates": [78.921594, 21.164982]}, "properties": {"hotspot_id": "MH-001-HS-0012", "project_id": "MH-001", "number_of_patches": 27, "mean_probability": 0.1975, "max_probability": 0.2641, "candidate_priority_score": 0.8802}}, {"type": "Feature", "geometry": {"type": "Point", "coordinates": [78.930517, 21.163503]}, "properties": {"hotspot_id": "MH-001-HS-0017", "project_id": "MH-001", "number_of_patches": 26, "mean_probability": 0.1867, "max_probability": 0.2566, "candidate_priority_score": 0.8456}}, {"type": "Feature", "geometry": {"type": "Point", "coordinates": [78.932196, 21.163483]}, "properties": {"hotspot_id": "MH-001-HS-0021", "project_id": "MH-001", "number_of_patches": 13, "mean_probability": 0.2034, "max_probability": 0.2722, "candidate_priority_score": 0.7182}}, {"type": "Feature", "geometry": {"type": "Point", "coordinates": [78.931455, 21.134978]}, "properties": {"hotspot_id": "MH-001-HS-0072", "project_id": "MH-001", "number_of_patches": 23, "mean_probability": 0.1935, "max_probability": 0.2238, "candidate_priority_score": 0.7113}}, {"type": "Feature", "geometry": {"type": "Point", "coordinates": [78.932956, 21.152187]}, "properties": {"hotspot_id": "MH-001-HS-0035", "project_id": "MH-001", "number_of_patches": 21, "mean_probability": 0.1734, "max_probability": 0.2232, "candidate_priority_score": 0.69}}, {"type": "Feature", "geometry": {"type": "Point", "coordinates": [78.930652, 21.145668]}, "properties": {"hotspot_id": "MH-001-HS-0051", "project_id": "MH-001", "number_of_patches": 12, "mean_probability": 0.2325, "max_probability": 0.2545, "candidate_priority_score": 0.6528}}, {"type": "Feature", "geometry": {"type": "Point", "coordinates": [78.924947, 21.135068]}, "properties": {"hotspot_id": "MH-001-HS-0071", "project_id": "MH-001", "number_of_patches": 6, "mean_probability": 0.2547, "max_probability": 0.314, "candidate_priority_score": 0.611}}, {"type": "Feature", "geometry": {"type": "Point", "coordinates": [78.923857, 21.152072]}, "properties": {"hotspot_id": "MH-001-HS-0039", "project_id": "MH-001", "number_of_patches": 14, "mean_probability": 0.1277, "max_probability": 0.2172, "candidate_priority_score": 0.5882}}, {"type": "Feature", "geometry": {"type": "Point", "coordinates": [78.933328, 21.135286]}, "properties": {"hotspot_id": "MH-001-HS-0070", "project_id": "MH-001", "number_of_patches": 7, "mean_probability": 0.2125, "max_probability": 0.2736, "candidate_priority_score": 0.569}}, {"type": "Feature", "geometry": {"type": "Point", "coordinates": [78.925127, 21.144431]}, "properties": {"hotspot_id": "MH-001-HS-0055", "project_id": "MH-001", "number_of_patches": 13, "mean_probability": 0.1679, "max_probability": 0.2095, "candidate_priority_score": 0.5529}}, {"type": "Feature", "geometry": {"type": "Point", "coordinates": [78.923106, 21.153034]}, "properties": {"hotspot_id": "MH-001-HS-0038", "project_id": "MH-001", "number_of_patches": 4, "mean_probability": 0.2633, "max_probability": 0.2984, "candidate_priority_score": 0.4802}}, {"type": "Feature", "geometry": {"type": "Point", "coordinates": [78.91839, 21.179535]}, "properties": {"hotspot_id": "MH-001-HS-0002", "project_id": "MH-001", "number_of_patches": 9, "mean_probability": 0.1892, "max_probability": 0.2034, "candidate_priority_score": 0.4682}}, {"type": "Feature", "geometry": {"type": "Point", "coordinates": [78.923818, 21.165008]}, "properties": {"hotspot_id": "MH-001-HS-0013", "project_id": "MH-001", "number_of_patches": 7, "mean_probability": 0.173, "max_probability": 0.2239, "candidate_priority_score": 0.4656}}, {"type": "Feature", "geometry": {"type": "Point", "coordinates": [78.920469, 21.177982]}, "properties": {"hotspot_id": "MH-001-HS-0003", "project_id": "MH-001", "number_of_patches": 7, "mean_probability": 0.1757, "max_probability": 0.2157, "candidate_priority_score": 0.4485}}, {"type": "Feature", "geometry": {"type": "Point", "coordinates": [78.926475, 21.178097]}, "properties": {"hotspot_id": "MH-001-HS-0004", "project_id": "MH-001", "number_of_patches": 3, "mean_probability": 0.2537, "max_probability": 0.2816, "candidate_priority_score": 0.3904}}, {"type": "Feature", "geometry": {"type": "Point", "coordinates": [78.922837, 21.163814]}, "properties": {"hotspot_id": "MH-001-HS-0020", "project_id": "MH-001", "number_of_patches": 4, "mean_probability": 0.2232, "max_probability": 0.2384, "candidate_priority_score": 0.3836}}, {"type": "Feature", "geometry": {"type": "Point", "coordinates": [78.922702, 21.146297]}, "properties": {"hotspot_id": "MH-001-HS-0046", "project_id": "MH-001", "number_of_patches": 5, "mean_probability": 0.2042, "max_probability": 0.2139, "candidate_priority_score": 0.3832}}, {"type": "Feature", "geometry": {"type": "Point", "coordinates": [78.933392, 21.145219]}, "properties": {"hotspot_id": "MH-001-HS-0054", "project_id": "MH-001", "number_of_patches": 3, "mean_probability": 0.2048, "max_probability": 0.2393, "candidate_priority_score": 0.3317}}, {"type": "Feature", "geometry": {"type": "Point", "coordinates": [78.926367, 21.148129]}, "properties": {"hotspot_id": "MH-001-HS-0044", "project_id": "MH-001", "number_of_patches": 5, "mean_probability": 0.1611, "max_probability": 0.1824, "candidate_priority_score": 0.3267}}, {"type": "Feature", "geometry": {"type": "Point", "coordinates": [78.938063, 21.154382]}, "properties": {"hotspot_id": "MH-001-HS-0030", "project_id": "MH-001", "number_of_patches": 3, "mean_probability": 0.22, "max_probability": 0.2345, "candidate_priority_score": 0.325}}, {"type": "Feature", "geometry": {"type": "Point", "coordinates": [78.931865, 21.145398]}, "properties": {"hotspot_id": "MH-001-HS-0053", "project_id": "MH-001", "number_of_patches": 3, "mean_probability": 0.2155, "max_probability": 0.2267, "candidate_priority_score": 0.3143}}, {"type": "Feature", "geometry": {"type": "Point", "coordinates": [78.931056, 21.165364]}, "properties": {"hotspot_id": "MH-001-HS-0015", "project_id": "MH-001", "number_of_patches": 4, "mean_probability": 0.189, "max_probability": 0.1942, "candidate_priority_score": 0.3126}}, {"type": "Feature", "geometry": {"type": "Point", "coordinates": [78.926259, 21.161766]}, "properties": {"hotspot_id": "MH-001-HS-0029", "project_id": "MH-001", "number_of_patches": 5, "mean_probability": 0.137, "max_probability": 0.1604, "candidate_priority_score": 0.2874}}, {"type": "Feature", "geometry": {"type": "Point", "coordinates": [78.932538, 21.145623]}, "properties": {"hotspot_id": "MH-001-HS-0052", "project_id": "MH-001", "number_of_patches": 2, "mean_probability": 0.234, "max_probability": 0.2458, "candidate_priority_score": 0.27}}, {"type": "Feature", "geometry": {"type": "Point", "coordinates": [78.926385, 21.1445]}, "properties": {"hotspot_id": "MH-001-HS-0056", "project_id": "MH-001", "number_of_patches": 3, "mean_probability": 0.1825, "max_probability": 0.1895, "candidate_priority_score": 0.2628}}, {"type": "Feature", "geometry": {"type": "Point", "coordinates": [78.933482, 21.137404]}, "properties": {"hotspot_id": "MH-001-HS-0067", "project_id": "MH-001", "number_of_patches": 3, "mean_probability": 0.1685, "max_probability": 0.1872, "candidate_priority_score": 0.2595}}, {"type": "Feature", "geometry": {"type": "Point", "coordinates": [78.92634, 21.163275]}, "properties": {"hotspot_id": "MH-001-HS-0023", "project_id": "MH-001", "number_of_patches": 2, "mean_probability": 0.2354, "max_probability": 0.2361, "candidate_priority_score": 0.2593}}, {"type": "Feature", "geometry": {"type": "Point", "coordinates": [78.931461, 21.153304]}, "properties": {"hotspot_id": "MH-001-HS-0034", "project_id": "MH-001", "number_of_patches": 2, "mean_probability": 0.2145, "max_probability": 0.2196, "candidate_priority_score": 0.2412}}, {"type": "Feature", "geometry": {"type": "Point", "coordinates": [78.921759, 21.152226]}, "properties": {"hotspot_id": "MH-001-HS-0041", "project_id": "MH-001", "number_of_patches": 2, "mean_probability": 0.1892, "max_probability": 0.212, "candidate_priority_score": 0.2329}}, {"type": "Feature", "geometry": {"type": "Point", "coordinates": [78.926475, 21.165026]}, "properties": {"hotspot_id": "MH-001-HS-0016", "project_id": "MH-001", "number_of_patches": 2, "mean_probability": 0.1554, "max_probability": 0.191, "candidate_priority_score": 0.2098}}, {"type": "Feature", "geometry": {"type": "Point", "coordinates": [78.923914, 21.162062]}, "properties": {"hotspot_id": "MH-001-HS-0028", "project_id": "MH-001", "number_of_patches": 2, "mean_probability": 0.1682, "max_probability": 0.1882, "candidate_priority_score": 0.2068}}, {"type": "Feature", "geometry": {"type": "Point", "coordinates": [78.937255, 21.13956]}, "properties": {"hotspot_id": "MH-001-HS-0062", "project_id": "MH-001", "number_of_patches": 1, "mean_probability": 0.2959, "max_probability": 0.2959, "candidate_priority_score": 0.2051}}, {"type": "Feature", "geometry": {"type": "Point", "coordinates": [78.915965, 21.163006]}, "properties": {"hotspot_id": "MH-001-HS-0024", "project_id": "MH-001", "number_of_patches": 1, "mean_probability": 0.295, "max_probability": 0.295, "candidate_priority_score": 0.2045}}, {"type": "Feature", "geometry": {"type": "Point", "coordinates": [78.931146, 21.162197]}, "properties": {"hotspot_id": "MH-001-HS-0026", "project_id": "MH-001", "number_of_patches": 3, "mean_probability": 0.1287, "max_probability": 0.1455, "candidate_priority_score": 0.2017}}, {"type": "Feature", "geometry": {"type": "Point", "coordinates": [78.92122, 21.176211]}, "properties": {"hotspot_id": "MH-001-HS-0007", "project_id": "MH-001", "number_of_patches": 2, "mean_probability": 0.1741, "max_probability": 0.181, "candidate_priority_score": 0.1989}}, {"type": "Feature", "geometry": {"type": "Point", "coordinates": [78.91556, 21.175402]}, "properties": {"hotspot_id": "MH-001-HS-0009", "project_id": "MH-001", "number_of_patches": 2, "mean_probability": 0.1549, "max_probability": 0.1663, "candidate_priority_score": 0.1827}}, {"type": "Feature", "geometry": {"type": "Point", "coordinates": [78.930248, 21.153304]}, "properties": {"hotspot_id": "MH-001-HS-0033", "project_id": "MH-001", "number_of_patches": 1, "mean_probability": 0.2461, "max_probability": 0.2461, "candidate_priority_score": 0.1706}}, {"type": "Feature", "geometry": {"type": "Point", "coordinates": [78.932943, 21.146566]}, "properties": {"hotspot_id": "MH-001-HS-0047", "project_id": "MH-001", "number_of_patches": 1, "mean_probability": 0.2432, "max_probability": 0.2432, "candidate_priority_score": 0.1686}}, {"type": "Feature", "geometry": {"type": "Point", "coordinates": [78.933482, 21.146566]}, "properties": {"hotspot_id": "MH-001-HS-0048", "project_id": "MH-001", "number_of_patches": 1, "mean_probability": 0.2425, "max_probability": 0.2425, "candidate_priority_score": 0.1681}}, {"type": "Feature", "geometry": {"type": "Point", "coordinates": [78.924588, 21.163275]}, "properties": {"hotspot_id": "MH-001-HS-0022", "project_id": "MH-001", "number_of_patches": 1, "mean_probability": 0.2389, "max_probability": 0.2389, "candidate_priority_score": 0.1656}}, {"type": "Feature", "geometry": {"type": "Point", "coordinates": [78.938602, 21.146297]}, "properties": {"hotspot_id": "MH-001-HS-0050", "project_id": "MH-001", "number_of_patches": 1, "mean_probability": 0.2362, "max_probability": 0.2362, "candidate_priority_score": 0.1637}}, {"type": "Feature", "geometry": {"type": "Point", "coordinates": [78.932404, 21.146297]}, "properties": {"hotspot_id": "MH-001-HS-0049", "project_id": "MH-001", "number_of_patches": 1, "mean_probability": 0.2353, "max_probability": 0.2353, "candidate_priority_score": 0.1631}}, {"type": "Feature", "geometry": {"type": "Point", "coordinates": [78.916773, 21.177289]}, "properties": {"hotspot_id": "MH-001-HS-0006", "project_id": "MH-001", "number_of_patches": 1, "mean_probability": 0.2246, "max_probability": 0.2246, "candidate_priority_score": 0.1557}}, {"type": "Feature", "geometry": {"type": "Point", "coordinates": [78.932134, 21.164353]}, "properties": {"hotspot_id": "MH-001-HS-0019", "project_id": "MH-001", "number_of_patches": 1, "mean_probability": 0.2206, "max_probability": 0.2206, "candidate_priority_score": 0.1529}}, {"type": "Feature", "geometry": {"type": "Point", "coordinates": [78.930248, 21.13929]}, "properties": {"hotspot_id": "MH-001-HS-0063", "project_id": "MH-001", "number_of_patches": 1, "mean_probability": 0.2083, "max_probability": 0.2083, "candidate_priority_score": 0.1444}}, {"type": "Feature", "geometry": {"type": "Point", "coordinates": [78.931326, 21.136595]}, "properties": {"hotspot_id": "MH-001-HS-0069", "project_id": "MH-001", "number_of_patches": 1, "mean_probability": 0.2019, "max_probability": 0.2019, "candidate_priority_score": 0.1399}}, {"type": "Feature", "geometry": {"type": "Point", "coordinates": [78.932673, 21.14441]}, "properties": {"hotspot_id": "MH-001-HS-0058", "project_id": "MH-001", "number_of_patches": 1, "mean_probability": 0.1992, "max_probability": 0.1992, "candidate_priority_score": 0.1381}}, {"type": "Feature", "geometry": {"type": "Point", "coordinates": [78.922433, 21.176211]}, "properties": {"hotspot_id": "MH-001-HS-0008", "project_id": "MH-001", "number_of_patches": 1, "mean_probability": 0.1935, "max_probability": 0.1935, "candidate_priority_score": 0.1341}}, {"type": "Feature", "geometry": {"type": "Point", "coordinates": [78.916234, 21.179984]}, "properties": {"hotspot_id": "MH-001-HS-0001", "project_id": "MH-001", "number_of_patches": 1, "mean_probability": 0.193, "max_probability": 0.193, "candidate_priority_score": 0.1338}}, {"type": "Feature", "geometry": {"type": "Point", "coordinates": [78.926205, 21.147375]}, "properties": {"hotspot_id": "MH-001-HS-0045", "project_id": "MH-001", "number_of_patches": 1, "mean_probability": 0.1751, "max_probability": 0.1751, "candidate_priority_score": 0.1214}}, {"type": "Feature", "geometry": {"type": "Point", "coordinates": [78.933482, 21.140907]}, "properties": {"hotspot_id": "MH-001-HS-0060", "project_id": "MH-001", "number_of_patches": 1, "mean_probability": 0.1564, "max_probability": 0.1564, "candidate_priority_score": 0.1084}}, {"type": "Feature", "geometry": {"type": "Point", "coordinates": [78.922163, 21.175402]}, "properties": {"hotspot_id": "MH-001-HS-0010", "project_id": "MH-001", "number_of_patches": 1, "mean_probability": 0.1448, "max_probability": 0.1448, "candidate_priority_score": 0.1003}}, {"type": "Feature", "geometry": {"type": "Point", "coordinates": [78.921355, 21.153034]}, "properties": {"hotspot_id": "MH-001-HS-0037", "project_id": "MH-001", "number_of_patches": 1, "mean_probability": 0.1392, "max_probability": 0.1392, "candidate_priority_score": 0.0965}}, {"type": "Feature", "geometry": {"type": "Point", "coordinates": [78.931595, 21.164892]}, "properties": {"hotspot_id": "MH-001-HS-0018", "project_id": "MH-001", "number_of_patches": 1, "mean_probability": 0.1197, "max_probability": 0.1197, "candidate_priority_score": 0.083}}, {"type": "Feature", "geometry": {"type": "Point", "coordinates": [78.921894, 21.151687]}, "properties": {"hotspot_id": "MH-001-HS-0042", "project_id": "MH-001", "number_of_patches": 1, "mean_probability": 0.1135, "max_probability": 0.1135, "candidate_priority_score": 0.0787}}, {"type": "Feature", "geometry": {"type": "Point", "coordinates": [80.345644, 19.598119]}, "properties": {"hotspot_id": "MH-002-HS-0002", "project_id": "MH-002", "number_of_patches": 4558, "mean_probability": 0.2035, "max_probability": 0.625, "candidate_priority_score": 5.2659}}, {"type": "Feature", "geometry": {"type": "Point", "coordinates": [80.346204, 19.615321]}, "properties": {"hotspot_id": "MH-002-HS-0000", "project_id": "MH-002", "number_of_patches": 1220, "mean_probability": 0.2659, "max_probability": 0.5961, "candidate_priority_score": 4.2371}}, {"type": "Feature", "geometry": {"type": "Point", "coordinates": [80.378304, 19.601834]}, "properties": {"hotspot_id": "MH-002-HS-0007", "project_id": "MH-002", "number_of_patches": 564, "mean_probability": 0.1966, "max_probability": 0.5276, "candidate_priority_score": 3.3432}}, {"type": "Feature", "geometry": {"type": "Point", "coordinates": [80.367229, 19.609382]}, "properties": {"hotspot_id": "MH-002-HS-0004", "project_id": "MH-002", "number_of_patches": 250, "mean_probability": 0.2079, "max_probability": 0.5505, "candidate_priority_score": 3.0418}}, {"type": "Feature", "geometry": {"type": "Point", "coordinates": [80.366982, 19.603279]}, "properties": {"hotspot_id": "MH-002-HS-0010", "project_id": "MH-002", "number_of_patches": 380, "mean_probability": 0.1892, "max_probability": 0.4859, "candidate_priority_score": 2.8874}}, {"type": "Feature", "geometry": {"type": "Point", "coordinates": [80.355709, 19.605311]}, "properties": {"hotspot_id": "MH-002-HS-0009", "project_id": "MH-002", "number_of_patches": 137, "mean_probability": 0.2117, "max_probability": 0.4797, "candidate_priority_score": 2.3638}}, {"type": "Feature", "geometry": {"type": "Point", "coordinates": [80.342304, 19.587984]}, "properties": {"hotspot_id": "MH-002-HS-0021", "project_id": "MH-002", "number_of_patches": 17, "mean_probability": 0.2762, "max_probability": 0.3937, "candidate_priority_score": 1.1378}}, {"type": "Feature", "geometry": {"type": "Point", "coordinates": [80.33772, 19.593494]}, "properties": {"hotspot_id": "MH-002-HS-0017", "project_id": "MH-002", "number_of_patches": 11, "mean_probability": 0.276, "max_probability": 0.4146, "candidate_priority_score": 1.0301}}, {"type": "Feature", "geometry": {"type": "Point", "coordinates": [80.364374, 19.599771]}, "properties": {"hotspot_id": "MH-002-HS-0016", "project_id": "MH-002", "number_of_patches": 13, "mean_probability": 0.2042, "max_probability": 0.3535, "candidate_priority_score": 0.9329}}, {"type": "Feature", "geometry": {"type": "Point", "coordinates": [80.357222, 19.591068]}, "properties": {"hotspot_id": "MH-002-HS-0019", "project_id": "MH-002", "number_of_patches": 11, "mean_probability": 0.2302, "max_probability": 0.3726, "candidate_priority_score": 0.926}}, {"type": "Feature", "geometry": {"type": "Point", "coordinates": [80.33701, 19.587469]}, "properties": {"hotspot_id": "MH-002-HS-0022", "project_id": "MH-002", "number_of_patches": 19, "mean_probability": 0.1897, "max_probability": 0.307, "candidate_priority_score": 0.9198}}, {"type": "Feature", "geometry": {"type": "Point", "coordinates": [80.378269, 19.603818]}, "properties": {"hotspot_id": "MH-002-HS-0011", "project_id": "MH-002", "number_of_patches": 10, "mean_probability": 0.1922, "max_probability": 0.239, "candidate_priority_score": 0.573}}, {"type": "Feature", "geometry": {"type": "Point", "coordinates": [80.352506, 19.591044]}, "properties": {"hotspot_id": "MH-002-HS-0020", "project_id": "MH-002", "number_of_patches": 2, "mean_probability": 0.4054, "max_probability": 0.4074, "candidate_priority_score": 0.4476}}, {"type": "Feature", "geometry": {"type": "Point", "coordinates": [80.357312, 19.602991]}, "properties": {"hotspot_id": "MH-002-HS-0013", "project_id": "MH-002", "number_of_patches": 3, "mean_probability": 0.2227, "max_probability": 0.2923, "candidate_priority_score": 0.4052}}, {"type": "Feature", "geometry": {"type": "Point", "coordinates": [80.334854, 19.615702]}, "properties": {"hotspot_id": "MH-002-HS-0003", "project_id": "MH-002", "number_of_patches": 2, "mean_probability": 0.2338, "max_probability": 0.2751, "candidate_priority_score": 0.3023}}, {"type": "Feature", "geometry": {"type": "Point", "coordinates": [80.346532, 19.586822]}, "properties": {"hotspot_id": "MH-002-HS-0026", "project_id": "MH-002", "number_of_patches": 3, "mean_probability": 0.1895, "max_probability": 0.2159, "candidate_priority_score": 0.2993}}, {"type": "Feature", "geometry": {"type": "Point", "coordinates": [80.365307, 19.610852]}, "properties": {"hotspot_id": "MH-002-HS-0005", "project_id": "MH-002", "number_of_patches": 2, "mean_probability": 0.2391, "max_probability": 0.2658, "candidate_priority_score": 0.292}}, {"type": "Feature", "geometry": {"type": "Point", "coordinates": [80.344892, 19.587001]}, "properties": {"hotspot_id": "MH-002-HS-0024", "project_id": "MH-002", "number_of_patches": 4, "mean_probability": 0.1374, "max_probability": 0.1624, "candidate_priority_score": 0.2613}}, {"type": "Feature", "geometry": {"type": "Point", "coordinates": [80.34186, 19.618263]}, "properties": {"hotspot_id": "MH-002-HS-0001", "project_id": "MH-002", "number_of_patches": 1, "mean_probability": 0.3611, "max_probability": 0.3611, "candidate_priority_score": 0.2503}}, {"type": "Feature", "geometry": {"type": "Point", "coordinates": [80.345633, 19.58754]}, "properties": {"hotspot_id": "MH-002-HS-0023", "project_id": "MH-002", "number_of_patches": 1, "mean_probability": 0.3059, "max_probability": 0.3059, "candidate_priority_score": 0.212}}, {"type": "Feature", "geometry": {"type": "Point", "coordinates": [80.365846, 19.610986]}, "properties": {"hotspot_id": "MH-002-HS-0006", "project_id": "MH-002", "number_of_patches": 1, "mean_probability": 0.2386, "max_probability": 0.2386, "candidate_priority_score": 0.1654}}, {"type": "Feature", "geometry": {"type": "Point", "coordinates": [80.338357, 19.592661]}, "properties": {"hotspot_id": "MH-002-HS-0018", "project_id": "MH-002", "number_of_patches": 1, "mean_probability": 0.1931, "max_probability": 0.1931, "candidate_priority_score": 0.1338}}, {"type": "Feature", "geometry": {"type": "Point", "coordinates": [80.346981, 19.601554]}, "properties": {"hotspot_id": "MH-002-HS-0014", "project_id": "MH-002", "number_of_patches": 1, "mean_probability": 0.1616, "max_probability": 0.1616, "candidate_priority_score": 0.112}}, {"type": "Feature", "geometry": {"type": "Point", "coordinates": [80.356413, 19.603171]}, "properties": {"hotspot_id": "MH-002-HS-0012", "project_id": "MH-002", "number_of_patches": 1, "mean_probability": 0.1443, "max_probability": 0.1443, "candidate_priority_score": 0.1}}, {"type": "Feature", "geometry": {"type": "Point", "coordinates": [80.346172, 19.585654]}, "properties": {"hotspot_id": "MH-002-HS-0027", "project_id": "MH-002", "number_of_patches": 1, "mean_probability": 0.1399, "max_probability": 0.1399, "candidate_priority_score": 0.097}}, {"type": "Feature", "geometry": {"type": "Point", "coordinates": [80.34725, 19.587271]}, "properties": {"hotspot_id": "MH-002-HS-0025", "project_id": "MH-002", "number_of_patches": 1, "mean_probability": 0.1119, "max_probability": 0.1119, "candidate_priority_score": 0.0776}}, {"type": "Feature", "geometry": {"type": "Point", "coordinates": [80.353449, 19.608291]}, "properties": {"hotspot_id": "MH-002-HS-0008", "project_id": "MH-002", "number_of_patches": 1, "mean_probability": 0.1104, "max_probability": 0.1104, "candidate_priority_score": 0.0766}}, {"type": "Feature", "geometry": {"type": "Point", "coordinates": [80.347789, 19.601015]}, "properties": {"hotspot_id": "MH-002-HS-0015", "project_id": "MH-002", "number_of_patches": 1, "mean_probability": 0.1005, "max_probability": 0.1005, "candidate_priority_score": 0.0696}}, {"type": "Feature", "geometry": {"type": "Point", "coordinates": [73.501709, 18.914021]}, "properties": {"hotspot_id": "MH-003-HS-0048", "project_id": "MH-003", "number_of_patches": 52, "mean_probability": 0.1632, "max_probability": 0.2165, "candidate_priority_score": 0.8597}}, {"type": "Feature", "geometry": {"type": "Point", "coordinates": [73.447756, 18.944019]}, "properties": {"hotspot_id": "MH-003-HS-0005", "project_id": "MH-003", "number_of_patches": 84, "mean_probability": 0.1312, "max_probability": 0.1743, "candidate_priority_score": 0.7742}}, {"type": "Feature", "geometry": {"type": "Point", "coordinates": [73.45248, 18.939337]}, "properties": {"hotspot_id": "MH-003-HS-0032", "project_id": "MH-003", "number_of_patches": 51, "mean_probability": 0.138, "max_probability": 0.1919, "candidate_priority_score": 0.7581}}, {"type": "Feature", "geometry": {"type": "Point", "coordinates": [73.458492, 18.938996]}, "properties": {"hotspot_id": "MH-003-HS-0035", "project_id": "MH-003", "number_of_patches": 52, "mean_probability": 0.1291, "max_probability": 0.17, "candidate_priority_score": 0.6751}}, {"type": "Feature", "geometry": {"type": "Point", "coordinates": [73.446833, 18.940412]}, "properties": {"hotspot_id": "MH-003-HS-0019", "project_id": "MH-003", "number_of_patches": 30, "mean_probability": 0.1276, "max_probability": 0.1625, "candidate_priority_score": 0.558}}, {"type": "Feature", "geometry": {"type": "Point", "coordinates": [73.44514, 18.939355]}, "properties": {"hotspot_id": "MH-003-HS-0029", "project_id": "MH-003", "number_of_patches": 16, "mean_probability": 0.1329, "max_probability": 0.1719, "candidate_priority_score": 0.4871}}, {"type": "Feature", "geometry": {"type": "Point", "coordinates": [73.449649, 18.946053]}, "properties": {"hotspot_id": "MH-003-HS-0002", "project_id": "MH-003", "number_of_patches": 12, "mean_probability": 0.1445, "max_probability": 0.1802, "candidate_priority_score": 0.4623}}, {"type": "Feature", "geometry": {"type": "Point", "coordinates": [73.449267, 18.939091]}, "properties": {"hotspot_id": "MH-003-HS-0034", "project_id": "MH-003", "number_of_patches": 12, "mean_probability": 0.1341, "max_probability": 0.1732, "candidate_priority_score": 0.4441}}, {"type": "Feature", "geometry": {"type": "Point", "coordinates": [73.462325, 18.938548]}, "properties": {"hotspot_id": "MH-003-HS-0043", "project_id": "MH-003", "number_of_patches": 11, "mean_probability": 0.1247, "max_probability": 0.1538, "candidate_priority_score": 0.3821}}, {"type": "Feature", "geometry": {"type": "Point", "coordinates": [73.502829, 18.912625]}, "properties": {"hotspot_id": "MH-003-HS-0053", "project_id": "MH-003", "number_of_patches": 8, "mean_probability": 0.1316, "max_probability": 0.1515, "candidate_priority_score": 0.333}}, {"type": "Feature", "geometry": {"type": "Point", "coordinates": [73.4513, 18.940851]}, "properties": {"hotspot_id": "MH-003-HS-0024", "project_id": "MH-003", "number_of_patches": 11, "mean_probability": 0.1144, "max_probability": 0.1287, "candidate_priority_score": 0.3197}}, {"type": "Feature", "geometry": {"type": "Point", "coordinates": [73.465077, 18.938912]}, "properties": {"hotspot_id": "MH-003-HS-0040", "project_id": "MH-003", "number_of_patches": 6, "mean_probability": 0.1275, "max_probability": 0.1637, "candidate_priority_score": 0.3186}}, {"type": "Feature", "geometry": {"type": "Point", "coordinates": [73.49845, 18.91441]}, "properties": {"hotspot_id": "MH-003-HS-0049", "project_id": "MH-003", "number_of_patches": 4, "mean_probability": 0.1669, "max_probability": 0.189, "candidate_priority_score": 0.3042}}, {"type": "Feature", "geometry": {"type": "Point", "coordinates": [73.447489, 18.945874]}, "properties": {"hotspot_id": "MH-003-HS-0003", "project_id": "MH-003", "number_of_patches": 5, "mean_probability": 0.1339, "max_probability": 0.1697, "candidate_priority_score": 0.3041}}, {"type": "Feature", "geometry": {"type": "Point", "coordinates": [73.446303, 18.938193]}, "properties": {"hotspot_id": "MH-003-HS-0045", "project_id": "MH-003", "number_of_patches": 8, "mean_probability": 0.1115, "max_probability": 0.1317, "candidate_priority_score": 0.2894}}, {"type": "Feature", "geometry": {"type": "Point", "coordinates": [73.451019, 18.938799]}, "properties": {"hotspot_id": "MH-003-HS-0041", "project_id": "MH-003", "number_of_patches": 4, "mean_probability": 0.1342, "max_probability": 0.1697, "candidate_priority_score": 0.2731}}, {"type": "Feature", "geometry": {"type": "Point", "coordinates": [73.467188, 18.938597]}, "properties": {"hotspot_id": "MH-003-HS-0044", "project_id": "MH-003", "number_of_patches": 4, "mean_probability": 0.1196, "max_probability": 0.1363, "candidate_priority_score": 0.2194}}, {"type": "Feature", "geometry": {"type": "Point", "coordinates": [73.503098, 18.911446]}, "properties": {"hotspot_id": "MH-003-HS-0055", "project_id": "MH-003", "number_of_patches": 4, "mean_probability": 0.1199, "max_probability": 0.1331, "candidate_priority_score": 0.2142}}, {"type": "Feature", "geometry": {"type": "Point", "coordinates": [73.497237, 18.913399]}, "properties": {"hotspot_id": "MH-003-HS-0052", "project_id": "MH-003", "number_of_patches": 2, "mean_probability": 0.1721, "max_probability": 0.1865, "candidate_priority_score": 0.2048}}, {"type": "Feature", "geometry": {"type": "Point", "coordinates": [73.446909, 18.944998]}, "properties": {"hotspot_id": "MH-003-HS-0007", "project_id": "MH-003", "number_of_patches": 4, "mean_probability": 0.1176, "max_probability": 0.1248, "candidate_priority_score": 0.2009}}, {"type": "Feature", "geometry": {"type": "Point", "coordinates": [73.450345, 18.94237]}, "properties": {"hotspot_id": "MH-003-HS-0017", "project_id": "MH-003", "number_of_patches": 4, "mean_probability": 0.1105, "max_probability": 0.1177, "candidate_priority_score": 0.1895}}, {"type": "Feature", "geometry": {"type": "Point", "coordinates": [73.463011, 18.946008]}, "properties": {"hotspot_id": "MH-003-HS-0004", "project_id": "MH-003", "number_of_patches": 2, "mean_probability": 0.1464, "max_probability": 0.1529, "candidate_priority_score": 0.168}}, {"type": "Feature", "geometry": {"type": "Point", "coordinates": [73.447111, 18.942909]}, "properties": {"hotspot_id": "MH-003-HS-0012", "project_id": "MH-003", "number_of_patches": 3, "mean_probability": 0.1147, "max_probability": 0.1212, "candidate_priority_score": 0.168}}, {"type": "Feature", "geometry": {"type": "Point", "coordinates": [73.449267, 18.94264]}, "properties": {"hotspot_id": "MH-003-HS-0016", "project_id": "MH-003", "number_of_patches": 3, "mean_probability": 0.1141, "max_probability": 0.1193, "candidate_priority_score": 0.1654}}, {"type": "Feature", "geometry": {"type": "Point", "coordinates": [73.497372, 18.914343]}, "properties": {"hotspot_id": "MH-003-HS-0050", "project_id": "MH-003", "number_of_patches": 2, "mean_probability": 0.1378, "max_probability": 0.1496, "candidate_priority_score": 0.1644}}, {"type": "Feature", "geometry": {"type": "Point", "coordinates": [73.451602, 18.942191]}, "properties": {"hotspot_id": "MH-003-HS-0018", "project_id": "MH-003", "number_of_patches": 3, "mean_probability": 0.111, "max_probability": 0.1183, "candidate_priority_score": 0.1639}}, {"type": "Feature", "geometry": {"type": "Point", "coordinates": [73.448189, 18.940843]}, "properties": {"hotspot_id": "MH-003-HS-0025", "project_id": "MH-003", "number_of_patches": 3, "mean_probability": 0.1067, "max_probability": 0.1118, "candidate_priority_score": 0.155}}, {"type": "Feature", "geometry": {"type": "Point", "coordinates": [73.46382, 18.940618]}, "properties": {"hotspot_id": "MH-003-HS-0027", "project_id": "MH-003", "number_of_patches": 2, "mean_probability": 0.1257, "max_probability": 0.1394, "candidate_priority_score": 0.1531}}, {"type": "Feature", "geometry": {"type": "Point", "coordinates": [73.462742, 18.9452]}, "properties": {"hotspot_id": "MH-003-HS-0006", "project_id": "MH-003", "number_of_patches": 2, "mean_probability": 0.1276, "max_probability": 0.1384, "candidate_priority_score": 0.152}}, {"type": "Feature", "geometry": {"type": "Point", "coordinates": [73.44792, 18.939001]}, "properties": {"hotspot_id": "MH-003-HS-0038", "project_id": "MH-003", "number_of_patches": 2, "mean_probability": 0.1351, "max_probability": 0.1376, "candidate_priority_score": 0.1512}}, {"type": "Feature", "geometry": {"type": "Point", "coordinates": [73.448863, 18.940484]}, "properties": {"hotspot_id": "MH-003-HS-0028", "project_id": "MH-003", "number_of_patches": 2, "mean_probability": 0.1276, "max_probability": 0.1299, "candidate_priority_score": 0.1428}}, {"type": "Feature", "geometry": {"type": "Point", "coordinates": [73.44509, 18.944392]}, "properties": {"hotspot_id": "MH-003-HS-0010", "project_id": "MH-003", "number_of_patches": 2, "mean_probability": 0.1221, "max_probability": 0.1272, "candidate_priority_score": 0.1398}}, {"type": "Feature", "geometry": {"type": "Point", "coordinates": [73.46355, 18.943583]}, "properties": {"hotspot_id": "MH-003-HS-0011", "project_id": "MH-003", "number_of_patches": 2, "mean_probability": 0.123, "max_probability": 0.1265, "candidate_priority_score": 0.139}}, {"type": "Feature", "geometry": {"type": "Point", "coordinates": [73.451558, 18.942909]}, "properties": {"hotspot_id": "MH-003-HS-0013", "project_id": "MH-003", "number_of_patches": 2, "mean_probability": 0.1156, "max_probability": 0.121, "candidate_priority_score": 0.1329}}, {"type": "Feature", "geometry": {"type": "Point", "coordinates": [73.499662, 18.914208]}, "properties": {"hotspot_id": "MH-003-HS-0051", "project_id": "MH-003", "number_of_patches": 2, "mean_probability": 0.1168, "max_probability": 0.1189, "candidate_priority_score": 0.1306}}, {"type": "Feature", "geometry": {"type": "Point", "coordinates": [73.448459, 18.941696]}, "properties": {"hotspot_id": "MH-003-HS-0020", "project_id": "MH-003", "number_of_patches": 2, "mean_probability": 0.11, "max_probability": 0.1113, "candidate_priority_score": 0.1223}}, {"type": "Feature", "geometry": {"type": "Point", "coordinates": [73.465571, 18.939675]}, "properties": {"hotspot_id": "MH-003-HS-0033", "project_id": "MH-003", "number_of_patches": 2, "mean_probability": 0.1072, "max_probability": 0.1111, "candidate_priority_score": 0.122}}, {"type": "Feature", "geometry": {"type": "Point", "coordinates": [73.466784, 18.939271]}, "properties": {"hotspot_id": "MH-003-HS-0037", "project_id": "MH-003", "number_of_patches": 2, "mean_probability": 0.1057, "max_probability": 0.1103, "candidate_priority_score": 0.1212}}, {"type": "Feature", "geometry": {"type": "Point", "coordinates": [73.464089, 18.939001]}, "properties": {"hotspot_id": "MH-003-HS-0039", "project_id": "MH-003", "number_of_patches": 2, "mean_probability": 0.1091, "max_probability": 0.1095, "candidate_priority_score": 0.1203}}, {"type": "Feature", "geometry": {"type": "Point", "coordinates": [73.445359, 18.941562]}, "properties": {"hotspot_id": "MH-003-HS-0022", "project_id": "MH-003", "number_of_patches": 2, "mean_probability": 0.1085, "max_probability": 0.1091, "candidate_priority_score": 0.1199}}, {"type": "Feature", "geometry": {"type": "Point", "coordinates": [73.45048, 18.937789]}, "properties": {"hotspot_id": "MH-003-HS-0047", "project_id": "MH-003", "number_of_patches": 2, "mean_probability": 0.1026, "max_probability": 0.1027, "candidate_priority_score": 0.1128}}, {"type": "Feature", "geometry": {"type": "Point", "coordinates": [73.50074, 18.912726]}, "properties": {"hotspot_id": "MH-003-HS-0054", "project_id": "MH-003", "number_of_patches": 1, "mean_probability": 0.1447, "max_probability": 0.1447, "candidate_priority_score": 0.1003}}, {"type": "Feature", "geometry": {"type": "Point", "coordinates": [73.466515, 18.940214]}, "properties": {"hotspot_id": "MH-003-HS-0030", "project_id": "MH-003", "number_of_patches": 1, "mean_probability": 0.1409, "max_probability": 0.1409, "candidate_priority_score": 0.0977}}, {"type": "Feature", "geometry": {"type": "Point", "coordinates": [73.444416, 18.944796]}, "properties": {"hotspot_id": "MH-003-HS-0008", "project_id": "MH-003", "number_of_patches": 1, "mean_probability": 0.1327, "max_probability": 0.1327, "candidate_priority_score": 0.092}}, {"type": "Feature", "geometry": {"type": "Point", "coordinates": [73.448189, 18.939945]}, "properties": {"hotspot_id": "MH-003-HS-0031", "project_id": "MH-003", "number_of_patches": 1, "mean_probability": 0.1266, "max_probability": 0.1266, "candidate_priority_score": 0.0878}}, {"type": "Feature", "geometry": {"type": "Point", "coordinates": [73.451962, 18.938597]}, "properties": {"hotspot_id": "MH-003-HS-0042", "project_id": "MH-003", "number_of_patches": 1, "mean_probability": 0.1253, "max_probability": 0.1253, "candidate_priority_score": 0.0869}}, {"type": "Feature", "geometry": {"type": "Point", "coordinates": [73.444416, 18.94264]}, "properties": {"hotspot_id": "MH-003-HS-0014", "project_id": "MH-003", "number_of_patches": 1, "mean_probability": 0.1231, "max_probability": 0.1231, "candidate_priority_score": 0.0853}}, {"type": "Feature", "geometry": {"type": "Point", "coordinates": [73.455196, 18.938328]}, "properties": {"hotspot_id": "MH-003-HS-0046", "project_id": "MH-003", "number_of_patches": 1, "mean_probability": 0.1172, "max_probability": 0.1172, "candidate_priority_score": 0.0813}}, {"type": "Feature", "geometry": {"type": "Point", "coordinates": [73.445494, 18.94264]}, "properties": {"hotspot_id": "MH-003-HS-0015", "project_id": "MH-003", "number_of_patches": 1, "mean_probability": 0.1146, "max_probability": 0.1146, "candidate_priority_score": 0.0795}}, {"type": "Feature", "geometry": {"type": "Point", "coordinates": [73.449536, 18.941562]}, "properties": {"hotspot_id": "MH-003-HS-0023", "project_id": "MH-003", "number_of_patches": 1, "mean_probability": 0.1133, "max_probability": 0.1133, "candidate_priority_score": 0.0785}}, {"type": "Feature", "geometry": {"type": "Point", "coordinates": [73.46355, 18.947491]}, "properties": {"hotspot_id": "MH-003-HS-0000", "project_id": "MH-003", "number_of_patches": 1, "mean_probability": 0.1108, "max_probability": 0.1108, "candidate_priority_score": 0.0768}}, {"type": "Feature", "geometry": {"type": "Point", "coordinates": [73.449806, 18.940753]}, "properties": {"hotspot_id": "MH-003-HS-0026", "project_id": "MH-003", "number_of_patches": 1, "mean_probability": 0.1107, "max_probability": 0.1107, "candidate_priority_score": 0.0767}}, {"type": "Feature", "geometry": {"type": "Point", "coordinates": [73.448189, 18.946413]}, "properties": {"hotspot_id": "MH-003-HS-0001", "project_id": "MH-003", "number_of_patches": 1, "mean_probability": 0.1089, "max_probability": 0.1089, "candidate_priority_score": 0.0755}}, {"type": "Feature", "geometry": {"type": "Point", "coordinates": [73.446033, 18.944796]}, "properties": {"hotspot_id": "MH-003-HS-0009", "project_id": "MH-003", "number_of_patches": 1, "mean_probability": 0.1077, "max_probability": 0.1077, "candidate_priority_score": 0.0746}}, {"type": "Feature", "geometry": {"type": "Point", "coordinates": [73.457352, 18.939406]}, "properties": {"hotspot_id": "MH-003-HS-0036", "project_id": "MH-003", "number_of_patches": 1, "mean_probability": 0.1033, "max_probability": 0.1033, "candidate_priority_score": 0.0716}}, {"type": "Feature", "geometry": {"type": "Point", "coordinates": [73.450075, 18.941831]}, "properties": {"hotspot_id": "MH-003-HS-0021", "project_id": "MH-003", "number_of_patches": 1, "mean_probability": 0.1031, "max_probability": 0.1031, "candidate_priority_score": 0.0715}}]}