{"type": "FeatureCollection", "features": [{"type": "Feature", "geometry": {"type": "Point", "coordinates": [73.446833, 18.940412]}, "properties": {"hotspot_id": "MH-003-HS-0019", "project_id": "MH-003", "patch_count": 30, "priority_level": "HIGH PRIORITY", "priority_score": 83.2, "evidence_summary": "CNN max 0.16 (41.1th pct) over 30 patches. Vegetation-to-bare/built transition detected. Strong NDVI decline (-0.25)."}}, {"type": "Feature", "geometry": {"type": "Point", "coordinates": [78.931726, 21.140382]}, "properties": {"hotspot_id": "MH-001-HS-0059", "project_id": "MH-001", "patch_count": 37, "priority_level": "HIGH PRIORITY", "priority_score": 68.6, "evidence_summary": "CNN max 0.43 (97.2th pct) over 37 patches. Vegetation-to-bare/built transition detected. Minor NDVI decline (-0.01)."}}, {"type": "Feature", "geometry": {"type": "Point", "coordinates": [73.448189, 18.940843]}, "properties": {"hotspot_id": "MH-003-HS-0025", "project_id": "MH-003", "patch_count": 3, "priority_level": "HIGH PRIORITY", "priority_score": 68.2, "evidence_summary": "CNN max 0.11 (11.0th pct) over 3 patches. Vegetation-to-bare/built transition detected. Strong NDVI decline (-0.30)."}}, {"type": "Feature", "geometry": {"type": "Point", "coordinates": [73.44792, 18.939001]}, "properties": {"hotspot_id": "MH-003-HS-0038", "project_id": "MH-003", "patch_count": 2, "priority_level": "HIGH PRIORITY", "priority_score": 66.8, "evidence_summary": "CNN max 0.14 (22.9th pct) over 2 patches. Vegetation-to-bare/built transition detected. Strong NDVI decline (-0.39)."}}, {"type": "Feature", "geometry": {"type": "Point", "coordinates": [73.448459, 18.941696]}, "properties": {"hotspot_id": "MH-003-HS-0020", "project_id": "MH-003", "patch_count": 2, "priority_level": "HIGH PRIORITY", "priority_score": 66.2, "evidence_summary": "CNN max 0.11 (10.8th pct) over 2 patches. Vegetation-to-bare/built transition detected. Strong NDVI decline (-0.18)."}}, {"type": "Feature", "geometry": {"type": "Point", "coordinates": [73.445359, 18.941562]}, "properties": {"hotspot_id": "MH-003-HS-0022", "project_id": "MH-003", "patch_count": 2, "priority_level": "HIGH PRIORITY", "priority_score": 66.2, "evidence_summary": "CNN max 0.11 (10.0th pct) over 2 patches. Vegetation-to-bare/built transition detected. Strong NDVI decline (-0.27)."}}, {"type": "Feature", "geometry": {"type": "Point", "coordinates": [80.356413, 19.603171]}, "properties": {"hotspot_id": "MH-002-HS-0012", "project_id": "MH-002", "patch_count": 1, "priority_level": "HIGH PRIORITY", "priority_score": 64.9, "evidence_summary": "CNN max 0.14 (27.6th pct) over 1 patches. Vegetation-to-bare/built transition detected. Strong NDVI decline (-0.19)."}}, {"type": "Feature", "geometry": {"type": "Point", "coordinates": [80.345644, 19.598119]}, "properties": {"hotspot_id": "MH-002-HS-0002", "project_id": "MH-002", "patch_count": 4558, "priority_level": "HIGH PRIORITY", "priority_score": 62.5, "evidence_summary": "CNN max 0.62 (100.0th pct) over 4558 patches. Vegetation-to-bare/built transition detected. No NDVI decline."}}, {"type": "Feature", "geometry": {"type": "Point", "coordinates": [78.924706, 21.138469]}, "properties": {"hotspot_id": "MH-001-HS-0061", "project_id": "MH-001", "patch_count": 154, "priority_level": "MEDIUM PRIORITY", "priority_score": 59.3, "evidence_summary": "CNN max 0.46 (98.4th pct) over 154 patches. Vegetation-to-bare/built transition detected. No NDVI decline."}}, {"type": "Feature", "geometry": {"type": "Point", "coordinates": [78.930766, 21.137694]}, "properties": {"hotspot_id": "MH-001-HS-0064", "project_id": "MH-001", "patch_count": 26, "priority_level": "MEDIUM PRIORITY", "priority_score": 56.3, "evidence_summary": "CNN max 0.32 (90.6th pct) over 26 patches. Vegetation-to-bare/built transition detected. No NDVI decline."}}, {"type": "Feature", "geometry": {"type": "Point", "coordinates": [78.925795, 21.152842]}, "properties": {"hotspot_id": "MH-001-HS-0032", "project_id": "MH-001", "patch_count": 21, "priority_level": "MEDIUM PRIORITY", "priority_score": 56.3, "evidence_summary": "CNN max 0.31 (90.1th pct) over 21 patches. Vegetation-to-bare/built transition detected. No NDVI decline."}}, {"type": "Feature", "geometry": {"type": "Point", "coordinates": [78.930681, 21.151638]}, "properties": {"hotspot_id": "MH-001-HS-0040", "project_id": "MH-001", "patch_count": 33, "priority_level": "MEDIUM PRIORITY", "priority_score": 55.7, "evidence_summary": "CNN max 0.29 (87.1th pct) over 33 patches. Vegetation-to-bare/built transition detected. No NDVI decline."}}, {"type": "Feature", "geometry": {"type": "Point", "coordinates": [73.447756, 18.944019]}, "properties": {"hotspot_id": "MH-003-HS-0005", "project_id": "MH-003", "patch_count": 84, "priority_level": "MEDIUM PRIORITY", "priority_score": 53.5, "evidence_summary": "CNN max 0.17 (49.8th pct) over 84 patches. No suspicious DW transition. Strong NDVI decline (-0.25)."}}, {"type": "Feature", "geometry": {"type": "Point", "coordinates": [73.4513, 18.940851]}, "properties": {"hotspot_id": "MH-003-HS-0024", "project_id": "MH-003", "patch_count": 11, "priority_level": "MEDIUM PRIORITY", "priority_score": 52.6, "evidence_summary": "CNN max 0.13 (18.0th pct) over 11 patches. No suspicious DW transition. Strong NDVI decline (-0.11)."}}, {"type": "Feature", "geometry": {"type": "Point", "coordinates": [80.355709, 19.605311]}, "properties": {"hotspot_id": "MH-002-HS-0009", "project_id": "MH-002", "patch_count": 137, "priority_level": "MEDIUM PRIORITY", "priority_score": 49.6, "evidence_summary": "CNN max 0.48 (98.7th pct) over 137 patches. No suspicious DW transition. Moderate NDVI decline (-0.06)."}}, {"type": "Feature", "geometry": {"type": "Point", "coordinates": [80.357222, 19.591068]}, "properties": {"hotspot_id": "MH-002-HS-0019", "project_id": "MH-002", "patch_count": 11, "priority_level": "MEDIUM PRIORITY", "priority_score": 47.5, "evidence_summary": "CNN max 0.37 (94.6th pct) over 11 patches. No suspicious DW transition. Moderate NDVI decline (-0.08)."}}, {"type": "Feature", "geometry": {"type": "Point", "coordinates": [78.921594, 21.164982]}, "properties": {"hotspot_id": "MH-001-HS-0012", "project_id": "MH-001", "patch_count": 27, "priority_level": "MEDIUM PRIORITY", "priority_score": 45.3, "evidence_summary": "CNN max 0.26 (84.0th pct) over 27 patches. No suspicious DW transition. Moderate NDVI decline (-0.06)."}}, {"type": "Feature", "geometry": {"type": "Point", "coordinates": [73.449649, 18.946053]}, "properties": {"hotspot_id": "MH-003-HS-0002", "project_id": "MH-003", "patch_count": 12, "priority_level": "MEDIUM PRIORITY", "priority_score": 43.6, "evidence_summary": "CNN max 0.18 (53.7th pct) over 12 patches. No suspicious DW transition. Moderate NDVI decline (-0.07)."}}, {"type": "Feature", "geometry": {"type": "Point", "coordinates": [73.449267, 18.939091]}, "properties": {"hotspot_id": "MH-003-HS-0034", "project_id": "MH-003", "patch_count": 12, "priority_level": "MEDIUM PRIORITY", "priority_score": 43.5, "evidence_summary": "CNN max 0.17 (49.2th pct) over 12 patches. No suspicious DW transition. Moderate NDVI decline (-0.08)."}}, {"type": "Feature", "geometry": {"type": "Point", "coordinates": [73.447489, 18.945874]}, "properties": {"hotspot_id": "MH-003-HS-0003", "project_id": "MH-003", "patch_count": 5, "priority_level": "MEDIUM PRIORITY", "priority_score": 43.4, "evidence_summary": "CNN max 0.17 (46.3th pct) over 5 patches. No suspicious DW transition. Strong NDVI decline (-0.21)."}}, {"type": "Feature", "geometry": {"type": "Point", "coordinates": [80.346204, 19.615321]}, "properties": {"hotspot_id": "MH-002-HS-0000", "project_id": "MH-002", "patch_count": 1220, "priority_level": "LOW PRIORITY", "priority_score": 41.9, "evidence_summary": "CNN max 0.60 (99.9th pct) over 1220 patches. No suspicious DW transition. Minor NDVI decline (-0.02)."}}, {"type": "Feature", "geometry": {"type": "Point", "coordinates": [73.451019, 18.938799]}, "properties": {"hotspot_id": "MH-003-HS-0041", "project_id": "MH-003", "patch_count": 4, "priority_level": "MEDIUM PRIORITY", "priority_score": 41.4, "evidence_summary": "CNN max 0.17 (46.3th pct) over 4 patches. No suspicious DW transition. Strong NDVI decline (-0.29)."}}, {"type": "Feature", "geometry": {"type": "Point", "coordinates": [80.367229, 19.609382]}, "properties": {"hotspot_id": "MH-002-HS-0004", "project_id": "MH-002", "patch_count": 250, "priority_level": "LOW PRIORITY", "priority_score": 41.0, "evidence_summary": "CNN max 0.55 (99.7th pct) over 250 patches. No suspicious DW transition. Minor NDVI decline (-0.02)."}}, {"type": "Feature", "geometry": {"type": "Point", "coordinates": [73.446909, 18.944998]}, "properties": {"hotspot_id": "MH-003-HS-0007", "project_id": "MH-003", "patch_count": 4, "priority_level": "MEDIUM PRIORITY", "priority_score": 40.5, "evidence_summary": "CNN max 0.12 (16.2th pct) over 4 patches. No suspicious DW transition. Strong NDVI decline (-0.15)."}}, {"type": "Feature", "geometry": {"type": "Point", "coordinates": [73.450345, 18.94237]}, "properties": {"hotspot_id": "MH-003-HS-0017", "project_id": "MH-003", "patch_count": 4, "priority_level": "MEDIUM PRIORITY", "priority_score": 40.4, "evidence_summary": "CNN max 0.12 (13.0th pct) over 4 patches. No suspicious DW transition. Strong NDVI decline (-0.26)."}}, {"type": "Feature", "geometry": {"type": "Point", "coordinates": [80.365307, 19.610852]}, "properties": {"hotspot_id": "MH-002-HS-0005", "project_id": "MH-002", "patch_count": 2, "priority_level": "LOW PRIORITY", "priority_score": 39.3, "evidence_summary": "CNN max 0.27 (84.3th pct) over 2 patches. No suspicious DW transition. Strong NDVI decline (-0.30)."}}, {"type": "Feature", "geometry": {"type": "Point", "coordinates": [73.447111, 18.942909]}, "properties": {"hotspot_id": "MH-003-HS-0012", "project_id": "MH-003", "patch_count": 3, "priority_level": "LOW PRIORITY", "priority_score": 38.4, "evidence_summary": "CNN max 0.12 (14.4th pct) over 3 patches. No suspicious DW transition. Strong NDVI decline (-0.19)."}}, {"type": "Feature", "geometry": {"type": "Point", "coordinates": [73.449267, 18.94264]}, "properties": {"hotspot_id": "MH-003-HS-0016", "project_id": "MH-003", "patch_count": 3, "priority_level": "LOW PRIORITY", "priority_score": 38.4, "evidence_summary": "CNN max 0.12 (13.6th pct) over 3 patches. No suspicious DW transition. Strong NDVI decline (-0.23)."}}, {"type": "Feature", "geometry": {"type": "Point", "coordinates": [80.364374, 19.599771]}, "properties": {"hotspot_id": "MH-002-HS-0016", "project_id": "MH-002", "patch_count": 13, "priority_level": "LOW PRIORITY", "priority_score": 37.1, "evidence_summary": "CNN max 0.35 (93.3th pct) over 13 patches. No suspicious DW transition. Minor NDVI decline (-0.01)."}}, {"type": "Feature", "geometry": {"type": "Point", "coordinates": [80.365846, 19.610986]}, "properties": {"hotspot_id": "MH-002-HS-0006", "project_id": "MH-002", "patch_count": 1, "priority_level": "LOW PRIORITY", "priority_score": 36.8, "evidence_summary": "CNN max 0.24 (79.2th pct) over 1 patches. No suspicious DW transition. Strong NDVI decline (-0.22)."}}, {"type": "Feature", "geometry": {"type": "Point", "coordinates": [78.937717, 21.13648]}, "properties": {"hotspot_id": "MH-001-HS-0066", "project_id": "MH-001", "patch_count": 49, "priority_level": "LOW PRIORITY", "priority_score": 36.5, "evidence_summary": "CNN max 0.33 (91.4th pct) over 49 patches. No suspicious DW transition. Minor NDVI decline (-0.02)."}}, {"type": "Feature", "geometry": {"type": "Point", "coordinates": [78.919558, 21.177163]}, "properties": {"hotspot_id": "MH-001-HS-0005", "project_id": "MH-001", "patch_count": 15, "priority_level": "LOW PRIORITY", "priority_score": 36.4, "evidence_summary": "CNN max 0.32 (90.6th pct) over 15 patches. No suspicious DW transition. Minor NDVI decline (-0.01)."}}, {"type": "Feature", "geometry": {"type": "Point", "coordinates": [73.451558, 18.942909]}, "properties": {"hotspot_id": "MH-003-HS-0013", "project_id": "MH-003", "patch_count": 2, "priority_level": "LOW PRIORITY", "priority_score": 36.4, "evidence_summary": "CNN max 0.12 (14.4th pct) over 2 patches. No suspicious DW transition. Strong NDVI decline (-0.36)."}}, {"type": "Feature", "geometry": {"type": "Point", "coordinates": [78.932784, 21.161928]}, "properties": {"hotspot_id": "MH-001-HS-0027", "project_id": "MH-001", "patch_count": 17, "priority_level": "LOW PRIORITY", "priority_score": 36.2, "evidence_summary": "CNN max 0.31 (89.7th pct) over 17 patches. No suspicious DW transition. Minor NDVI decline (-0.01)."}}, {"type": "Feature", "geometry": {"type": "Point", "coordinates": [78.931545, 21.142909]}, "properties": {"hotspot_id": "MH-001-HS-0057", "project_id": "MH-001", "patch_count": 91, "priority_level": "LOW PRIORITY", "priority_score": 36.2, "evidence_summary": "CNN max 0.31 (89.6th pct) over 91 patches. No suspicious DW transition. Minor NDVI decline (-0.02)."}}, {"type": "Feature", "geometry": {"type": "Point", "coordinates": [78.930248, 21.13929]}, "properties": {"hotspot_id": "MH-001-HS-0063", "project_id": "MH-001", "patch_count": 1, "priority_level": "LOW PRIORITY", "priority_score": 36.2, "evidence_summary": "CNN max 0.21 (69.0th pct) over 1 patches. Vegetation-to-bare/built transition detected. No NDVI decline."}}, {"type": "Feature", "geometry": {"type": "Point", "coordinates": [78.930652, 21.145668]}, "properties": {"hotspot_id": "MH-001-HS-0051", "project_id": "MH-001", "patch_count": 12, "priority_level": "LOW PRIORITY", "priority_score": 35.1, "evidence_summary": "CNN max 0.25 (82.4th pct) over 12 patches. No suspicious DW transition. Minor NDVI decline (-0.04)."}}, {"type": "Feature", "geometry": {"type": "Point", "coordinates": [73.448189, 18.939945]}, "properties": {"hotspot_id": "MH-003-HS-0031", "project_id": "MH-003", "patch_count": 1, "priority_level": "LOW PRIORITY", "priority_score": 34.5, "evidence_summary": "CNN max 0.13 (17.0th pct) over 1 patches. No suspicious DW transition. Strong NDVI decline (-0.23)."}}, {"type": "Feature", "geometry": {"type": "Point", "coordinates": [73.451962, 18.938597]}, "properties": {"hotspot_id": "MH-003-HS-0042", "project_id": "MH-003", "patch_count": 1, "priority_level": "LOW PRIORITY", "priority_score": 34.5, "evidence_summary": "CNN max 0.13 (16.5th pct) over 1 patches. No suspicious DW transition. Strong NDVI decline (-0.27)."}}, {"type": "Feature", "geometry": {"type": "Point", "coordinates": [73.445494, 18.94264]}, "properties": {"hotspot_id": "MH-003-HS-0015", "project_id": "MH-003", "patch_count": 1, "priority_level": "LOW PRIORITY", "priority_score": 34.3, "evidence_summary": "CNN max 0.11 (12.0th pct) over 1 patches. No suspicious DW transition. Strong NDVI decline (-0.31)."}}, {"type": "Feature", "geometry": {"type": "Point", "coordinates": [73.449536, 18.941562]}, "properties": {"hotspot_id": "MH-003-HS-0023", "project_id": "MH-003", "patch_count": 1, "priority_level": "LOW PRIORITY", "priority_score": 34.3, "evidence_summary": "CNN max 0.11 (11.5th pct) over 1 patches. No suspicious DW transition. Strong NDVI decline (-0.22)."}}, {"type": "Feature", "geometry": {"type": "Point", "coordinates": [73.449806, 18.940753]}, "properties": {"hotspot_id": "MH-003-HS-0026", "project_id": "MH-003", "patch_count": 1, "priority_level": "LOW PRIORITY", "priority_score": 34.2, "evidence_summary": "CNN max 0.11 (10.6th pct) over 1 patches. No suspicious DW transition. Strong NDVI decline (-0.21)."}}, {"type": "Feature", "geometry": {"type": "Point", "coordinates": [80.353449, 19.608291]}, "properties": {"hotspot_id": "MH-002-HS-0008", "project_id": "MH-002", "patch_count": 1, "priority_level": "LOW PRIORITY", "priority_score": 34.2, "evidence_summary": "CNN max 0.11 (10.5th pct) over 1 patches. No suspicious DW transition. Strong NDVI decline (-0.12)."}}, {"type": "Feature", "geometry": {"type": "Point", "coordinates": [73.446033, 18.944796]}, "properties": {"hotspot_id": "MH-003-HS-0009", "project_id": "MH-003", "patch_count": 1, "priority_level": "LOW PRIORITY", "priority_score": 34.2, "evidence_summary": "CNN max 0.11 (9.6th pct) over 1 patches. No suspicious DW transition. Strong NDVI decline (-0.22)."}}, {"type": "Feature", "geometry": {"type": "Point", "coordinates": [73.450075, 18.941831]}, "properties": {"hotspot_id": "MH-003-HS-0021", "project_id": "MH-003", "patch_count": 1, "priority_level": "LOW PRIORITY", "priority_score": 34.1, "evidence_summary": "CNN max 0.10 (7.9th pct) over 1 patches. No suspicious DW transition. Strong NDVI decline (-0.28)."}}, {"type": "Feature", "geometry": {"type": "Point", "coordinates": [73.45248, 18.939337]}, "properties": {"hotspot_id": "MH-003-HS-0032", "project_id": "MH-003", "patch_count": 51, "priority_level": "LOW PRIORITY", "priority_score": 33.8, "evidence_summary": "CNN max 0.19 (60.6th pct) over 51 patches. No suspicious DW transition. Minor NDVI decline (-0.03)."}}, {"type": "Feature", "geometry": {"type": "Point", "coordinates": [73.44514, 18.939355]}, "properties": {"hotspot_id": "MH-003-HS-0029", "project_id": "MH-003", "patch_count": 16, "priority_level": "LOW PRIORITY", "priority_score": 33.4, "evidence_summary": "CNN max 0.17 (48.1th pct) over 16 patches. No suspicious DW transition. Minor NDVI decline (-0.00)."}}, {"type": "Feature", "geometry": {"type": "Point", "coordinates": [78.931056, 21.165364]}, "properties": {"hotspot_id": "MH-001-HS-0015", "project_id": "MH-001", "patch_count": 4, "priority_level": "LOW PRIORITY", "priority_score": 31.9, "evidence_summary": "CNN max 0.19 (62.0th pct) over 4 patches. No suspicious DW transition. Moderate NDVI decline (-0.05)."}}, {"type": "Feature", "geometry": {"type": "Point", "coordinates": [80.357312, 19.602991]}, "properties": {"hotspot_id": "MH-002-HS-0013", "project_id": "MH-002", "patch_count": 3, "priority_level": "LOW PRIORITY", "priority_score": 31.8, "evidence_summary": "CNN max 0.29 (87.8th pct) over 3 patches. No suspicious DW transition. Moderate NDVI decline (-0.07)."}}, {"type": "Feature", "geometry": {"type": "Point", "coordinates": [80.378304, 19.601834]}, "properties": {"hotspot_id": "MH-002-HS-0007", "project_id": "MH-002", "patch_count": 564, "priority_level": "UNSUPPORTED / MONITOR", "priority_score": 30.6, "evidence_summary": "CNN max 0.53 (99.5th pct) over 564 patches. No suspicious DW transition. No NDVI decline."}}, {"type": "Feature", "geometry": {"type": "Point", "coordinates": [78.931865, 21.145398]}, "properties": {"hotspot_id": "MH-001-HS-0053", "project_id": "MH-001", "patch_count": 3, "priority_level": "LOW PRIORITY", "priority_score": 30.5, "evidence_summary": "CNN max 0.23 (76.2th pct) over 3 patches. No suspicious DW transition. Moderate NDVI decline (-0.06)."}}, {"type": "Feature", "geometry": {"type": "Point", "coordinates": [80.366982, 19.603279]}, "properties": {"hotspot_id": "MH-002-HS-0010", "project_id": "MH-002", "patch_count": 380, "priority_level": "UNSUPPORTED / MONITOR", "priority_score": 29.7, "evidence_summary": "CNN max 0.49 (98.9th pct) over 380 patches. No suspicious DW transition. No NDVI decline."}}, {"type": "Feature", "geometry": {"type": "Point", "coordinates": [80.33772, 19.593494]}, "properties": {"hotspot_id": "MH-002-HS-0017", "project_id": "MH-002", "patch_count": 11, "priority_level": "UNSUPPORTED / MONITOR", "priority_score": 28.3, "evidence_summary": "CNN max 0.41 (96.5th pct) over 11 patches. No suspicious DW transition. No NDVI decline."}}, {"type": "Feature", "geometry": {"type": "Point", "coordinates": [80.342304, 19.587984]}, "properties": {"hotspot_id": "MH-002-HS-0021", "project_id": "MH-002", "patch_count": 17, "priority_level": "UNSUPPORTED / MONITOR", "priority_score": 27.9, "evidence_summary": "CNN max 0.39 (95.6th pct) over 17 patches. No suspicious DW transition. No NDVI decline."}}, {"type": "Feature", "geometry": {"type": "Point", "coordinates": [78.921803, 21.147499]}, "properties": {"hotspot_id": "MH-001-HS-0036", "project_id": "MH-001", "patch_count": 711, "priority_level": "UNSUPPORTED / MONITOR", "priority_score": 27.6, "evidence_summary": "CNN max 0.38 (94.8th pct) over 711 patches. No suspicious DW transition. No NDVI decline."}}, {"type": "Feature", "geometry": {"type": "Point", "coordinates": [78.932343, 21.137355]}, "properties": {"hotspot_id": "MH-001-HS-0065", "project_id": "MH-001", "patch_count": 44, "priority_level": "UNSUPPORTED / MONITOR", "priority_score": 27.3, "evidence_summary": "CNN max 0.36 (93.9th pct) over 44 patches. No suspicious DW transition. No NDVI decline."}}, {"type": "Feature", "geometry": {"type": "Point", "coordinates": [78.917271, 21.161942]}, "properties": {"hotspot_id": "MH-001-HS-0025", "project_id": "MH-001", "patch_count": 39, "priority_level": "UNSUPPORTED / MONITOR", "priority_score": 26.9, "evidence_summary": "CNN max 0.35 (92.9th pct) over 39 patches. No suspicious DW transition. No NDVI decline."}}, {"type": "Feature", "geometry": {"type": "Point", "coordinates": [78.920888, 21.176833]}, "properties": {"hotspot_id": "MH-001-HS-0000", "project_id": "MH-001", "patch_count": 493, "priority_level": "UNSUPPORTED / MONITOR", "priority_score": 26.6, "evidence_summary": "CNN max 0.33 (91.9th pct) over 493 patches. No suspicious DW transition. No NDVI decline."}}, {"type": "Feature", "geometry": {"type": "Point", "coordinates": [78.926183, 21.135899]}, "properties": {"hotspot_id": "MH-001-HS-0068", "project_id": "MH-001", "patch_count": 24, "priority_level": "UNSUPPORTED / MONITOR", "priority_score": 26.5, "evidence_summary": "CNN max 0.33 (91.5th pct) over 24 patches. No suspicious DW transition. No NDVI decline."}}, {"type": "Feature", "geometry": {"type": "Point", "coordinates": [73.44509, 18.944392]}, "properties": {"hotspot_id": "MH-003-HS-0010", "project_id": "MH-003", "patch_count": 2, "priority_level": "LOW PRIORITY", "priority_score": 26.5, "evidence_summary": "CNN max 0.13 (17.4th pct) over 2 patches. No suspicious DW transition. Moderate NDVI decline (-0.08)."}}, {"type": "Feature", "geometry": {"type": "Point", "coordinates": [80.33701, 19.587469]}, "properties": {"hotspot_id": "MH-002-HS-0022", "project_id": "MH-002", "patch_count": 19, "priority_level": "UNSUPPORTED / MONITOR", "priority_score": 26.1, "evidence_summary": "CNN max 0.31 (89.5th pct) over 19 patches. No suspicious DW transition. No NDVI decline."}}, {"type": "Feature", "geometry": {"type": "Point", "coordinates": [78.917198, 21.164506]}, "properties": {"hotspot_id": "MH-001-HS-0011", "project_id": "MH-001", "patch_count": 106, "priority_level": "UNSUPPORTED / MONITOR", "priority_score": 26.1, "evidence_summary": "CNN max 0.30 (89.0th pct) over 106 patches. No suspicious DW transition. No NDVI decline."}}, {"type": "Feature", "geometry": {"type": "Point", "coordinates": [78.937899, 21.150134]}, "properties": {"hotspot_id": "MH-001-HS-0031", "project_id": "MH-001", "patch_count": 113, "priority_level": "UNSUPPORTED / MONITOR", "priority_score": 25.9, "evidence_summary": "CNN max 0.30 (88.2th pct) over 113 patches. No suspicious DW transition. No NDVI decline."}}, {"type": "Feature", "geometry": {"type": "Point", "coordinates": [78.932196, 21.163483]}, "properties": {"hotspot_id": "MH-001-HS-0021", "project_id": "MH-001", "patch_count": 13, "priority_level": "UNSUPPORTED / MONITOR", "priority_score": 25.4, "evidence_summary": "CNN max 0.27 (85.2th pct) over 13 patches. No suspicious DW transition. No NDVI decline."}}, {"type": "Feature", "geometry": {"type": "Point", "coordinates": [78.930517, 21.163503]}, "properties": {"hotspot_id": "MH-001-HS-0017", "project_id": "MH-001", "patch_count": 26, "priority_level": "UNSUPPORTED / MONITOR", "priority_score": 25.1, "evidence_summary": "CNN max 0.26 (83.0th pct) over 26 patches. No suspicious DW transition. No NDVI decline."}}, {"type": "Feature", "geometry": {"type": "Point", "coordinates": [78.92534, 21.164394]}, "properties": {"hotspot_id": "MH-001-HS-0014", "project_id": "MH-001", "patch_count": 33, "priority_level": "UNSUPPORTED / MONITOR", "priority_score": 25.1, "evidence_summary": "CNN max 0.26 (82.8th pct) over 33 patches. No suspicious DW transition. No NDVI decline."}}, {"type": "Feature", "geometry": {"type": "Point", "coordinates": [78.931466, 21.147668]}, "properties": {"hotspot_id": "MH-001-HS-0043", "project_id": "MH-001", "patch_count": 69, "priority_level": "UNSUPPORTED / MONITOR", "priority_score": 25.0, "evidence_summary": "CNN max 0.25 (82.1th pct) over 69 patches. No suspicious DW transition. No NDVI decline."}}, {"type": "Feature", "geometry": {"type": "Point", "coordinates": [80.378269, 19.603818]}, "properties": {"hotspot_id": "MH-002-HS-0011", "project_id": "MH-002", "patch_count": 10, "priority_level": "UNSUPPORTED / MONITOR", "priority_score": 24.8, "evidence_summary": "CNN max 0.24 (79.3th pct) over 10 patches. No suspicious DW transition. No NDVI decline."}}, {"type": "Feature", "geometry": {"type": "Point", "coordinates": [78.931455, 21.134978]}, "properties": {"hotspot_id": "MH-001-HS-0072", "project_id": "MH-001", "patch_count": 23, "priority_level": "UNSUPPORTED / MONITOR", "priority_score": 24.5, "evidence_summary": "CNN max 0.22 (75.3th pct) over 23 patches. No suspicious DW transition. No NDVI decline."}}, {"type": "Feature", "geometry": {"type": "Point", "coordinates": [78.932956, 21.152187]}, "properties": {"hotspot_id": "MH-001-HS-0035", "project_id": "MH-001", "patch_count": 21, "priority_level": "UNSUPPORTED / MONITOR", "priority_score": 24.5, "evidence_summary": "CNN max 0.22 (75.1th pct) over 21 patches. No suspicious DW transition. No NDVI decline."}}, {"type": "Feature", "geometry": {"type": "Point", "coordinates": [73.444416, 18.94264]}, "properties": {"hotspot_id": "MH-003-HS-0014", "project_id": "MH-003", "patch_count": 1, "priority_level": "LOW PRIORITY", "priority_score": 24.5, "evidence_summary": "CNN max 0.12 (15.3th pct) over 1 patches. No suspicious DW transition. Moderate NDVI decline (-0.08)."}}, {"type": "Feature", "geometry": {"type": "Point", "coordinates": [78.923857, 21.152072]}, "properties": {"hotspot_id": "MH-001-HS-0039", "project_id": "MH-001", "patch_count": 14, "priority_level": "UNSUPPORTED / MONITOR", "priority_score": 24.3, "evidence_summary": "CNN max 0.22 (72.7th pct) over 14 patches. No suspicious DW transition. No NDVI decline."}}, {"type": "Feature", "geometry": {"type": "Point", "coordinates": [73.501709, 18.914021]}, "properties": {"hotspot_id": "MH-003-HS-0048", "project_id": "MH-003", "patch_count": 52, "priority_level": "UNSUPPORTED / MONITOR", "priority_score": 24.3, "evidence_summary": "CNN max 0.22 (72.5th pct) over 52 patches. No suspicious DW transition. No NDVI decline."}}, {"type": "Feature", "geometry": {"type": "Point", "coordinates": [78.925127, 21.144431]}, "properties": {"hotspot_id": "MH-001-HS-0055", "project_id": "MH-001", "patch_count": 13, "priority_level": "UNSUPPORTED / MONITOR", "priority_score": 24.2, "evidence_summary": "CNN max 0.21 (69.7th pct) over 13 patches. No suspicious DW transition. No NDVI decline."}}, {"type": "Feature", "geometry": {"type": "Point", "coordinates": [80.34725, 19.587271]}, "properties": {"hotspot_id": "MH-002-HS-0025", "project_id": "MH-002", "patch_count": 1, "priority_level": "LOW PRIORITY", "priority_score": 24.2, "evidence_summary": "CNN max 0.11 (11.1th pct) over 1 patches. No suspicious DW transition. Moderate NDVI decline (-0.09)."}}, {"type": "Feature", "geometry": {"type": "Point", "coordinates": [73.448189, 18.946413]}, "properties": {"hotspot_id": "MH-003-HS-0001", "project_id": "MH-003", "patch_count": 1, "priority_level": "LOW PRIORITY", "priority_score": 24.2, "evidence_summary": "CNN max 0.11 (9.9th pct) over 1 patches. No suspicious DW transition. Moderate NDVI decline (-0.06)."}}, {"type": "Feature", "geometry": {"type": "Point", "coordinates": [78.923106, 21.153034]}, "properties": {"hotspot_id": "MH-001-HS-0038", "project_id": "MH-001", "patch_count": 4, "priority_level": "LOW PRIORITY", "priority_score": 24.0, "evidence_summary": "CNN max 0.30 (88.4th pct) over 4 patches. No suspicious DW transition. Minor NDVI decline (-0.02)."}}, {"type": "Feature", "geometry": {"type": "Point", "coordinates": [80.347789, 19.601015]}, "properties": {"hotspot_id": "MH-002-HS-0015", "project_id": "MH-002", "patch_count": 1, "priority_level": "LOW PRIORITY", "priority_score": 24.0, "evidence_summary": "CNN max 0.10 (7.1th pct) over 1 patches. No suspicious DW transition. Moderate NDVI decline (-0.08)."}}, {"type": "Feature", "geometry": {"type": "Point", "coordinates": [78.926367, 21.148129]}, "properties": {"hotspot_id": "MH-001-HS-0044", "project_id": "MH-001", "patch_count": 5, "priority_level": "LOW PRIORITY", "priority_score": 23.6, "evidence_summary": "CNN max 0.18 (55.2th pct) over 5 patches. No suspicious DW transition. Minor NDVI decline (-0.03)."}}, {"type": "Feature", "geometry": {"type": "Point", "coordinates": [73.458492, 18.938996]}, "properties": {"hotspot_id": "MH-003-HS-0035", "project_id": "MH-003", "patch_count": 52, "priority_level": "UNSUPPORTED / MONITOR", "priority_score": 23.4, "evidence_summary": "CNN max 0.17 (46.6th pct) over 52 patches. No suspicious DW transition. No NDVI decline."}}, {"type": "Feature", "geometry": {"type": "Point", "coordinates": [78.926259, 21.161766]}, "properties": {"hotspot_id": "MH-001-HS-0029", "project_id": "MH-001", "patch_count": 5, "priority_level": "LOW PRIORITY", "priority_score": 23.2, "evidence_summary": "CNN max 0.16 (39.6th pct) over 5 patches. No suspicious DW transition. Minor NDVI decline (-0.00)."}}, {"type": "Feature", "geometry": {"type": "Point", "coordinates": [73.462325, 18.938548]}, "properties": {"hotspot_id": "MH-003-HS-0043", "project_id": "MH-003", "patch_count": 11, "priority_level": "UNSUPPORTED / MONITOR", "priority_score": 23.1, "evidence_summary": "CNN max 0.15 (34.8th pct) over 11 patches. No suspicious DW transition. No NDVI decline."}}, {"type": "Feature", "geometry": {"type": "Point", "coordinates": [78.91839, 21.179535]}, "properties": {"hotspot_id": "MH-001-HS-0002", "project_id": "MH-001", "patch_count": 9, "priority_level": "UNSUPPORTED / MONITOR", "priority_score": 22.1, "evidence_summary": "CNN max 0.20 (66.8th pct) over 9 patches. No suspicious DW transition. No NDVI decline."}}, {"type": "Feature", "geometry": {"type": "Point", "coordinates": [78.933328, 21.135286]}, "properties": {"hotspot_id": "MH-001-HS-0070", "project_id": "MH-001", "patch_count": 7, "priority_level": "UNSUPPORTED / MONITOR", "priority_score": 19.5, "evidence_summary": "CNN max 0.27 (85.4th pct) over 7 patches. No suspicious DW transition. No NDVI decline."}}, {"type": "Feature", "geometry": {"type": "Point", "coordinates": [73.502829, 18.912625]}, "properties": {"hotspot_id": "MH-003-HS-0053", "project_id": "MH-003", "patch_count": 8, "priority_level": "UNSUPPORTED / MONITOR", "priority_score": 19.0, "evidence_summary": "CNN max 0.15 (33.0th pct) over 8 patches. No suspicious DW transition. No NDVI decline."}}, {"type": "Feature", "geometry": {"type": "Point", "coordinates": [78.932538, 21.145623]}, "properties": {"hotspot_id": "MH-001-HS-0052", "project_id": "MH-001", "patch_count": 2, "priority_level": "LOW PRIORITY", "priority_score": 18.9, "evidence_summary": "CNN max 0.25 (80.9th pct) over 2 patches. No suspicious DW transition. Minor NDVI decline (-0.03)."}}, {"type": "Feature", "geometry": {"type": "Point", "coordinates": [78.931146, 21.162197]}, "properties": {"hotspot_id": "MH-001-HS-0026", "project_id": "MH-001", "patch_count": 3, "priority_level": "LOW PRIORITY", "priority_score": 18.9, "evidence_summary": "CNN max 0.15 (28.5th pct) over 3 patches. No suspicious DW transition. Minor NDVI decline (-0.01)."}}, {"type": "Feature", "geometry": {"type": "Point", "coordinates": [73.446303, 18.938193]}, "properties": {"hotspot_id": "MH-003-HS-0045", "project_id": "MH-003", "patch_count": 8, "priority_level": "UNSUPPORTED / MONITOR", "priority_score": 18.6, "evidence_summary": "CNN max 0.13 (19.7th pct) over 8 patches. No suspicious DW transition. No NDVI decline."}}, {"type": "Feature", "geometry": {"type": "Point", "coordinates": [78.923818, 21.165008]}, "properties": {"hotspot_id": "MH-001-HS-0013", "project_id": "MH-001", "patch_count": 7, "priority_level": "UNSUPPORTED / MONITOR", "priority_score": 18.5, "evidence_summary": "CNN max 0.22 (75.3th pct) over 7 patches. No suspicious DW transition. No NDVI decline."}}, {"type": "Feature", "geometry": {"type": "Point", "coordinates": [73.451602, 18.942191]}, "properties": {"hotspot_id": "MH-003-HS-0018", "project_id": "MH-003", "patch_count": 3, "priority_level": "LOW PRIORITY", "priority_score": 18.4, "evidence_summary": "CNN max 0.12 (13.3th pct) over 3 patches. No suspicious DW transition. Minor NDVI decline (-0.02)."}}, {"type": "Feature", "geometry": {"type": "Point", "coordinates": [78.924947, 21.135068]}, "properties": {"hotspot_id": "MH-001-HS-0071", "project_id": "MH-001", "patch_count": 6, "priority_level": "UNSUPPORTED / MONITOR", "priority_score": 18.3, "evidence_summary": "CNN max 0.31 (90.3th pct) over 6 patches. No suspicious DW transition. No NDVI decline."}}, {"type": "Feature", "geometry": {"type": "Point", "coordinates": [78.920469, 21.177982]}, "properties": {"hotspot_id": "MH-001-HS-0003", "project_id": "MH-001", "patch_count": 7, "priority_level": "UNSUPPORTED / MONITOR", "priority_score": 18.3, "evidence_summary": "CNN max 0.22 (72.2th pct) over 7 patches. No suspicious DW transition. No NDVI decline."}}, {"type": "Feature", "geometry": {"type": "Point", "coordinates": [80.345633, 19.58754]}, "properties": {"hotspot_id": "MH-002-HS-0023", "project_id": "MH-002", "patch_count": 1, "priority_level": "LOW PRIORITY", "priority_score": 18.1, "evidence_summary": "CNN max 0.31 (89.3th pct) over 1 patches. No suspicious DW transition. Minor NDVI decline (-0.00)."}}, {"type": "Feature", "geometry": {"type": "Point", "coordinates": [78.92122, 21.176211]}, "properties": {"hotspot_id": "MH-001-HS-0007", "project_id": "MH-001", "patch_count": 2, "priority_level": "LOW PRIORITY", "priority_score": 17.6, "evidence_summary": "CNN max 0.18 (54.3th pct) over 2 patches. No suspicious DW transition. Minor NDVI decline (-0.00)."}}, {"type": "Feature", "geometry": {"type": "Point", "coordinates": [78.938602, 21.146297]}, "properties": {"hotspot_id": "MH-001-HS-0050", "project_id": "MH-001", "patch_count": 1, "priority_level": "LOW PRIORITY", "priority_score": 16.7, "evidence_summary": "CNN max 0.24 (78.6th pct) over 1 patches. No suspicious DW transition. Minor NDVI decline (-0.02)."}}, {"type": "Feature", "geometry": {"type": "Point", "coordinates": [73.448863, 18.940484]}, "properties": {"hotspot_id": "MH-003-HS-0028", "project_id": "MH-003", "patch_count": 2, "priority_level": "LOW PRIORITY", "priority_score": 16.6, "evidence_summary": "CNN max 0.13 (18.6th pct) over 2 patches. No suspicious DW transition. Minor NDVI decline (-0.01)."}}, {"type": "Feature", "geometry": {"type": "Point", "coordinates": [73.45048, 18.937789]}, "properties": {"hotspot_id": "MH-003-HS-0047", "project_id": "MH-003", "patch_count": 2, "priority_level": "LOW PRIORITY", "priority_score": 16.1, "evidence_summary": "CNN max 0.10 (7.8th pct) over 2 patches. No suspicious DW transition. Minor NDVI decline (-0.00)."}}, {"type": "Feature", "geometry": {"type": "Point", "coordinates": [78.932673, 21.14441]}, "properties": {"hotspot_id": "MH-001-HS-0058", "project_id": "MH-001", "patch_count": 1, "priority_level": "LOW PRIORITY", "priority_score": 16.0, "evidence_summary": "CNN max 0.20 (64.7th pct) over 1 patches. No suspicious DW transition. Minor NDVI decline (-0.05)."}}, {"type": "Feature", "geometry": {"type": "Point", "coordinates": [73.465077, 18.938912]}, "properties": {"hotspot_id": "MH-003-HS-0040", "project_id": "MH-003", "patch_count": 6, "priority_level": "UNSUPPORTED / MONITOR", "priority_score": 15.3, "evidence_summary": "CNN max 0.16 (42.1th pct) over 6 patches. No suspicious DW transition. No NDVI decline."}}, {"type": "Feature", "geometry": {"type": "Point", "coordinates": [80.346172, 19.585654]}, "properties": {"hotspot_id": "MH-002-HS-0027", "project_id": "MH-002", "patch_count": 1, "priority_level": "LOW PRIORITY", "priority_score": 14.8, "evidence_summary": "CNN max 0.14 (24.4th pct) over 1 patches. No suspicious DW transition. Minor NDVI decline (-0.00)."}}, {"type": "Feature", "geometry": {"type": "Point", "coordinates": [78.922702, 21.146297]}, "properties": {"hotspot_id": "MH-001-HS-0046", "project_id": "MH-001", "patch_count": 5, "priority_level": "UNSUPPORTED / MONITOR", "priority_score": 14.3, "evidence_summary": "CNN max 0.21 (71.5th pct) over 5 patches. No suspicious DW transition. No NDVI decline."}}, {"type": "Feature", "geometry": {"type": "Point", "coordinates": [73.455196, 18.938328]}, "properties": {"hotspot_id": "MH-003-HS-0046", "project_id": "MH-003", "patch_count": 1, "priority_level": "LOW PRIORITY", "priority_score": 14.3, "evidence_summary": "CNN max 0.12 (12.8th pct) over 1 patches. No suspicious DW transition. Minor NDVI decline (-0.02)."}}, {"type": "Feature", "geometry": {"type": "Point", "coordinates": [78.922837, 21.163814]}, "properties": {"hotspot_id": "MH-001-HS-0020", "project_id": "MH-001", "patch_count": 4, "priority_level": "UNSUPPORTED / MONITOR", "priority_score": 12.8, "evidence_summary": "CNN max 0.24 (79.1th pct) over 4 patches. No suspicious DW transition. No NDVI decline."}}, {"type": "Feature", "geometry": {"type": "Point", "coordinates": [80.352506, 19.591044]}, "properties": {"hotspot_id": "MH-002-HS-0020", "project_id": "MH-002", "patch_count": 2, "priority_level": "UNSUPPORTED / MONITOR", "priority_score": 12.1, "evidence_summary": "CNN max 0.41 (96.3th pct) over 2 patches. No suspicious DW transition. No NDVI decline."}}, {"type": "Feature", "geometry": {"type": "Point", "coordinates": [73.49845, 18.91441]}, "properties": {"hotspot_id": "MH-003-HS-0049", "project_id": "MH-003", "patch_count": 4, "priority_level": "UNSUPPORTED / MONITOR", "priority_score": 11.8, "evidence_summary": "CNN max 0.19 (59.1th pct) over 4 patches. No suspicious DW transition. No NDVI decline."}}, {"type": "Feature", "geometry": {"type": "Point", "coordinates": [78.926475, 21.178097]}, "properties": {"hotspot_id": "MH-001-HS-0004", "project_id": "MH-001", "patch_count": 3, "priority_level": "UNSUPPORTED / MONITOR", "priority_score": 11.6, "evidence_summary": "CNN max 0.28 (86.4th pct) over 3 patches. No suspicious DW transition. No NDVI decline."}}, {"type": "Feature", "geometry": {"type": "Point", "coordinates": [80.344892, 19.587001]}, "properties": {"hotspot_id": "MH-002-HS-0024", "project_id": "MH-002", "patch_count": 4, "priority_level": "UNSUPPORTED / MONITOR", "priority_score": 11.2, "evidence_summary": "CNN max 0.16 (41.0th pct) over 4 patches. No suspicious DW transition. No NDVI decline."}}, {"type": "Feature", "geometry": {"type": "Point", "coordinates": [78.933392, 21.145219]}, "properties": {"hotspot_id": "MH-001-HS-0054", "project_id": "MH-001", "patch_count": 3, "priority_level": "UNSUPPORTED / MONITOR", "priority_score": 10.8, "evidence_summary": "CNN max 0.24 (79.4th pct) over 3 patches. No suspicious DW transition. No NDVI decline."}}, {"type": "Feature", "geometry": {"type": "Point", "coordinates": [78.938063, 21.154382]}, "properties": {"hotspot_id": "MH-001-HS-0030", "project_id": "MH-001", "patch_count": 3, "priority_level": "UNSUPPORTED / MONITOR", "priority_score": 10.7, "evidence_summary": "CNN max 0.23 (78.1th pct) over 3 patches. No suspicious DW transition. No NDVI decline."}}, {"type": "Feature", "geometry": {"type": "Point", "coordinates": [73.467188, 18.938597]}, "properties": {"hotspot_id": "MH-003-HS-0044", "project_id": "MH-003", "patch_count": 4, "priority_level": "UNSUPPORTED / MONITOR", "priority_score": 10.7, "evidence_summary": "CNN max 0.14 (22.3th pct) over 4 patches. No suspicious DW transition. No NDVI decline."}}, {"type": "Feature", "geometry": {"type": "Point", "coordinates": [73.503098, 18.911446]}, "properties": {"hotspot_id": "MH-003-HS-0055", "project_id": "MH-003", "patch_count": 4, "priority_level": "UNSUPPORTED / MONITOR", "priority_score": 10.7, "evidence_summary": "CNN max 0.13 (20.6th pct) over 4 patches. No suspicious DW transition. No NDVI decline."}}, {"type": "Feature", "geometry": {"type": "Point", "coordinates": [80.346532, 19.586822]}, "properties": {"hotspot_id": "MH-002-HS-0026", "project_id": "MH-002", "patch_count": 3, "priority_level": "UNSUPPORTED / MONITOR", "priority_score": 10.3, "evidence_summary": "CNN max 0.22 (72.2th pct) over 3 patches. No suspicious DW transition. No NDVI decline."}}, {"type": "Feature", "geometry": {"type": "Point", "coordinates": [78.926385, 21.1445]}, "properties": {"hotspot_id": "MH-001-HS-0056", "project_id": "MH-001", "patch_count": 3, "priority_level": "UNSUPPORTED / MONITOR", "priority_score": 9.8, "evidence_summary": "CNN max 0.19 (59.5th pct) over 3 patches. No suspicious DW transition. No NDVI decline."}}, {"type": "Feature", "geometry": {"type": "Point", "coordinates": [78.933482, 21.137404]}, "properties": {"hotspot_id": "MH-001-HS-0067", "project_id": "MH-001", "patch_count": 3, "priority_level": "UNSUPPORTED / MONITOR", "priority_score": 9.7, "evidence_summary": "CNN max 0.19 (58.0th pct) over 3 patches. No suspicious DW transition. No NDVI decline."}}, {"type": "Feature", "geometry": {"type": "Point", "coordinates": [80.334854, 19.615702]}, "properties": {"hotspot_id": "MH-002-HS-0003", "project_id": "MH-002", "patch_count": 2, "priority_level": "UNSUPPORTED / MONITOR", "priority_score": 9.5, "evidence_summary": "CNN max 0.28 (85.6th pct) over 2 patches. No suspicious DW transition. No NDVI decline."}}, {"type": "Feature", "geometry": {"type": "Point", "coordinates": [80.34186, 19.618263]}, "properties": {"hotspot_id": "MH-002-HS-0001", "project_id": "MH-002", "patch_count": 1, "priority_level": "UNSUPPORTED / MONITOR", "priority_score": 9.2, "evidence_summary": "CNN max 0.36 (93.7th pct) over 1 patches. No suspicious DW transition. No NDVI decline."}}, {"type": "Feature", "geometry": {"type": "Point", "coordinates": [78.92634, 21.163275]}, "properties": {"hotspot_id": "MH-001-HS-0023", "project_id": "MH-001", "patch_count": 2, "priority_level": "UNSUPPORTED / MONITOR", "priority_score": 8.7, "evidence_summary": "CNN max 0.24 (78.6th pct) over 2 patches. No suspicious DW transition. No NDVI decline."}}, {"type": "Feature", "geometry": {"type": "Point", "coordinates": [78.931461, 21.153304]}, "properties": {"hotspot_id": "MH-001-HS-0034", "project_id": "MH-001", "patch_count": 2, "priority_level": "UNSUPPORTED / MONITOR", "priority_score": 8.4, "evidence_summary": "CNN max 0.22 (73.6th pct) over 2 patches. No suspicious DW transition. No NDVI decline."}}, {"type": "Feature", "geometry": {"type": "Point", "coordinates": [78.921759, 21.152226]}, "properties": {"hotspot_id": "MH-001-HS-0041", "project_id": "MH-001", "patch_count": 2, "priority_level": "UNSUPPORTED / MONITOR", "priority_score": 8.2, "evidence_summary": "CNN max 0.21 (70.9th pct) over 2 patches. No suspicious DW transition. No NDVI decline."}}, {"type": "Feature", "geometry": {"type": "Point", "coordinates": [78.937255, 21.13956]}, "properties": {"hotspot_id": "MH-001-HS-0062", "project_id": "MH-001", "patch_count": 1, "priority_level": "UNSUPPORTED / MONITOR", "priority_score": 7.9, "evidence_summary": "CNN max 0.30 (88.1th pct) over 1 patches. No suspicious DW transition. No NDVI decline."}}, {"type": "Feature", "geometry": {"type": "Point", "coordinates": [78.915965, 21.163006]}, "properties": {"hotspot_id": "MH-001-HS-0024", "project_id": "MH-001", "patch_count": 1, "priority_level": "UNSUPPORTED / MONITOR", "priority_score": 7.9, "evidence_summary": "CNN max 0.29 (88.0th pct) over 1 patches. No suspicious DW transition. No NDVI decline."}}, {"type": "Feature", "geometry": {"type": "Point", "coordinates": [78.926475, 21.165026]}, "properties": {"hotspot_id": "MH-001-HS-0016", "project_id": "MH-001", "patch_count": 2, "priority_level": "UNSUPPORTED / MONITOR", "priority_score": 7.8, "evidence_summary": "CNN max 0.19 (60.2th pct) over 2 patches. No suspicious DW transition. No NDVI decline."}}, {"type": "Feature", "geometry": {"type": "Point", "coordinates": [78.923914, 21.162062]}, "properties": {"hotspot_id": "MH-001-HS-0028", "project_id": "MH-001", "patch_count": 2, "priority_level": "UNSUPPORTED / MONITOR", "priority_score": 7.8, "evidence_summary": "CNN max 0.19 (58.7th pct) over 2 patches. No suspicious DW transition. No NDVI decline."}}, {"type": "Feature", "geometry": {"type": "Point", "coordinates": [73.497237, 18.913399]}, "properties": {"hotspot_id": "MH-003-HS-0052", "project_id": "MH-003", "patch_count": 2, "priority_level": "UNSUPPORTED / MONITOR", "priority_score": 7.7, "evidence_summary": "CNN max 0.19 (57.7th pct) over 2 patches. No suspicious DW transition. No NDVI decline."}}, {"type": "Feature", "geometry": {"type": "Point", "coordinates": [78.91556, 21.175402]}, "properties": {"hotspot_id": "MH-001-HS-0009", "project_id": "MH-001", "patch_count": 2, "priority_level": "UNSUPPORTED / MONITOR", "priority_score": 7.3, "evidence_summary": "CNN max 0.17 (43.9th pct) over 2 patches. No suspicious DW transition. No NDVI decline."}}, {"type": "Feature", "geometry": {"type": "Point", "coordinates": [73.463011, 18.946008]}, "properties": {"hotspot_id": "MH-003-HS-0004", "project_id": "MH-003", "patch_count": 2, "priority_level": "UNSUPPORTED / MONITOR", "priority_score": 7.1, "evidence_summary": "CNN max 0.15 (34.0th pct) over 2 patches. No suspicious DW transition. No NDVI decline."}}, {"type": "Feature", "geometry": {"type": "Point", "coordinates": [73.497372, 18.914343]}, "properties": {"hotspot_id": "MH-003-HS-0050", "project_id": "MH-003", "patch_count": 2, "priority_level": "UNSUPPORTED / MONITOR", "priority_score": 7.0, "evidence_summary": "CNN max 0.15 (31.4th pct) over 2 patches. No suspicious DW transition. No NDVI decline."}}, {"type": "Feature", "geometry": {"type": "Point", "coordinates": [78.930248, 21.153304]}, "properties": {"hotspot_id": "MH-001-HS-0033", "project_id": "MH-001", "patch_count": 1, "priority_level": "UNSUPPORTED / MONITOR", "priority_score": 6.9, "evidence_summary": "CNN max 0.25 (80.9th pct) over 1 patches. No suspicious DW transition. No NDVI decline."}}, {"type": "Feature", "geometry": {"type": "Point", "coordinates": [78.932943, 21.146566]}, "properties": {"hotspot_id": "MH-001-HS-0047", "project_id": "MH-001", "patch_count": 1, "priority_level": "UNSUPPORTED / MONITOR", "priority_score": 6.9, "evidence_summary": "CNN max 0.24 (80.3th pct) over 1 patches. No suspicious DW transition. No NDVI decline."}}, {"type": "Feature", "geometry": {"type": "Point", "coordinates": [78.933482, 21.146566]}, "properties": {"hotspot_id": "MH-001-HS-0048", "project_id": "MH-001", "patch_count": 1, "priority_level": "UNSUPPORTED / MONITOR", "priority_score": 6.8, "evidence_summary": "CNN max 0.24 (80.1th pct) over 1 patches. No suspicious DW transition. No NDVI decline."}}, {"type": "Feature", "geometry": {"type": "Point", "coordinates": [78.924588, 21.163275]}, "properties": {"hotspot_id": "MH-001-HS-0022", "project_id": "MH-001", "patch_count": 1, "priority_level": "UNSUPPORTED / MONITOR", "priority_score": 6.8, "evidence_summary": "CNN max 0.24 (79.3th pct) over 1 patches. No suspicious DW transition. No NDVI decline."}}, {"type": "Feature", "geometry": {"type": "Point", "coordinates": [73.46382, 18.940618]}, "properties": {"hotspot_id": "MH-003-HS-0027", "project_id": "MH-003", "patch_count": 2, "priority_level": "UNSUPPORTED / MONITOR", "priority_score": 6.8, "evidence_summary": "CNN max 0.14 (24.1th pct) over 2 patches. No suspicious DW transition. No NDVI decline."}}, {"type": "Feature", "geometry": {"type": "Point", "coordinates": [73.462742, 18.9452]}, "properties": {"hotspot_id": "MH-003-HS-0006", "project_id": "MH-003", "patch_count": 2, "priority_level": "UNSUPPORTED / MONITOR", "priority_score": 6.8, "evidence_summary": "CNN max 0.14 (23.3th pct) over 2 patches. No suspicious DW transition. No NDVI decline."}}, {"type": "Feature", "geometry": {"type": "Point", "coordinates": [78.932404, 21.146297]}, "properties": {"hotspot_id": "MH-001-HS-0049", "project_id": "MH-001", "patch_count": 1, "priority_level": "UNSUPPORTED / MONITOR", "priority_score": 6.7, "evidence_summary": "CNN max 0.24 (78.4th pct) over 1 patches. No suspicious DW transition. No NDVI decline."}}, {"type": "Feature", "geometry": {"type": "Point", "coordinates": [78.916773, 21.177289]}, "properties": {"hotspot_id": "MH-001-HS-0006", "project_id": "MH-001", "patch_count": 1, "priority_level": "UNSUPPORTED / MONITOR", "priority_score": 6.5, "evidence_summary": "CNN max 0.22 (75.5th pct) over 1 patches. No suspicious DW transition. No NDVI decline."}}, {"type": "Feature", "geometry": {"type": "Point", "coordinates": [73.46355, 18.943583]}, "properties": {"hotspot_id": "MH-003-HS-0011", "project_id": "MH-003", "patch_count": 2, "priority_level": "UNSUPPORTED / MONITOR", "priority_score": 6.5, "evidence_summary": "CNN max 0.13 (17.0th pct) over 2 patches. No suspicious DW transition. No NDVI decline."}}, {"type": "Feature", "geometry": {"type": "Point", "coordinates": [78.932134, 21.164353]}, "properties": {"hotspot_id": "MH-001-HS-0019", "project_id": "MH-001", "patch_count": 1, "priority_level": "UNSUPPORTED / MONITOR", "priority_score": 6.4, "evidence_summary": "CNN max 0.22 (74.0th pct) over 1 patches. No suspicious DW transition. No NDVI decline."}}, {"type": "Feature", "geometry": {"type": "Point", "coordinates": [73.499662, 18.914208]}, "properties": {"hotspot_id": "MH-003-HS-0051", "project_id": "MH-003", "patch_count": 2, "priority_level": "UNSUPPORTED / MONITOR", "priority_score": 6.4, "evidence_summary": "CNN max 0.12 (13.4th pct) over 2 patches. No suspicious DW transition. No NDVI decline."}}, {"type": "Feature", "geometry": {"type": "Point", "coordinates": [73.465571, 18.939675]}, "properties": {"hotspot_id": "MH-003-HS-0033", "project_id": "MH-003", "patch_count": 2, "priority_level": "UNSUPPORTED / MONITOR", "priority_score": 6.2, "evidence_summary": "CNN max 0.11 (10.8th pct) over 2 patches. No suspicious DW transition. No NDVI decline."}}, {"type": "Feature", "geometry": {"type": "Point", "coordinates": [73.466784, 18.939271]}, "properties": {"hotspot_id": "MH-003-HS-0037", "project_id": "MH-003", "patch_count": 2, "priority_level": "UNSUPPORTED / MONITOR", "priority_score": 6.2, "evidence_summary": "CNN max 0.11 (10.4th pct) over 2 patches. No suspicious DW transition. No NDVI decline."}}, {"type": "Feature", "geometry": {"type": "Point", "coordinates": [73.464089, 18.939001]}, "properties": {"hotspot_id": "MH-003-HS-0039", "project_id": "MH-003", "patch_count": 2, "priority_level": "UNSUPPORTED / MONITOR", "priority_score": 6.2, "evidence_summary": "CNN max 0.11 (10.2th pct) over 2 patches. No suspicious DW transition. No NDVI decline."}}, {"type": "Feature", "geometry": {"type": "Point", "coordinates": [78.931326, 21.136595]}, "properties": {"hotspot_id": "MH-001-HS-0069", "project_id": "MH-001", "patch_count": 1, "priority_level": "UNSUPPORTED / MONITOR", "priority_score": 6.0, "evidence_summary": "CNN max 0.20 (66.2th pct) over 1 patches. No suspicious DW transition. No NDVI decline."}}, {"type": "Feature", "geometry": {"type": "Point", "coordinates": [78.922433, 21.176211]}, "properties": {"hotspot_id": "MH-001-HS-0008", "project_id": "MH-001", "patch_count": 1, "priority_level": "UNSUPPORTED / MONITOR", "priority_score": 5.9, "evidence_summary": "CNN max 0.19 (61.6th pct) over 1 patches. No suspicious DW transition. No NDVI decline."}}, {"type": "Feature", "geometry": {"type": "Point", "coordinates": [80.338357, 19.592661]}, "properties": {"hotspot_id": "MH-002-HS-0018", "project_id": "MH-002", "patch_count": 1, "priority_level": "UNSUPPORTED / MONITOR", "priority_score": 5.9, "evidence_summary": "CNN max 0.19 (61.4th pct) over 1 patches. No suspicious DW transition. No NDVI decline."}}, {"type": "Feature", "geometry": {"type": "Point", "coordinates": [78.916234, 21.179984]}, "properties": {"hotspot_id": "MH-001-HS-0001", "project_id": "MH-001", "patch_count": 1, "priority_level": "UNSUPPORTED / MONITOR", "priority_score": 5.9, "evidence_summary": "CNN max 0.19 (61.3th pct) over 1 patches. No suspicious DW transition. No NDVI decline."}}, {"type": "Feature", "geometry": {"type": "Point", "coordinates": [78.926205, 21.147375]}, "properties": {"hotspot_id": "MH-001-HS-0045", "project_id": "MH-001", "patch_count": 1, "priority_level": "UNSUPPORTED / MONITOR", "priority_score": 5.5, "evidence_summary": "CNN max 0.18 (50.3th pct) over 1 patches. No suspicious DW transition. No NDVI decline."}}, {"type": "Feature", "geometry": {"type": "Point", "coordinates": [80.346981, 19.601554]}, "properties": {"hotspot_id": "MH-002-HS-0014", "project_id": "MH-002", "patch_count": 1, "priority_level": "UNSUPPORTED / MONITOR", "priority_score": 5.2, "evidence_summary": "CNN max 0.16 (40.6th pct) over 1 patches. No suspicious DW transition. No NDVI decline."}}, {"type": "Feature", "geometry": {"type": "Point", "coordinates": [78.933482, 21.140907]}, "properties": {"hotspot_id": "MH-001-HS-0060", "project_id": "MH-001", "patch_count": 1, "priority_level": "UNSUPPORTED / MONITOR", "priority_score": 5.1, "evidence_summary": "CNN max 0.16 (36.6th pct) over 1 patches. No suspicious DW transition. No NDVI decline."}}, {"type": "Feature", "geometry": {"type": "Point", "coordinates": [78.922163, 21.175402]}, "properties": {"hotspot_id": "MH-001-HS-0010", "project_id": "MH-001", "patch_count": 1, "priority_level": "UNSUPPORTED / MONITOR", "priority_score": 4.9, "evidence_summary": "CNN max 0.14 (28.0th pct) over 1 patches. No suspicious DW transition. No NDVI decline."}}, {"type": "Feature", "geometry": {"type": "Point", "coordinates": [73.50074, 18.912726]}, "properties": {"hotspot_id": "MH-003-HS-0054", "project_id": "MH-003", "patch_count": 1, "priority_level": "UNSUPPORTED / MONITOR", "priority_score": 4.9, "evidence_summary": "CNN max 0.14 (27.9th pct) over 1 patches. No suspicious DW transition. No NDVI decline."}}, {"type": "Feature", "geometry": {"type": "Point", "coordinates": [73.466515, 18.940214]}, "properties": {"hotspot_id": "MH-003-HS-0030", "project_id": "MH-003", "patch_count": 1, "priority_level": "UNSUPPORTED / MONITOR", "priority_score": 4.8, "evidence_summary": "CNN max 0.14 (25.1th pct) over 1 patches. No suspicious DW transition. No NDVI decline."}}, {"type": "Feature", "geometry": {"type": "Point", "coordinates": [78.921355, 21.153034]}, "properties": {"hotspot_id": "MH-001-HS-0037", "project_id": "MH-001", "patch_count": 1, "priority_level": "UNSUPPORTED / MONITOR", "priority_score": 4.8, "evidence_summary": "CNN max 0.14 (23.9th pct) over 1 patches. No suspicious DW transition. No NDVI decline."}}, {"type": "Feature", "geometry": {"type": "Point", "coordinates": [73.444416, 18.944796]}, "properties": {"hotspot_id": "MH-003-HS-0008", "project_id": "MH-003", "patch_count": 1, "priority_level": "UNSUPPORTED / MONITOR", "priority_score": 4.7, "evidence_summary": "CNN max 0.13 (20.3th pct) over 1 patches. No suspicious DW transition. No NDVI decline."}}, {"type": "Feature", "geometry": {"type": "Point", "coordinates": [78.931595, 21.164892]}, "properties": {"hotspot_id": "MH-001-HS-0018", "project_id": "MH-001", "patch_count": 1, "priority_level": "UNSUPPORTED / MONITOR", "priority_score": 4.4, "evidence_summary": "CNN max 0.12 (13.7th pct) over 1 patches. No suspicious DW transition. No NDVI decline."}}, {"type": "Feature", "geometry": {"type": "Point", "coordinates": [78.921894, 21.151687]}, "properties": {"hotspot_id": "MH-001-HS-0042", "project_id": "MH-001", "patch_count": 1, "priority_level": "UNSUPPORTED / MONITOR", "priority_score": 4.3, "evidence_summary": "CNN max 0.11 (11.6th pct) over 1 patches. No suspicious DW transition. No NDVI decline."}}, {"type": "Feature", "geometry": {"type": "Point", "coordinates": [73.46355, 18.947491]}, "properties": {"hotspot_id": "MH-003-HS-0000", "project_id": "MH-003", "patch_count": 1, "priority_level": "UNSUPPORTED / MONITOR", "priority_score": 4.2, "evidence_summary": "CNN max 0.11 (10.7th pct) over 1 patches. No suspicious DW transition. No NDVI decline."}}, {"type": "Feature", "geometry": {"type": "Point", "coordinates": [73.457352, 18.939406]}, "properties": {"hotspot_id": "MH-003-HS-0036", "project_id": "MH-003", "patch_count": 1, "priority_level": "UNSUPPORTED / MONITOR", "priority_score": 4.1, "evidence_summary": "CNN max 0.10 (8.0th pct) over 1 patches. No suspicious DW transition. No NDVI decline."}}]}