<?xml version="1.0" encoding="UTF-8"?>
<kml xmlns="http://www.opengis.net/kml/2.2" xmlns:gx="http://www.google.com/kml/ext/2.2" xmlns:kml="http://www.opengis.net/kml/2.2" xmlns:atom="http://www.w3.org/2005/Atom">
<Document>
	<name>Lease limit.kml</name>
	<Style id="area1">
		<LineStyle>
			<color>ff0000ff</color>
			<width>3</width>
		</LineStyle>
		<PolyStyle>
			<color>00ffffff</color>
		</PolyStyle>
	</Style>
	<Folder>
		<name>Lease limit</name>
		<open>1</open>
		<description>Lease limit</description>
		<Placemark>
			<name>0</name>
			<description><![CDATA[<html xmlns:fo="http://www.w3.org/1999/XSL/Format" xmlns:msxsl="urn:schemas-microsoft-com:xslt">

<head>

<META http-equiv="Content-Type" content="text/html">

<meta http-equiv="content-type" content="text/html; charset=UTF-8">

</head>

<body style="margin:0px 0px 0px 0px;overflow:auto;background:#FFFFFF;">

<table style="font-family:Arial,Verdana,Times;font-size:12px;text-align:left;width:100%;border-collapse:collapse;padding:3px 3px 3px 3px">

<tr style="text-align:center;font-weight:bold;background:#9CBCE2">

<td>0</td>

</tr>

<tr>

<td>

<table style="font-family:Arial,Verdana,Times;font-size:12px;text-align:left;width:100%;border-spacing:0px; padding:3px 3px 3px 3px"></table>

</td>

</tr>

</table>

</body>

</html>]]></description>
			<styleUrl>#area1</styleUrl>
			<Polygon>
				<outerBoundaryIs>
					<LinearRing>
						<coordinates>
							78.9197147225,21.1446855557,0 78.9217291671,21.1403727778,0 78.924177222,21.135080278,0 78.9256430553,21.1327047221,0 78.93250527790001,21.1342880559,0 78.93521999950001,21.1340869447,0 78.9378377776,21.1347886109,0 78.9382525004,21.1361797226,0 78.93838277819999,21.1366727779,0 78.9386019447,21.1377005551,0 78.9381458335,21.1381794444,0 78.9376411115,21.1390538891,0 78.9373761115,21.1394744446,0 78.937246667,21.1396694444,0 78.9370977777,21.1398530554,0 78.9368286112,21.1400555556,0 78.9365005554,21.1402333335,0 78.9363497221,21.1404147218,0 78.9362333338,21.1406383334,0 78.9361313891,21.1409327778,0 78.936033333,21.1413591665,0 78.9358986109,21.1420836111,0 78.93563972210001,21.1426897226,0 78.93498694439999,21.1437566664,0 78.934748056,21.144177778,0 78.93454416660001,21.1446166669,0 78.9341188885,21.1456961109,0 78.9337783336,21.1467713885,0 78.93362138880001,21.1472124999,0 78.93347833359999,21.1475083336,0 78.9332980555,21.1476961113,0 78.9327711107,21.1480597218,0 78.9324102774,21.1483424998,0 78.9322641663,21.1485380559,0 78.93184361110001,21.1495444444,0 78.9318275004,21.1499805556,0 78.9315658333,21.151345833,0 78.9313058333,21.1516755551,0 78.9311602775,21.1519883331,0 78.9309813887,21.1524836111,0 78.9308136113,21.1527577781,0 78.9305663888,21.1530636114,0 78.92998277789999,21.1536919446,0 78.92964111080001,21.1540288889,0 78.9291952775,21.1544469442,0 78.92889833300001,21.1545699999,0 78.9287033329,21.1547119447,0 78.9283797224,21.1552088886,0 78.9278952782,21.1556291666,0 78.9272275001,21.156675833,0 78.9280555557,21.1564013892,0 78.928926667,21.1562022222,0 78.9306872226,21.1539986115,0 78.9334883336,21.1507122218,0 78.9351513886,21.1487413886,0 78.9361516662,21.1477997227,0 78.93676305539999,21.1472836114,0 78.9381086114,21.1463736109,0 78.93881194399999,21.1459652782,0 78.9404022221,21.1449552776,0 78.9400130554,21.1467475003,0 78.9393724995,21.1498133333,0 78.9386838888,21.1524205554,0 78.9379183331,21.1553336109,0 78.9372619448,21.1567133336,0 78.93638638900001,21.158632778,0 78.9330727774,21.1631244449,0 78.9325680554,21.1637791666,0 78.9322925001,21.1642738887,0 78.9288911111,21.1706030555,0 78.9270061111,21.1786261111,0 78.9269805556,21.1789966671,0 78.9248144443,21.1799277778,0 78.9218324998,21.1811991667,0 78.91996583309999,21.1819988887,0 78.9126738885,21.1804963891,0 78.91291861089999,21.1800375003,0 78.9152161113,21.1757605553,0 78.9176933331,21.1712563891,0 78.9131219443,21.1675738887,0 78.9158986111,21.1631977776,0 78.9167341668,21.1586586108,0 78.9198930557,21.1526986112,0 78.9167222218,21.1511080557,0 78.9197147225,21.1446855557,0 
						</coordinates>
					</LinearRing>
				</outerBoundaryIs>
			</Polygon>
		</Placemark>
	</Folder>
</Document>
</kml>
