<?xml version="1.0" encoding="UTF-8"?>
<kml xmlns="http://www.opengis.net/kml/2.2" xmlns:gx="http://www.google.com/kml/ext/2.2" xmlns:kml="http://www.opengis.net/kml/2.2" xmlns:atom="http://www.w3.org/2005/Atom">
<Document id="Gondkhari_AOI_New" xsi:schemaLocation="http://www.opengis.net/kml/2.2 http://schemas.opengis.net/kml/2.2.0/ogckml22.xsd http://www.google.com/kml/ext/2.2 http://code.google.com/apis/kml/schema/kml22gx.xsd">
	<name>Gondkhari_AOI_New</name>
	<Snippet maxLines="0"></Snippet>
	<Style id="PolyStyle00">
		<LabelStyle>
			<color>00000000</color>
			<scale>0</scale>
		</LabelStyle>
		<LineStyle>
			<color>ff0000ff</color>
			<width>2</width>
		</LineStyle>
		<PolyStyle>
			<color>00ffffff</color>
		</PolyStyle>
	</Style>
	<Folder id="FeatureLayer0">
		<name>Gondkhari_AOI_New</name>
		<Snippet maxLines="0"></Snippet>
		<Placemark id="ID_00000">
			<Snippet maxLines="0"></Snippet>
			<description><![CDATA[<html xmlns:fo="http://www.w3.org/1999/XSL/Format" xmlns:msxsl="urn:schemas-microsoft-com:xslt">

<head>

<META http-equiv="Content-Type" content="text/html">

<meta http-equiv="content-type" content="text/html; charset=UTF-8">

</head>

<body style="margin:0px 0px 0px 0px;overflow:auto;background:#FFFFFF;">

<table style="font-family:Arial,Verdana,Times;font-size:12px;text-align:left;width:100%;border-collapse:collapse;padding:3px 3px 3px 3px">

<tr style="text-align:center;font-weight:bold;background:#9CBCE2">

<td></td>

</tr>

<tr>

<td>

<table style="font-family:Arial,Verdana,Times;font-size:12px;text-align:left;width:100%;border-spacing:0px; padding:3px 3px 3px 3px">

<tr>

<td>FID</td>

<td>0</td>

</tr>

<tr bgcolor="#D4E4F3">

<td>Gondkhari</td>

<td>Gondkhari_Boundary</td>

</tr>

<tr>

<td>Area</td>

<td>862</td>

</tr>

</table>

</td>

</tr>

</table>

</body>

</html>]]></description>
			<styleUrl>#PolyStyle00</styleUrl>
			<gx:balloonVisibility>1</gx:balloonVisibility>
			<MultiGeometry>
				<Polygon>
					<outerBoundaryIs>
						<LinearRing>
							<coordinates>
								78.93229661906847,21.16426988840882,0 78.92889492006846,21.17059957340884,0 78.92700887006846,21.17862318940885,0 78.92698911606847,21.17898901940881,0 78.92481687206845,21.17992520040885,0 78.92183266506845,21.18119986040884,0 78.91996728006841,21.18199945740886,0 78.91268665306839,21.18047262640883,0 78.91292602706844,21.18003195640883,0 78.91521824806838,21.17575412840883,0 78.91770187606845,21.17124782540881,0 78.9131282940684,21.16756842640884,0 78.91590480106842,21.16318360440883,0 78.9167580510684,21.15864358940885,0 78.91989980006842,21.15268711740881,0 78.91673869606839,21.15108181240882,0 78.91972445506842,21.14467213040884,0 78.92173856306844,21.14036803740882,0 78.92418357606844,21.13507629440882,0 78.92565081806845,21.13269746240885,0 78.93251613206844,21.13427654740885,0 78.93523126806845,21.13407365540884,0 78.93783875706848,21.13477637440884,0 78.93825180106845,21.13617086540883,0 78.93840179206846,21.13662228440883,0 78.93864221106848,21.1376439624088,0 78.93818136106846,21.13813557940883,0 78.93765863106843,21.13903247440882,0 78.93738132806848,21.13946628140885,0 78.93725516006847,21.13965928440885,0 78.93710345106845,21.13984527840882,0 78.93683806206845,21.14004164440885,0 78.93650362606844,21.1402214594088,0 78.93635788906849,21.14040499540882,0 78.93623879206845,21.14063127540881,0 78.93613658306847,21.14092356640881,0 78.93603850606846,21.14135640840881,0 78.93590575706847,21.14207533540886,0 78.93564616806847,21.14268333640884,0 78.93499753606848,21.14374426440886,0 78.93475363606845,21.14416678240885,0 78.93455012106844,21.14461136140883,0 78.93412538506848,21.14569159240883,0 78.93377928306845,21.1467607424088,0 78.93362952106847,21.14720344140883,0 78.93348310006844,21.14750528640885,0 78.93330626506847,21.14767764740881,0 78.93277538806844,21.14804464940882,0 78.93231509531681,21.14841712143453,0 78.93184490106843,21.14954128440885,0 78.93183724106844,21.14997690340881,0 78.93157413306848,21.15133561940884,0 78.93131433106846,21.15166929940883,0 78.93116717906845,21.15198522040881,0 78.93098451406844,21.15247831340886,0 78.93081511606847,21.15275331240886,0 78.93057596606845,21.15305468040881,0 78.92998828406844,21.15368657240881,0 78.92964717306842,21.15402300640883,0 78.92920119106846,21.15443981540883,0 78.92876043003665,21.15462720768522,0 78.92838926006847,21.15520056240884,0 78.92790385206844,21.15562110540881,0 78.92723381506846,21.15667277140883,0 78.92806046606843,21.15639432540884,0 78.92893503206848,21.15619800840883,0 78.93069227306843,21.15399156340881,0 78.93348987506849,21.15070944240884,0 78.93515380406843,21.14873875240882,0 78.93615743806848,21.14779424940886,0 78.93676917806849,21.14727843340883,0 78.93812564706847,21.14636079440881,0 78.93882272206848,21.1459549614088,0 78.94041842606849,21.14493711440885,0 78.94001500606849,21.14674393240882,0 78.9393922880685,21.14979561540885,0 78.93868530006846,21.15241893640884,0 78.93792143706848,21.15533046140884,0 78.93726368506849,21.15671146240881,0 78.93639036406844,21.15862962040883,0 78.93307562006848,21.16312161740884,0 78.93257008506848,21.16377528440883,0 78.93229661906847,21.16426988840882,0 
							</coordinates>
						</LinearRing>
					</outerBoundaryIs>
				</Polygon>
			</MultiGeometry>
		</Placemark>
	</Folder>
</Document>
</kml>
