<?xml version="1.0" encoding="UTF-8"?>
<kml xmlns="http://www.opengis.net/kml/2.2" xmlns:gx="http://www.google.com/kml/ext/2.2" xmlns:kml="http://www.opengis.net/kml/2.2" xmlns:atom="http://www.w3.org/2005/Atom">
<Document>
	<name>Gondkhari Sattelite Image.kml</name>
	<Style id="s_ylw-pushpin_hl000">
		<IconStyle>
			<scale>1.3</scale>
			<Icon>
				<href>http://maps.google.com/mapfiles/kml/pushpin/ylw-pushpin.png</href>
			</Icon>
			<hotSpot x="20" y="2" xunits="pixels" yunits="pixels"/>
		</IconStyle>
		<LineStyle>
			<color>ff0000ff</color>
			<width>5</width>
		</LineStyle>
		<PolyStyle>
			<color>00ffffff</color>
		</PolyStyle>
	</Style>
	<StyleMap id="m_ylw-pushpin400">
		<Pair>
			<key>normal</key>
			<styleUrl>#s_ylw-pushpin000</styleUrl>
		</Pair>
		<Pair>
			<key>highlight</key>
			<styleUrl>#s_ylw-pushpin_hl000</styleUrl>
		</Pair>
	</StyleMap>
	<Style id="s_ylw-pushpin000">
		<IconStyle>
			<scale>1.1</scale>
			<Icon>
				<href>http://maps.google.com/mapfiles/kml/pushpin/ylw-pushpin.png</href>
			</Icon>
			<hotSpot x="20" y="2" xunits="pixels" yunits="pixels"/>
		</IconStyle>
		<LineStyle>
			<color>ff0000ff</color>
			<width>5</width>
		</LineStyle>
		<PolyStyle>
			<color>00ffffff</color>
		</PolyStyle>
	</Style>
	<Placemark>
		<name>Gondkhari</name>
		<styleUrl>#m_ylw-pushpin400</styleUrl>
		<Polygon>
			<tessellate>1</tessellate>
			<outerBoundaryIs>
				<LinearRing>
					<coordinates>
						78.91292602687317,21.18003195572895,0 78.91521824825665,21.17575412811242,0 78.9177018761026,21.17124782495099,0 78.91312829386236,21.16756842578139,0 78.91590480079883,21.16318360367799,0 78.91675805068421,21.15864358902243,0 78.91989980047306,21.15268711703784,0 78.91673869579103,21.15108181230491,0 78.91972445469139,21.14467213006166,0 78.92173856281129,21.14036803658863,0 78.92418357582325,21.13507629434582,0 78.92565081813885,21.13269746167314,0 78.93251613175337,21.13427654706766,0 78.93523126813056,21.134073654911,0 78.9378387569521,21.13477637419511,0 78.93825180068154,21.13617086467505,0 78.93840179211695,21.13662228417153,0 78.93864221094562,21.13764396172765,0 78.93818136080165,21.13813557882811,0 78.93765863076055,21.13903247444672,0 78.93738132834547,21.13946628126845,0 78.93725516033979,21.13965928424361,0 78.93710345139264,21.13984527760421,0 78.93683806170868,21.14004164408949,0 78.93650362635043,21.14022145926293,0 78.93635788932352,21.14040499547266,0 78.93623879190636,21.1406312751489,0 78.93613658343438,21.14092356619069,0 78.93603850632898,21.14135640795462,0 78.93590575714748,21.14207533485753,0 78.93564616765195,21.14268333620419,0 78.93499753643698,21.14374426437503,0 78.93475363568056,21.14416678176197,0 78.93455012135026,21.14461136062846,0 78.93412538519109,21.14569159195278,0 78.93377928316893,21.14676074194012,0 78.9336295209573,21.14720344145383,0 78.93348310019675,21.1475052856789,0 78.93330626507998,21.14767764731129,0 78.93277538842095,21.14804464919971,0 78.93241892171142,21.14833310384471,0 78.932268663529,21.14852813173284,0 78.93184490116965,21.14954128376593,0 78.93183724078565,21.14997690278755,0 78.93157413327229,21.1513356187603,0 78.93131433078189,21.15166929868208,0 78.93116717939758,21.15198521996806,0 78.93098451376844,21.15247831331158,0 78.93081511602281,21.15275331175802,0 78.93057596562406,21.15305467965227,0 78.92998828380409,21.15368657194462,0 78.92964717263143,21.15402300560229,0 78.92920119147777,21.15443981540211,0 78.92890335496959,21.15456644248477,0 78.92870808748501,21.15470806269797,0 78.92838925955763,21.15520056232682,0 78.92790385241916,21.15562110483908,0 78.92723381501213,21.15667277068561,0 78.92806046583293,21.1563943246291,0 78.9289350321159,21.15619800831579,0 78.93069227294058,21.15399156294588,0 78.93348987548397,21.15070944205517,0 78.93515380372803,21.14873875231611,0 78.93615743830223,21.14779424916124,0 78.93676917790052,21.14727843310233,0 78.93812564653025,21.14636079429492,0 78.93882272211033,21.14595496109996,0 78.94041842611428,21.14493711394329,0 78.9400150064413,21.14674393238596,0 78.93939228830595,21.14979561535489,0 78.93868530012158,21.15241893633958,0 78.9379214373147,21.1553304611555,0 78.93726368539484,21.15671146246253,0 78.93639036375691,21.15862962040417,0 78.93307562035302,21.16312161698113,0 78.93257008474149,21.16377528365863,0 78.93229661883261,21.1642698876261,0 78.92889492038915,21.17059957349856,0 78.92700887041306,21.17862318884306,0 78.92698911553826,21.1789890191209,0 78.92481687170822,21.17992519991164,0 78.92183266541596,21.18119986024295,0 78.91996728022924,21.18199945681096,0 78.9126866534879,21.18047262628845,0 78.91292602687317,21.18003195572895,0 
					</coordinates>
				</LinearRing>
			</outerBoundaryIs>
		</Polygon>
	</Placemark>
</Document>
</kml>
