{
  "type": "FeatureCollection",
  "name": "MH-001_Gondkhari_Monitoring_Boundary",
  "crs": {
    "type": "name",
    "properties": {
      "name": "urn:ogc:def:crs:OGC:1.3:CRS84"
    }
  },
  "features": [
    {
      "type": "Feature",
      "properties": {
        "project_id": "MH-001",
        "project_name": "Gondkhari",
        "source_kml": "kml/970858_FC_KML_1672903420512_Lease limit.kml",
        "approved_capacity": "2.0 MTPA Underground Coal Mine",
        "clearance_proposal_no": "FP/MH/MIN/QRY/408247/2022",
        "supporting_documents": [
          "fc_ministry_stage_i_clearance17041797972232_FP_MH_MIN_QRY_408247_2022_1747850_-signed.pdf",
          "SIR_Gondkhari.pdf"
        ],
        "boundary_role": "project_monitoring_boundary",
        "boundary_status": "validated",
        "area_ha": 862.255,
        "area_crs": "EPSG:32644"
      },
      "geometry": {
        "type": "Polygon",
        "coordinates": [
          [
            [
              78.9197147225,
              21.1446855557
            ],
            [
              78.9217291671,
              21.1403727778
            ],
            [
              78.924177222,
              21.135080278
            ],
            [
              78.9256430553,
              21.1327047221
            ],
            [
              78.9325052779,
              21.1342880559
            ],
            [
              78.9352199995,
              21.1340869447
            ],
            [
              78.9378377776,
              21.1347886109
            ],
            [
              78.9382525004,
              21.1361797226
            ],
            [
              78.9383827782,
              21.1366727779
            ],
            [
              78.9386019447,
              21.1377005551
            ],
            [
              78.9381458335,
              21.1381794444
            ],
            [
              78.9376411115,
              21.1390538891
            ],
            [
              78.9373761115,
              21.1394744446
            ],
            [
              78.937246667,
              21.1396694444
            ],
            [
              78.9370977777,
              21.1398530554
            ],
            [
              78.9368286112,
              21.1400555556
            ],
            [
              78.9365005554,
              21.1402333335
            ],
            [
              78.9363497221,
              21.1404147218
            ],
            [
              78.9362333338,
              21.1406383334
            ],
            [
              78.9361313891,
              21.1409327778
            ],
            [
              78.936033333,
              21.1413591665
            ],
            [
              78.9358986109,
              21.1420836111
            ],
            [
              78.9356397221,
              21.1426897226
            ],
            [
              78.9349869444,
              21.1437566664
            ],
            [
              78.934748056,
              21.144177778
            ],
            [
              78.9345441666,
              21.1446166669
            ],
            [
              78.9341188885,
              21.1456961109
            ],
            [
              78.9337783336,
              21.1467713885
            ],
            [
              78.9336213888,
              21.1472124999
            ],
            [
              78.9334783336,
              21.1475083336
            ],
            [
              78.9332980555,
              21.1476961113
            ],
            [
              78.9327711107,
              21.1480597218
            ],
            [
              78.9324102774,
              21.1483424998
            ],
            [
              78.9322641663,
              21.1485380559
            ],
            [
              78.9318436111,
              21.1495444444
            ],
            [
              78.9318275004,
              21.1499805556
            ],
            [
              78.9315658333,
              21.151345833
            ],
            [
              78.9313058333,
              21.1516755551
            ],
            [
              78.9311602775,
              21.1519883331
            ],
            [
              78.9309813887,
              21.1524836111
            ],
            [
              78.9308136113,
              21.1527577781
            ],
            [
              78.9305663888,
              21.1530636114
            ],
            [
              78.9299827779,
              21.1536919446
            ],
            [
              78.9296411108,
              21.1540288889
            ],
            [
              78.9291952775,
              21.1544469442
            ],
            [
              78.928898333,
              21.1545699999
            ],
            [
              78.9287033329,
              21.1547119447
            ],
            [
              78.9283797224,
              21.1552088886
            ],
            [
              78.9278952782,
              21.1556291666
            ],
            [
              78.9272275001,
              21.156675833
            ],
            [
              78.9280555557,
              21.1564013892
            ],
            [
              78.928926667,
              21.1562022222
            ],
            [
              78.9306872226,
              21.1539986115
            ],
            [
              78.9334883336,
              21.1507122218
            ],
            [
              78.9351513886,
              21.1487413886
            ],
            [
              78.9361516662,
              21.1477997227
            ],
            [
              78.9367630554,
              21.1472836114
            ],
            [
              78.9381086114,
              21.1463736109
            ],
            [
              78.938811944,
              21.1459652782
            ],
            [
              78.9404022221,
              21.1449552776
            ],
            [
              78.9400130554,
              21.1467475003
            ],
            [
              78.9393724995,
              21.1498133333
            ],
            [
              78.9386838888,
              21.1524205554
            ],
            [
              78.9379183331,
              21.1553336109
            ],
            [
              78.9372619448,
              21.1567133336
            ],
            [
              78.936386389,
              21.158632778
            ],
            [
              78.9330727774,
              21.1631244449
            ],
            [
              78.9325680554,
              21.1637791666
            ],
            [
              78.9322925001,
              21.1642738887
            ],
            [
              78.9288911111,
              21.1706030555
            ],
            [
              78.9270061111,
              21.1786261111
            ],
            [
              78.9269805556,
              21.1789966671
            ],
            [
              78.9248144443,
              21.1799277778
            ],
            [
              78.9218324998,
              21.1811991667
            ],
            [
              78.9199658331,
              21.1819988887
            ],
            [
              78.9126738885,
              21.1804963891
            ],
            [
              78.9129186109,
              21.1800375003
            ],
            [
              78.9152161113,
              21.1757605553
            ],
            [
              78.9176933331,
              21.1712563891
            ],
            [
              78.9131219443,
              21.1675738887
            ],
            [
              78.9158986111,
              21.1631977776
            ],
            [
              78.9167341668,
              21.1586586108
            ],
            [
              78.9198930557,
              21.1526986112
            ],
            [
              78.9167222218,
              21.1511080557
            ],
            [
              78.9197147225,
              21.1446855557
            ]
          ]
        ]
      }
    }
  ]
}